name,brand,street,zip,city,country,latitude,longitude,phone,email,website
Autohaus König GmbH,OPEL,Kolonnenstraße 31,10829,Berlin,DE,52.485308,13.369845,030 789 567 0,,http://www.opel.de
Autohaus Gotthard König GmbH,OPEL,Kolonnenstr. 31,10829,Berlin,DE,52.485308,13.369845,030 789 567 0,,http://www.opel.de
"DÜRKOP GmbH, Filiale Berlin-Prenzlauer Berg",OPEL,Goethestr. 5/7,10409,Berlin,DE,52.5509024,13.4333939,030  4218090,info-prenzlauerberg@duerkop.de,https://www.opel-duerkop-prenzlauer-berg.de/
KADEA Berlin GmbH,OPEL,Bessemerstr. 28-36,12103,Berlin,DE,52.4650418,13.3669412,030  75060,info@ka-de-a.de,http://www.opel.de
KADEA Berlin GmbH,OPEL,Seesener Str. 58-59,10709,Berlin,DE,52.4918467,13.2974884,030  8960910,info@ka-de-a.de,http://www.opel.de
Stellantis &You Deutschland GmbH,OPEL,Weissenseer Weg 65,10369,Berlin,DE,52.538514,13.467788,03021-929060,,http://www.opel.de
KADEA Berlin GmbH,OPEL,Buschkrugallee  35,12359,Berlin,DE,52.4612269,13.447261,030  56825950,info@ka-de-a.de,http://www.opel.de
Autohaus Dinnebier GmbH,OPEL,Holzhauser Str. 10-12,13509,Berlin,DE,52.5771931,13.2966151,030  430030,,https://www.opel-dinnebier-berlin-reinickendorf.de/
Autohaus Koch GmbH,OPEL,Hansastraße 212,13051,Berlin,DE,52.558699,13.493962,030 983089222,,http://www.opel.de
Autohaus Hinz GmbH & Co. KG,OPEL,Hauptstr. 167,13158,Berlin,DE,52.6022536,13.3798571,030  9120010,info@autohaus-hinz.de,https://www.opel-hinz-berlin.de/
DÜRKOP GmbH Filiale Berlin-Rummelsburger Landstr.,OPEL,Rummelsburger Landstr. 112,12459,Berlin,DE,52.472917,13.508507,030  5499870,info-rummelsburg@duerkop.de,https://www.opel-duerkop-berlin-koepenick.de/
Autohaus Kramm GmbH,OPEL,Hauptstr. 24-25,13127,Berlin-Buchholz,DE,52.6089402,13.4334739,030  4749060,,https://www.opel-kramm-berlin.de/
Autohaus Dinnebier GmbH,OPEL,Nordring 6,12681,Berlin,DE,52.5631828,13.5503611,030 93893200,lars.schoke@dinnebiergruppe.de,https://www.opel-dinnebier-nordring.de/
Autohaus Arnhölter GmbH,OPEL,Brunsbütteler Damm 82 - 90,13581,Berlin,DE,52.5342129,13.1847005,030  3308070,,https://www.opel-arnhoelter-berlin.de/
KADEA Berlin GmbH Filiale Köpenick,OPEL,Lindenstr. 16-18,12555,Berlin,DE,52.4542085,13.5680278,030  6589070,info@ka-de-a.de,http://www.opel.de
Autohaus Haupt GmbH,OPEL,Ruppiner Chaussee 377,13503,Berlin,DE,52.6242885,13.2311357,030  4314086,opel.haupt@nexgo.de,https://www.opel-haupt-berlin.de/
Autohaus König GmbH,OPEL,WARTHESTR. 17,14513,Teltow,DE,52.399884,13.240095,03328/3378300,,http://www.opel.de
Autohaus Gotthard König GmbH,OPEL,Warthestraße 17,14513,Teltow,DE,52.399884,13.240095,03971 / 20170,,http://www.opel.de
DÜRKOP GmbH Filiale Hoppegarten,OPEL,Neuer Hönower Weg 10,15366,Dahlwitz-Hoppegarten,DE,52.512536,13.6514737,03342  354267,info-hoppegarten@duerkop.de,https://www.opel-duerkop-hoppegarten.de/
Autohaus Gotthard König GmbH,OPEL,Carenaallee 2a,15366,Hoppegarten,DE,52.51336,13.65372,03342 426860,,http://www.opel.de
Autohaus König GmbH,OPEL,Carenaallee 2a,15366,Hoppegarten,DE,52.51336,13.65372,03342 426860,,http://www.opel.de
Autohaus Arnhölter GmbH,OPEL,Hallesche Str. 1,14612,Falkensee,DE,52.5518738,13.1030273,03322  25020,armin.arnhoelter@t-online.de,https://www.opel-arnhoelter-falkensee.de/
Autohaus Arnhölter GmbH,OPEL,Mühlenstr. 3,14624,Dallgow,DE,52.5372777,13.040634,03322  24560,,https://www.opel-arnhoelter-dallgow.de/
DÜRKOP GmbH Filiale Bernau,OPEL,Mühlenstr. 30,16321,Bernau bei Berlin,DE,52.6821542,13.5804429,03338  39090,info-bernau@duerkop.de,https://www.opel-duerkop-bernau.de/
Schachtschneider GmbH & Co. KG,OPEL,Ulmenstr. 4,14482,Potsdam,DE,52.3779071,13.109192,0331  550440,beelitz@opel-schachtschneider.de,https://www.opel-schachtschneider-potsdam.de/
Autohaus Böttche GmbH,OPEL,Trebbiner Str. 24,14480,Potsdam,DE,52.35725,13.13087,0331/649950,,https://www.opel-boettche-teltow.de/
Autohaus Bogedaly Vertriebs   & Service GmbH,OPEL,Nuthedamm 1,14974,Ludwigsfelde,DE,52.2957776,13.272632,03378  81470,,https://www.opel-bogedaly-ludwigsfelde.de/
Autohaus Dinnebier GmbH,OPEL,Saarlandstr. 32-38,16515,Oranienburg,DE,52.7353664,13.2462801,03301  58590,lars.schoke@dinnebiergruppe.de,https://www.opel-dinnebier-oranienburg.de/
Autohaus Strauch GmbH,OPEL,Tasdorf Süd Nr. 10,15562,Rüdersdorf,DE,52.4923561,13.7802784,033638  7560,,https://www.opel-strauch-ruedersdorf.de/
AMZ Autohaus Zeesen GmbH,OPEL,Karl-Liebknecht-Str. 60 - 62,15711,Königs Wusterhausen,DE,52.2718664,13.6326166,03375  92160,info@amz-zeesen.de,https://www.opel-amz-zeesen.de/
Autohaus Zossen GmbH,OPEL,Bahnhofstr. 44,15806,Zossen,DE,52.2178573,13.4406221,03377  301492,,https://www.opel-autohaus-zossen.de/
Autohaus Arnhölter GmbH,OPEL,Alfred-Nobel-Str. 6,14641,Nauen,DE,52.5968701,12.8885164,03321  44110,armin.arnhoelter@t-online.de,https://www.opel-arnhoelter-nauen.de/
Schachtschneider GmbH & Co. KG,OPEL,Chausseestr. 22/23,14542,Werder-Glindow,DE,52.3751469,12.8826389,03327  48990,,https://www.opel-schachtschneider-werder.de/
Schachtschneider GmbH & Co. KG,OPEL,Zum Bahnhof 1,14547,Beelitz,DE,52.23808,12.96734,033204  4740,beelitz@opel-schachtschneider.de,https://www.opel-schachtschneider-beelitz.de/
DÜRKOP GmbH Filiale Eberswalde,OPEL,Freienwalder Str. 82,16225,Eberswalde,DE,52.8273613,13.842536,03334  58610,info-eberswalde@duerkop.de,https://www.opel-duerkop-eberswalde.de/
Autohaus Jürgen Lautsch Inhaber Christian Grothe e. K.,OPEL,Schieferling 17,14943,Luckenwalde,DE,52.08114,13.15563,03372  42440,matthias.scheibe@autohaus-lautsch.de,https://www.opel-lautsch-jueterbog.de/
Autohaus Dinnebier GmbH,OPEL,Castrop-Rauxel-Allee 3,16792,Zehdenick,DE,52.9782955,13.3420783,03307  46700,lars.schoke@dinnebiergruppe.de,https://www.opel-dinnebier-zehdenick.de/
Autohaus Parnow e.K.,OPEL,Schamottering 1,16259,Bad Freienwalde (Oder),DE,52.7875499,14.0301861,03344  42040,opel.parnow@t-online.de,https://www.opel-parnow-bad-freienwalde.de/
Autocenter-Süd GmbH,OPEL,Valentin-Rose-Str. 3,16816,Neuruppin,DE,52.881724,12.796556,03391  59400,autocenter-sued@t-online.de,https://www.opel-autocenter-sued-neuruppin.de/
Autohaus Böttche GmbH,OPEL,Kaiserslauterner Str. 7,14772,Brandenburg,DE,52.4376635,12.5293822,03381  75890,info@ms-autohaus.de,https://www.opel-boettche-brandenburg.de/
Autohaus Kelch GmbH & Co. KG,OPEL,Babimost-Ring 2,16816,Neuruppin,DE,52.9383677,12.8161307,03391652915,,https://www.opel-kelch-neuruppin.de/
Stellantis & You Deutschland GmbH,OPEL,Dennewitzer Str. 44,14913,Jüterbog,DE,51.98427,13.06488,0337 242440,,http://www.opel.de
Autohaus Böttche GmbH,OPEL,Brandenburger Strasse 58,14806,Bad Belzig,DE,52.1497595,12.6005079,033841  5610,info@autohaus-boettche.de,https://www.opel-boettche-bad-belzig.de/
Autohaus An der Spree GmbH,OPEL,Fürstenwalder Str.  8,15848,Beeskow,DE,52.1825653,14.2430998,03366  20221,,https://www.opel-spree-beeskow.de/
Autohaus Branig GmbH,OPEL,Berliner Str. 17,15907,Lübben,DE,51.944273,13.890947,03546  7174,branig@tiscali-dsl.de,https://www.opel-branig-luebben.de/
A & M Autohaus GmbH,OPEL,Göttliner Chaussee 30,14712,Rathenow,DE,52.61744,12.31206,03385  494910,evelin.schulz.ah-schulz@partner.renault.de,https://www.opel-a-m-rathenow.de/
Autohaus Töpfer GmbH,OPEL,Zaackoer Weg 34,15926,Luckau,DE,51.8685091,13.7263318,03544  504060,toepfer.luckau.verkauf1@net.opel.com,https://www.opel-toepfer-luckau.de/
DÜRKOP GmbH Filiale Frankfurt (Oder),OPEL,An der Autobahn 3,15236,Frankfurt (Oder),DE,52.3215817,14.5103155,0335  558630,info-frankfurtoder@duerkop.de,https://www.opel-duerkop-frankfurt.de/
Autohaus Dullin GmbH,OPEL,Berliner Str. 18,16866,Kyritz,DE,52.9378327,12.4074388,033971  8810,autohaus.dullin@t-online.de,https://www.opel-dullin-kyritz.de/
Autohaus Krebs GmbH,OPEL,Am Legefeld 1,39307,Genthin,DE,52.4177299,12.1617372,03933  803505,Krebs.Genthin.Verkauf1@net.opel.com,https://www.opel-krebs-genthin.de/
Autohaus Töpfer GmbH,OPEL,Gewerbepark 2,03222,Lübbenau/Spreewald,DE,51.8535157,13.9537832,03542  89500,,https://www.opel-toepfer-luebbenau.de/
Schwedter Autohaus GmbH,OPEL,Steinstr. 10,16303,Schwedt,DE,53.071395,14.2552263,03332  44090,,http://www.opel.de
Autohaus Böttche GmbH,OPEL,Dessauer Str. 277,06886,Wittenberg,DE,51.86576,12.6266411,03491  6250,,https://www.opel-boettche-wittenberg.de/
Autohaus Lemke GmbH,OPEL,Sonnenweg 1,16909,Wittstock,DE,53.1537214,12.477352,03394  41010,info@ahlemke.gmbh,https://www.opel-lemke-wittstock.de/
"Bäker & Ahlfeldt, Inhaber Detlef Ahlfeldt e.K.",OPEL,Rathenower Str. 2,39539,Havelberg,DE,52.8198104,12.0805083,039387  88736,,https://www.opel-baeker-ahlfeldt-havelberg.de/
Frank Utpott GmbH & Co. KG,OPEL,Am Bahndamm 25,17235,Neustrelitz,DE,53.3393133,13.0649088,03981  28630,,https://www.opel-utpott-neustrelitz.de/
Autohaus Meyer & Ziegler GmbH,OPEL,Schacksdorfer Str. 2,03238,Finsterwalde,DE,51.6244899,13.7178562,03531  65020,service@opel-finsterwalde.de,https://www.opel-meyer-ziegler-finsterwalde.de/
Autohaus Gläß GmbH & Co. KG,OPEL,Tangermünder Str. 5a,39576,Stendal,DE,52.5976038,11.8680555,03931  212216,Autohaus-Glaess@t-online.de,http://www.opel.de
Autohaus Wilk GmbH,OPEL,Krennewitzer Str. 8,03044,Cottbus,DE,51.782663,14.3206517,0355  878320,hagen.wilk.ah-wilk@de.nissan.biz,http://www.opel.de
A & M Autohaus Stendal GmbH,OPEL,Clausewitzstr. 2,39576,Stendal,DE,52.608384,11.842873,03931 701060,,https://www.opel-a-m-stendal.de/
Autohaus Koitz e. K. Inh. Uwe Koitz,OPEL,Sielower Landstraße 71,03044,Cottbus,DE,51.77846,14.32159,0355 860060,info-cottbus@autohaus-koitz.de,http://www.opel.de
Autohaus Böttche GmbH,OPEL,Coswiger Straße 3,39261,Zerbst,DE,51.96231,12.09997,03923  7500,info@ms-autohaus.de,https://www.opel-boettche-zerbst.de/
Genge Automobile GmbH & Co. KG,OPEL,Vetschauer Str. 62,03048,Cottbus,DE,51.7473546,14.3120195,0355  478470,info@genge-automobile.de,https://www.opel-genge-cottbus.de/
Autohaus Böttche GmbH,OPEL,Gadewitzer Weg 18,06773,Gräfenhainichen,DE,51.7258653,12.4315392,034953  3100,info@ms-autohaus.de,https://www.opel-boettche-graefenhainichen.de/
Autohaus Böttche GmbH,OPEL,Lutherstr. 34-37,06842,Dessau,DE,51.819866,12.2382009,0340  216520,info@ms-autohaus.de,https://www.opel-boettche-dessau.de/
Autohaus Maluche GmbH,OPEL,Gewerbering 7,04860,Torgau,DE,51.5545947,12.9641202,03421  73310,,https://www.opel-maluche-torgau.de/
Böttche Automobile GmbH,OPEL,Neustrelitzer Str. 124,17033,Neubrandenburg,DE,53.5242516,13.2612244,0395  367000,,https://www.opel-boettche-neubrandenburg.de/
Autohaus Huth GmbH,OPEL,Ernst-Thälmann-Str. 1,17335,Strasburg,DE,53.5057852,13.750005,039753  2880,,https://www.opel-huth-strasburg.de/
Autohaus Hannuschka GmbH,OPEL,Gewerbestr. 03,01983,Großräschen,DE,51.5795174,14.0301837,035753  2070,,https://www.opel-hannuschka-grossraeschen.de/
Autohaus Wilhelm Neustadt e. K.,OPEL,Westbogen 2,04910,Elsterwerda,DE,51.4660838,13.4978087,03533  51910,,https://www.opel-neustadt-elsterwerda.de/
Autohaus König GmbH,OPEL,Am Fuchsberg 52,39175,Heyrothsberge,DE,52.14146,11.74328,039292 69590,,http://www.opel.de
Autohaus Gotthard König GmbH,OPEL,AM FUCHSBERG 52,39175,HEYROTHSBERGE,DE,52.14146,11.74328,039292 69590,,http://www.opel.de
Autohaus Bothe e.K.,OPEL,Briesker Str. 30 A,01968,Senftenberg,DE,51.504536,13.9710333,03573  6699  0,,https://www.opel-bothe-senftenberg.de/
Autohaus Schlingmann GmbH,OPEL,Siegfried-Marcus-Str. 1,17192,Waren/Müritz,DE,53.52014,12.71777,03991  64400,verkauf@opel-schlingmann.de,https://www.opel-schlingmann-waren.de/
Rusche GmbH,OPEL,Rogätzer Str. 23,39326,Wolmirstedt,DE,52.2596745,11.6365003,039201  5690,webmaster@opel-rusche.de,https://www.opel-rusche-wolmirstedt.de/
Autohaus Gülden GmbH,OPEL,Dürener Str. 1,06749,Bitterfeld,DE,51.6255039,12.3244313,03493  30180,,https://www.opel-guelden-bitterfeld.de/
Autohaus Nordstadt GmbH,OPEL,Rothenseer Str. 23,39124,Magdeburg,DE,52.1573913,11.6537658,0391  509940,Info@Nordstadt-Magdeburg.de,https://www.opel-nordstadt-magdeburg.de/
Genge Automobile GmbH & Co. KG,OPEL,Westbahnstraße 2,03130,Spremberg,DE,51.5720333,14.367629,03563  39600,,https://www.opel-genge-spremberg.de/
Auto-Center Pfuhl GmbH,OPEL,Hallesche Str. 20,06749,Bitterfeld,DE,51.605598,12.292881,03493 60440,,https://www.opel-pfuhl-bitterfeld.de/
Autohaus Böttche GmbH,OPEL,Am Stremsgraben 1,39218,Schönebeck,DE,52.0281541,11.706922,03928  421660,,https://www.opel-boettche-schoenebeck.de/
Förster GmbH,OPEL,Senftenberger Str. 2-6,02991,Lauta,DE,51.4614757,14.0885223,035722  3640,,https://www.opel-foerster-lauta.de/
Autohaus Eilenburg GmbH,OPEL,Zscheppliner Landstr. 11,04838,Eilenburg,DE,51.4655286,12.6086188,03423  603565,,https://www.opel-autohaus-eilenburg.de/
Autohaus Calbe GmbH,OPEL,An der Hospitalstr. 11,39240,Calbe,DE,51.8990866,11.7577929,039291  4310,,https://www.opel-autohaus-calbe.de/
Autohaus Gute Fahrt GmbH,OPEL,Langenfelder Str. 2,06366,Köthen,DE,51.7436755,11.9469636,03496  505460,,https://www.opel-gute-fahrt-koethen.de/
Manfred Bennemann GmbH,OPEL,Bahnhofstr. 2a,06369,Radegast,DE,51.6560044,12.0873022,034978  21476,info@autohaus-bennemann.de,https://www.opel-bennemann-radegast.de/
Autohaus Tollensetal Zweigbetrieb Böttche Automobile GmbH,OPEL,Gewerbehof 4,17087,Altentreptow,DE,53.6862388,13.265648,03961  25850,,https://www.opel-boettche-altentreptow.de/
Autohaus Seifert GmbH & Co. KG,OPEL,Königstr. 65a,39116,Magdeburg,DE,52.086817,11.5683597,0391  636000,,https://www.opel-seifert-magdeburg.de/
Autohaus Gülden OHG,OPEL,Dr.-Helmut-Schreyer-Str. 2 - 4,04509,Delitzsch,DE,51.5127871,12.3388052,034202  8020,delitzsch@autohaus-guelden.de,https://www.opel-guelden-delitzsch.de/
Autohaus Rauhut GmbH,OPEL,Isenschnibber Chaussee 4,39638,Gardelegen,DE,52.536035,11.4041276,03907  80140,,https://www.opel-rauhut-gardelegen.de/
Autohaus Lach GmbH,OPEL,Friedensstr. 103,39619,Arendsee,DE,52.8825489,11.4903808,039384  2245,lachahar@aol.com,http://www.opel.de
Brinkmann GmbH,OPEL,Rösterweg 3,17153,Stavenhagen,DE,53.68709595055534,12.908813652827908,039954 3730,opel@autobrinkmann.de,https://www.opel-autobrinkmann-stavenhagen.de/
Rusche GmbH,OPEL,J.G.-Nathusius-Str. 2,39340,Haldensleben,DE,52.28031,11.43354,03904  668090,webmaster@opel-rusche.de,https://www.opel-rusche-haldensleben.de/
Autohaus Wilhelm Neustadt e. K.,OPEL,Hangstr. 28,04758,Oschatz / MT Merkwitz,DE,51.31803,13.09322,03525  51060,,https://www.opel-neustadt-oz.de/
Autohaus Möldgen GmbH & Co. KG,OPEL,Königsbrücker Str. 60,01558,Großenhain,DE,51.2993882,13.5820523,03522  51460,,https://www.opel-moeldgen-grossenhain.de/
Autohaus Alfred Schmidt OHG,OPEL,Goethestr. 12,19386,Lübz,DE,53.4583036,12.0425825,038731  5170,,https://www.opel-schmidt-luebz.de/
Autohaus Reinhard Aßmann GmbH,OPEL,Ueckermünder Str. 36,17367,Eggesin,DE,53.6847978,14.0800115,039779  2690,,https://www.opel-assmann-eggesin.de/
KFZ Brüning GmbH,OPEL,Kalistr. 5,06406,Bernburg,DE,51.776647,11.7437724,03471  32990,,https://www.opel-bruening-bernburg.de/
KFZ Brüning GmbH,OPEL,Am Steinbruch 7,39418,Staßfurt,DE,51.86722,11.60321,03925  329010,g.bruening@bruening-kfz.de,https://www.opel-bruening-stassfurt.de/
Autopark Borsdorf GmbH,OPEL,Leipziger Str. 49,04451,Borsdorf,DE,51.3484843,12.5440664,034291  89500,info@autoparkborsdorf.de,https://www.opel-borsdorf.de/
Autohaus Fritzsche GmbH,OPEL,Birkenweg 1,01936,Königsbrück,DE,51.264415,13.903999,035795  47486,,http://www.opel.de
ACO Autohaus Weißwasser - NL der AutoCenter Oberlausitz AG,OPEL,Industriestr. Ost 1,02943,Weißwasser/Oberlausitz,DE,51.4892273,14.6623641,035762  1560,,https://www.opel-aco-weisswasser.de/
Automobilzentrum Leipzig GmbH,OPEL,Torgauer Str. 108,04318,Leipzig,DE,51.3513887,12.4257527,0341  234940,,http://www.opel.de
"Ernst Dello GmbH & Co. KG, Parchim",OPEL,Heidefeld 2,19370,Parchim,DE,53.44109,11.83742,03871  68880,eppendorf@dello.de,https://www.opel-dello-parchim.de/
"Autohaus Dietrich, Inh. Tobias Dietrich e.K.",OPEL,Naundorfer Str. 7,06198,Salzatal OT Schwittersdorf,DE,51.4482,12.11369,034773  20216,,https://www.opel-dietrich-salzatal.de/
Autohaus Bosse OHG,OPEL,Wilhelmstr. 17,39649,Mieste,DE,52.4813957,11.2056202,039082  408,,https://www.opel-bosse-mieste.de/
Automobilzentrum Leipzig GmbH Filiale Großmann,OPEL,Äußere Leipziger Str. 82,04435,Schkeuditz,DE,51.3867463,12.2531197,034204  7777  0,uwe.scheiner@opel-amz.de,http://www.opel.de
Automobilzentrum Leipzig GmbH,OPEL,Waldstr. 87,04105,Leipzig,DE,51.3500667,12.3546641,0341  982120,,http://www.opel.de
Automobile Peter GmbH,OPEL,Trothaer Straße 39,06118,Halle (Halle-Trotha),DE,51.518918,11.955465,0345 524380,,http://www.opel.de
Autohaus Rank ZNL der Winter Automobilpartner GmbH & Co. KG,OPEL,Hohe Str. 8,01917,Kamenz,DE,51.2672161,14.1116003,03578  38250,info@opel-lausitz.de,https://www.opel-rank-kamenz.de/
Autohaus Reinhard Aßmann GmbH,OPEL,J.-F.-Böttger Str. 2,17389,Anklam,DE,53.838702,13.7199114,03971  29150,,https://www.opel-assmann-anklam.de/
AMS Burgenland GmbH,OPEL,Rudolf-Ernst-Weise-Str. 18,06112,Halle (Saale),DE,51.474008,11.98646,0345/2129210,,http://www.opel.de
Autohaus Gotthard König GmbH,OPEL,MERSEBURGER STR. 10,06110,HALLE,DE,51.472623,11.98302,0345 6141570,,http://www.opel.de
Autohaus König GmbH,OPEL,MERSEBURGER STR. 10,06110,HALLE,DE,51.472623,11.98302,0345 6141570,,https://www.opel-koenig-halle.de/
Automobilzentrum Leipzig GmbH,OPEL,Groitzscher Strasse 1-15,04179,Leipzig,DE,51.3302304,12.3199498,0341  490190,,http://www.opel.de
Automobilzentrum Leipzig GmbH,OPEL,Magdeborner Str. 12,04416,Wachau/Markkleeberg,DE,51.2817749,12.4261044,034297  7240,uwe.scheiner@opel-amz.de,http://www.opel.de
Autohaus H. Habich GmbH,OPEL,Ottostr. 3,06449,Aschersleben,DE,51.7693184,11.484601,03473  88803,,http://www.opel.de
Mundt Automobile GmbH & Co. KG,OPEL,Göttinger-Bogen 6,06126,Halle (Saale),DE,51.4757757,11.9013868,0345  55490  0,,https://www.opel-mundt-halle-saale.de/
Automobile Peter GmbH,OPEL,Göttinger Bogen 6,06126,Halle (Halle-Neustadt),DE,51.475715,11.901335,0345 554900,,http://www.opel.de
Automobilzentrum Halle GmbH,OPEL,Lauchstädter Straße 9b,06179,Halle-Angersdorf,DE,51.464598,11.912103,0345 1316790,,http://www.opel.de
Autohaus Böttche GmbH,OPEL,Friedrichstr. 65,39387,Oschersleben,DE,52.0305114,11.2391803,03949  94430,,https://www.opel-boettche-oschersleben.de/
Sachsengarage GmbH,OPEL,Südstr. 2,01640,Coswig,DE,51.1225785,13.5885774,03523  53660,Chris.wyrembeck@sachsengarage.de,https://www.opel-sachsengarage-coswig.de/
Autohaus Dresden GmbH,OPEL,Zur Wetterwarte 40,01109,Dresden,DE,51.1314262,13.7847139,0351  885520,,http://www.opel.de
Winter Automobilpartner GmbH   & Co. KG,OPEL,Gewerbering Süd 3,01900,Bretnig,DE,51.1590823,14.0521666,035955  4830,,https://www.opel-winter-bretnig.de/
Autohaus Dresden GmbH,OPEL,Kötzschenbroder Str. 141,01139,Dresden,DE,51.0880046,13.6794849,0351  839300,,http://www.opel.de
Automobile Peter GmbH,OPEL,Naumburger Straße 44,06217,Merseburg,DE,51.344481,11.989227,03461 56040,,http://www.opel.de
Mundt Autozentrum GmbH,OPEL,Naumburger Str. 44,06217,Merseburg,DE,51.3438386,11.9884821,03461  5604  0,juergen.hoffmann@opel-use.de,https://www.opel-mundt-merseburg.de/
Auto-Köhler GmbH,OPEL,Hauptstr. 35,04736,Waldheim,DE,51.0773148,13.0051457,034327  90222,,https://www.opel-koehler-waldheim.de/
Brinkmann GmbH,OPEL,Verbindungschaussee 8d,18273,Güstrow,DE,53.7967064663978,12.201465878786893,03843 234561,opel@brinkmannosterloh.de,https://www.opel-autobrinkmann-guestrow.de/
Autohaus Dresden GmbH,OPEL,Bremer Str. 18a,01067,Dresden,DE,51.06177,13.70272,0351  863030,info.bremerstrasse@autohaus-dresden.de,http://www.opel.de
Puschmann GmbH,OPEL,Zellsteig 2,01683,Nossen,DE,51.0419538,13.2816787,035242  62100,puschmann@auto-nossen.de,https://www.opel-puschmann-nossen.de/
Motorkraft GmbH Autohaus Schwerin-Medewege,OPEL,Eichholzstr. 88,19089,Crivitz,DE,53.5771924,11.6617842,03863  555936,,https://www.opel-motorkraft-crivitz.de/
Autohaus Mätschke GmbH,OPEL,Jagdweg 6,01159,Dresden,DE,51.0466448,13.7160557,0351 498140,,https://www.opel-maetschke-dresden-jagdweg.de/
"AH Richter,ZNL der Winter Automobilpartner GmbH   & Co KG",OPEL,Friedrich-List-Str. 3,01877,Bischofswerda,DE,51.1171257,14.1879221,03594  77690,,https://www.opel-richter-bischofswerda.de/
Autohaus Mätschke GmbH,OPEL,Kesselsdorfer Str. 248,01169,Dresden,DE,51.0392491,13.6519514,0351  413080,opel_maetschke@t-online.de,https://www.opel-maetschke-dresden.de/
Autohaus Hohlfeld- Niederl. d. ACO AutoCenter Oberlausitz AG,OPEL,Neusalzaer Str. 53,02625,Bautzen,DE,51.1627856,14.4287219,03591  31280,holger.teichmann@opel-hohlfeld.de,https://www.opel-hohlfeld-bautzen.de/
Autohaus Heuter GmbH Filiale Wilhemschacht,OPEL,Am Wilhelmschacht 15,04552,Borna,DE,51.1163358,12.4851038,03433 27110,,https://www.opel-heuter-borna.de/
Autohaus Thiede GmbH,OPEL,Büddenstedter Str. 6-12,38364,Schöningen,DE,52.1419111,10.974674,05352  1853,,https://www.opel-thiede-schoeningen.de/
Autohaus Dresden GmbH,OPEL,Possendorfer Str. 38/40,01217,Dresden,DE,51.0139641,13.7269842,0351  404010,info.bremerstrasse@autohaus-dresden.de,http://www.opel.de
Autohaus Henke- Niederl. der ACO AutoCenter Oberlausitz AG,OPEL,Jänkendorfer Str. 1,02906,Niesky,DE,51.285724,14.8178554,03588  25090,lothar.henke@aco-live.de,https://www.opel-henke-niesky.de/
Autohaus Scheffler GmbH,OPEL,Ahornstr. 2,09661,Hainichen,DE,50.9831484,13.107594,037207  5600,scheffler@autohaus-scheffler.de,http://www.opel.de
Autohaus Peter Engel e.K.,OPEL,Grüner Weg 12,29456,Hitzacker,DE,53.14197,11.04171,05862/6468,engel.peugeot@t-online.de,http://www.opel.de
Autohaus Carsten Neumann GmbH,OPEL,Am Fuchsberg 1,17438,Wolgast,DE,54.0479526,13.7520313,03836  2590,AHNeumann@t-online.de,https://www.opel-neumann-wolgast.de/
Autohaus Israel GmbH & Co. KG,OPEL,Dohnaer Str. 310,01257,Dresden,DE,50.9889692,13.812774,0351  28579  0,,http://www.opel.de
Autohaus Quedlinburg-West GmbH,OPEL,Westerhäuser Str. 23,06484,Quedlinburg,DE,51.7905003,11.1326868,03946  779160,AUTOHAUS_QUEDLINBURG-WEST_GMBH@T-ONLINE.DE,https://www.opel-quedlinburg.de/
Autohaus Friebel GmbH,OPEL,Dresdner Str. 103,01809,Heidenau,DE,50.9866163,13.8587256,03529  56940,,https://www.opel-friebel-heidenau.de/
Autohaus Scheffler GmbH,OPEL,Neusorger Str. 34,09648,Altmittweida,DE,50.9673655,12.979538,03727  94300,,http://www.opel.de
Mareike Zobjack GmbH,OPEL,Äußere Pillnitzer Straße 17,01796,Pirna,DE,50.980352,13.927627,03501-56040,,http://www.opel.de
Autohaus Rußig Arndt Rußig,OPEL,Wilhelm-Kaulisch-Str. 45,01844,Neustadt in Sachsen,DE,51.024025,14.2205766,03596  58590,,https://www.opel-russig-arndt-neustadt.de/
Ruhm Automobile GmbH,OPEL,Nebraer Tor 7,06268,Querfurt,DE,51.3735708,11.6007084,034771  73601,Ruhm-Automobile@t-online.de,https://www.opel-ruhm-querfurt.de/
Autozentrum Langendorf GmbH,OPEL,Weißenfelser Str. 25,06667,Weißenfels,DE,51.1855884,11.9662342,03443  393939,hartmut.gross@ah-azl.de,https://www.opel-langendorf-weissenfels.de/
Autohaus Hohlfeld-Niederl. der ACO AutoCenter Oberlausitz AG,OPEL,Am Pilzdörfel 29,02689,Sohland,DE,51.0545774,14.4044544,035936  3840,holger.teichmann@opel-hohlfeld.de,https://www.opel-hohlfeld-sohland.de/
"Ernst Dello GmbH & Co. KG, Schwerin",OPEL,Hagenower Str. 75,19061,Schwerin,DE,53.5993016,11.4161444,0385  302300,schwerin@dello.de,https://www.opel-dello-schwerin.de/
Autohaus Gerds GmbH,OPEL,Zum Rauhen Berg 16,18507,Grimmen,DE,54.1061248,13.0637585,038326  2848,gf@opel-gerds.de,https://www.opel-gerds-grimmen.de/
Autohaus Hans-Georg Lindemann e.Kfm. Inhaber Bernd Kölpien,OPEL,Friedrich-Heincke-Str. 54,19230,Hagenow,DE,53.4266146,11.1892697,03883  722044,,https://www.opel-lindemann-hagenow.de/
Autohaus Mätschke GmbH,OPEL,Dresdener Str. 48,09599,Freiberg,DE,50.9144635,13.3610686,03731 26840,,https://www.opel-maetschke-freiberg.de/
Auto Richter GmbH,OPEL,Frankenberg/Eder Str. 1,09669,Frankenberg/Sachsen,DE,50.89939,13.03535,037206  60060,,https://www.opel-richter-frankenberg.de/
ACO AutoCenter Oberlausitz AG,OPEL,Rumburger Str. 7,02708,Löbau,DE,51.0842224,14.6650329,03585  47270,,https://www.opel-aco-loebau.de/
AMS Burgenland GmbH,OPEL,Leipziger Str. 42,06712,Zeitz,DE,51.0642478,12.1378745,03441  6625  0,,https://www.opel-ams-burgenland-Zeitz.de/
Motorkraft GmbH Autohaus Schwerin-Medewege,OPEL,Schnitterwiese 1,19055,Schwerin,DE,53.6633933,11.4037139,0385  593000,,https://www.opel-motorkraft-schwerin.de/
Autohaus Will GmbH,OPEL,Am Mönchenfelde 18,38889,Blankenburg (Harz),DE,51.8032881,10.9432027,03944  90250,autohaus-will@t-online.de,https://www.opel-will-blankenburg.de/
Autohaus Anke GmbH,OPEL,Chemnitzer Str.  55,09569,Oederan,DE,50.8608033,13.1607681,037292  50610,,https://www.opel-anke-oederan.de/
Autohaus Schmidt,OPEL,Gewerbegebiet Süd Nr. 2,09618,Brand-Erbisdorf,DE,50.8519276,13.3232041,037322  2554,info@schmidtautohaus.de,https://www.opel-schmidt-brand.de/
AMS Burgenland GmbH,OPEL,Wilhelm-Franke-Str. 2,06618,Naumburg,DE,51.1442,11.83128,03445  231350,msperhake@web.de,https://www.opel-ams-burgenland-naumburg.de/
Auto Center Röhrsdorf Filiale der Auto Center Chemnitz GmbH,OPEL,Röhrsdorfer Allee 6,09247,Röhrsdorf,DE,50.86799,12.85844,03722  52080,acn@opel-chemnitz.de,http://www.opel.de
Auto Center Chemnitz GmbH,OPEL,Blankenauer Str. 58,09113,Chemnitz,DE,50.8532786,12.9294135,0371  449990,acn@opel-chemnitz.de,http://www.opel.de
Autohaus Hans-Georg Lindemann e.Kfm. Inhaber Bernd Kölpien,OPEL,Wölzower Weg 32,19243,Wittenburg,DE,53.5026906,11.09704,038852  50500,,https://www.opel-lindemann-wittenburg.de/
Autohaus Heidrich OHG,OPEL,Zittauer Str. 23,02730,Ebersbach/Sachsen,DE,51.00018,14.62485,03586  302010,AH-Heidrich@t-online.de,https://www.opel-heidrich-ebersbach.de/
Autohaus Heuck GmbH,OPEL,Theodor-Fontane-Str. 15,38855,Wernigerode,DE,51.8476391,10.8084456,03943  43333,heuck@heuck-autohaus.de,https://www.opel-heuck-wernigerode.de/
Autohaus an der Lutherkirche GmbH,OPEL,Gutenbergstr. 4-6,09126,Chemnitz,DE,50.8228123,12.9371561,0371  530100,,https://www.opel-lutherkirche-chemnitz.de/
Auto Center Lange Filiale der Auto Center Chemnitz GmbH,OPEL,Zschopauer Str. 212,09126,Chemnitz,DE,50.8156826,12.9517574,0371  561640,,http://www.opel.de
Autohaus Barbarossa GmbH,OPEL,Sangerhäuser Str. 12b,06556,Artern,DE,51.3717729,11.2879267,03466  32520,,https://www.opel-barbarossa-artern.de/
Autohaus Blecker GmbH,OPEL,Braunschweiger Str. 151,38518,Gifhorn,DE,52.4627697,10.5419522,05371   120 13,,https://www.opel-blecker-gifhorn.de/
Auto Center Süd Zweigniederl. der Auto Center Chemnitz GmbH,OPEL,Carl-Hamel-Str. 4,09116,Chemnitz,DE,50.8142999,12.8848835,0371  271440,acn@opel-chemnitz.de,http://www.opel.de
Autohaus Pierstorff GmbH,OPEL,Fritz-Reuter-Str. 11,18239,Satow,DE,54.0087741,11.8991692,038295  78231,autohaus-pierstorff@mobile.de,https://www.opel-pierstorff-satow.de/
Autohaus Heino Niemann Inh. Holger Niemann,OPEL,Kösterbecker Straße 2,18184,Roggentin,DE,54.0916401,12.1593276,0381  609080,,http://www.opel.de
DÜRKOP GmbH,OPEL,Helmstedter Str. 60,38126,Braunschweig,DE,52.2539149,10.5657059,0531  7030,,https://www.opel-duerkop-braunschweig.de/
Krüll OP GmbH,OPEL,Dierkower Allee 3,18146,Rostock,DE,54.1036621,12.1786911,0381  65870,,https://www.opel-kruell-rostock.de/
Schlüter GmbH,OPEL,Schweriner Str. 29,19209,Lützow,DE,53.6549031,11.180229,038874  3050,opel-schlueter@T-ONLINE.DE,https://www.opel-schlueter-luetzow.de/
Autohaus Geißler-Niederl. der ACO AutoCenter Oberlausitz AG,OPEL,An der B 99 1G,02827,Görlitz,DE,51.0736771,14.9632351,035822  600,autohaus-geissler@aco-live.de,https://www.opel-geissler-goerlitz.de/
AutoServiceCenter Siebeneicher Henry Siebeneicher GmbH & Co. KG,OPEL,Max-Niklas-Str. 3,01773,Altenberg,DE,50.7687569,13.7551725,035056  35336,henry.siebeneicher@ah-siebeneicher.de,https://www.opel-siebeneicher-altenberg.de/
Ernst Dello GmbH & Co. KG,OPEL,Gustower Weg 13,18439,Stralsund,DE,54.2740297,13.1099211,03831 26200,,https://www.opel-dello-stralsund.de/
Autohaus Manfred Krüger GmbH,OPEL,Hawermannweg 19,18069,Rostock,DE,54.1051384,12.0798548,0381  8172710,,https://www.opel-krueger-rostock-reutershagen.de/
R.S.P. Autohandel und Service GmbH,OPEL,Goldbachstr. 19b,09353,Oberlungwitz,DE,50.7908144,12.6971797,03723  41920,,https://www.opel-rsp-oberlungwitz.de/
Zimpel & Franke GmbH,OPEL,Seiferitzer Allee 4,08393,Meerane,DE,50.8340833,12.4488973,03764  40080,zimpelundfranke@t-online.de,https://www.opel-zimpel-franke-meerane.de/
Autocenter Wismar GmbH,OPEL,Flinkerskoppel 2,23966,Wismar,DE,53.8753695,11.4490679,03841  73000,info@autocenter-wismar.eu,https://www.opel-autocenter-wismar.de/
Autohaus Krüger GmbH,OPEL,Breitscheidstr. 80,08451,Crimmitschau,DE,50.8198786,12.4096527,03762  7003  0,,https://www.opel-krueger-crimmitschau.de/
Autohaus Am Auersberg GmbH,OPEL,Am Eichenwald 8,9356,St. Egidien,DE,50.7720254,12.6246627,037204  58590,mueller@motor-lichtenstein.de,https://www.opel-auersberg-lichtenstein.de/
Autohaus Barbarossa GmbH,OPEL,Esperstedter Str. 33,06567,Bad Frankenhausen,DE,51.351293,11.1384116,034671  5490,,https://www.opel-barbarossa-bad-frankenhausen.de/
Autohaus Selck GmbH,OPEL,An der Gartenanlage 5,18209,Bad Doberan,DE,54.1057351,11.9252808,038203  4550,,https://www.opel-selck-bad-doberan.de/
Autohaus Olbrich-Niederl. der ACO AutoCenter Oberlausitz AG,OPEL,Hauptstr. 104,02779,Großschönau,DE,50.892613,14.6793337,035841  3330,info@opel-olbrich.de,https://www.opel-olbrich-grossschoenau.de/
Autohaus Manfred Krüger GmbH,OPEL,An der Stadtautobahn 61,18119,Rostock,DE,54.1676478,12.0784222,0381  548110,,https://www.opel-krueger-rostock.de/
Autohaus Sven Nicolai,OPEL,Chemnitzer Str. 66,09366,Niederdorf,DE,50.7193638,12.7852889,037296  7300,,https://www.opel-nicolai-niederdorf.de/
Auto Exner GmbH & Co. KG,OPEL,Hinter dem Südbahnhof 19,07548,Gera,DE,50.863855,12.081399,0365  2059470,,http://www.opel.de
Autohaus Sauske GmbH & Co. KG,OPEL,Dr.-Otto-Nuschke-Str. 90,09376,Oelsnitz/Erzgebirge,DE,50.7217109,12.7201344,037298  3330,info@autohaus-sauske.de,https://www.opel-sauske-oelsnitz.de/
Autohaus Schwarz OHG,OPEL,Am Abrahamschacht 3,09496,Marienberg,DE,50.659338,13.153162,03735  679610,thomas.schwarz@autohaus-schwarz.com,https://www.opel-schwarz-marienberg.de/
Automobile Lorenz OHG,OPEL,Am Walzwerk 2,09526,Olbernhau,DE,50.6514921,13.3642336,037360  1660,info@automobile-lorenz.com,https://www.opel-lorenz-olbernhau.de/
Automobile Peter GmbH,OPEL,Nordhäuser Strasse 1,99734,Nordhausen,DE,51.5503446,10.7679523,03631-651040,,https://www.opel-peter-nordhausen.de/
Auto Exner GmbH & Co. KG,OPEL,Lahnsteiner Str. 5,07629,Hermsdorf,DE,50.8920302,11.8678056,036601  7970,,http://www.opel.de
Autohaus Barnath GmbH,OPEL,Crimmitschauer Str. 28-30,08412,Werdau,DE,50.7436412,12.3747424,03761  71080,,https://www.opel-barnath-werdau.de/
Autohaus Dähn GmbH,OPEL,Barthestr. 65,18356,Barth,DE,54.3677474,12.7152343,038231  83588,,https://www.opel-daehn-barth.de/
Auto-Stanze GmbH & Co.KG,OPEL,Braunschweiger Str. 114-116,38259,Salzgitter,DE,52.052554,10.375402,05341   31 076,auto-stanze@t-online.de,https://www.opel-stanze-salzgitter.de/
Auto Eggert GmbH,OPEL,Stralsunder Chaussee 21,18528,Bergen auf Rügen,DE,54.4102,13.42159,03838/82030,,https://www.opel-eggert-bergen.de/
Zimpel & Franke GmbH,OPEL,Reichenbacher Str. 119,08056,Zwickau,DE,50.7080732,12.4622208,0375  2717790,zimpelundfranke@t-online.de,https://www.opel-zimpel-franke-zwickau.de/
Autohaus Matt GmbH,OPEL,Erfurter Str. 107,99510,Apolda,DE,51.02178,11.48892,03644  5032  0,,https://www.opel-matt-apolda.de/
Zimpel & Franke GmbH,OPEL,Gewerbestr. 3,08141,Reinsdorf,DE,50.6859157,12.5637337,0375  282860  61,,https://www.opel-zimpel-franke-reinsdorf.de/
"Ernst Dello GmbH & Co. KG, Lüneburg",OPEL,August-Horch-Str. 25,21337,Lüneburg,DE,53.2380948,10.4577872,04131  789960,eppendorf@dello.de,https://www.opel-dello-lueneburg.de/
DÜRKOP GmbH Filiale Goslar,OPEL,Bornhardtstr. 4,38644,Goslar,DE,51.9242157,10.4158057,05321  5540,info-braunschweig@duerkop.de,https://www.opel-duerkop-goslar.de/
Autohaus Lauenburg GmbH & Co. KG,OPEL,Mecklenburger Str. 2,21481,Lauenburg,DE,53.384783,10.5434925,04153  59990,,https://www.opel-lauenburg.de/
Autohaus Herzog GmbH,OPEL,Uferstr. 1,07570,Weida,DE,50.777906,12.0643517,036603  62456,,http://www.opel.de
Borchers Kraftfahrzeuge GmbH,OPEL,Hauptstr. 80,29356,Bröckel,DE,52.5249982,10.2158753,05144   97 876,postmaster@borchers-broeckel.de,https://www.opel-borchers-broeckel.de/
Autohaus Schinner e.K.,OPEL,Löbstedter Str. 33,07749,Jena,DE,50.9371104,11.5956129,03641 46060,info@autohaus-schinner.de,https://www.opel-schinner-jena.de/
Zimpel & Franke GmbH,OPEL,Gewerbering 3,09456,Annaberg-Buchholz,DE,50.597962,13.0194977,03733  56300,,https://www.opel-zimpel-franke-annaberg.de/
Automobile Peter GmbH,OPEL,Frohndorfer Str. 82,99610,Sömmerda,DE,51.1589092,11.1456679,03634  3704  0,a.kaestner@autohauspeter.de,https://www.opel-peter-sommerda.de/
Auto Dolge GmbH & Co. KG,OPEL,Geraer Str. 80,07646,Stadtroda,DE,50.8601492,11.7457265,036428  4960,autodolge@t-online.de,https://www.opel-dolge-stadtroda.de/
Automobile Peter GmbH,OPEL,Erfurter Str. 41,99706,Sondershausen,DE,51.36413,10.84372,03632  60440,,https://www.opel-peter-sondershausen.de/
Autohaus Willi und Ernst Blume KG,OPEL,Hauptstr. 264,37431,Bad Lauterberg,DE,51.6341219,10.4801961,05524  9225  0,autohaus@opel-blume.de,https://www.opel-blume-bad-lauterberg.de/
Autohaus Schinner e.K.,OPEL,Erfurter Str. 57,99427,Weimar,DE,50.9797256,11.3054868,03643  24620,info@autohaus-schinner.de,https://www.opel-schinner-weimar.de/
Zimpel & Franke GmbH,OPEL,Schneeberger Str. 19,08321,Zschorlau,DE,50.5672484,12.6384559,03771  45080,zimpelundfranke@t-online.de,https://www.opel-zimpel-franke-zschorlau.de/
Autohaus Lein KG,OPEL,Auer Str. 1a,08340,Schwarzenberg,DE,50.549465,12.7603647,03774  18000,,https://www.opel-lein-schwarzenberg.de/
Ulrich Horn GmbH,OPEL,Soltauer Str. 9,21385,Amelinghausen,DE,53.1247192,10.2096644,04132   600,autohaus-horn@t-online.de,https://www.opel-horn-amelinghausen.de/
Auto Eggert GmbH,OPEL,Sassnitzer Str. 2,18551,Sagard,DE,54.5239505,13.561518,038302  888110,,https://www.opel-eggert-sagard.de/
Autohaus Barnath GmbH,OPEL,Kaltes Feld 1,08468,Heinsdorfergrund,DE,50.5997288,12.3273154,03765  55080,,https://www.opel-barnath-heinsdorfergrund.de/
Autohaus Rößler KG,OPEL,Neudorfer Str. 282,09474,Crottendorf,DE,50.5027375,12.9373125,037344  7620,AhRoessler@t-online.de,https://www.opel-roessler-crottendorf.de/
Autohaus Dünkel & Söhne GmbH,OPEL,Im Camisch 11,07768,Kahla,DE,50.8141038,11.5760273,036424  5770,,https://www.opel-duenkel-kahla.de/
Plaschka Munster GmbH & Co. KG,OPEL,Wagnerstr. 10-18,29633,Munster,DE,52.9911225,10.0991307,05192  98880,autohaus-plaschka@t-online.de,https://www.opel-plaschka-munster.de/
Autohaus Lier GmbH & Co. KG,OPEL,Hachumer Str. 12,31167,Bockenem,DE,52.008306,10.1217623,05067   9112  0,,https://www.opel-lier-bockenem.de/
Automobile Peter GmbH,OPEL,Herzberger Landstr. 3a,37520,Osterode,DE,51.7151322,10.2743651,05522  50760,a.kaestner@autohauspeter.de,https://www.opel-peter-osterode.de/
Evels und von der Ohe GmbH & Co. KG,OPEL,Burgdorfer Str. 112,31275,Lehrte,DE,52.3878444,9.9704634,05132   829 50,info@evelsundvonderohe.de,https://www.opel-evels-von-der-ohe-lehrte.de/
Autohaus Ohlhoff GmbH,OPEL,Celler Str. 42,29303,Bergen,DE,52.8040876,9.9675627,05051  98990,info@ohlhoff.de,https://www.opel-ohlhoff-bergen.de/
Autohaus Barnath GmbH,OPEL,Zur Sternkoppel 6,08228,Rodewisch,DE,50.5209884,12.3856098,03744  3091720,,https://www.opel-barnath-rodewisch.de/
Autohaus Schorr GmbH,OPEL,An der Henne 22,99085,Erfurt,DE,50.9785274,11.0846844,0361  420440,,https://www.Opel-Schorr-Erfurt.de/
Johs. Meyer GmbH,OPEL,Geninerstr. 179,23560,Lübeck,DE,53.8471728,10.6699156,0451   530 07  0,info@johs-meyer.de,https://www.opel-meyer-luebeck.de/
Autohaus Maack KG,OPEL,Kreisstr. 36 a,21445,Wulfsen,DE,53.2989711,10.143466,04173   514 00,AutohausMaack@t-online.de,https://www.opel-maack-wulfsen.de/
Automobile Peter GmbH,OPEL,Paul-Schäfer-Str. 97,99086,Erfurt,DE,50.9866574,11.0405771,0361  55400,,https://www.opel-peter-erfurt.de/
DÜRKOP GmbH Filiale Hildesheim,OPEL,Bavenstedter Str. 90,31135,Hildesheim,DE,52.1659932,9.9762108,05121   20 40 8  10,info-hildesheim@duerkop.de,https://www.opel-duerkop-hildesheim.de/
"Ernst Dello GmbH & Co. KG, Lübeck",OPEL,Töpferweg 61-63,23558,Lübeck,DE,53.8613319,10.6655205,0451   88 008  0,eppendorf@dello.de,https://www.opel-dello-luebeck.de/
Autohaus Stahlbuhk e.K. Inh. Sven Stahlbuhk,OPEL,Neuengammer Hausdeich 210,21039,Hamburg-Neuengamme,DE,53.4450317,10.2305939,040  7232018,info@stahlbuhk.de,https://www.opel-stahlbuhk-hamburg.de/
Lörchner Automobile e.K.,OPEL,Bodenburger Str. 24,31162,Bad Salzdetfurth,DE,52.0496005,10.0023943,05063  9030,loerchnerautomobile@t-online.de,https://www.opel-loerchner-bad-salzdetfurth.de/
Autohaus Fräter GmbH,OPEL,Bei der Lohmühle 86,23554,Lübeck,DE,53.8800997,10.673119,0451  290880,tmcw99@aol.com,https://www.opel-fraeter-luebeck.de/
Teichmann Automobile GmbH,OPEL,Malmsgelänge 3,07381,Pößneck,DE,50.6974385,11.6178652,03647 4743000,,https://www.opel-teichmann-poessneck.de/
Autohaus Bartels GmbH,OPEL,Höfestr. 5,30916,Isernhagen,DE,52.4627469,9.8913688,05139  89980,,https://www.opel-bartels-isernhagen.de/
"Ernst Dello GmbH & Co. KG, Bad Schwartau",OPEL,Eutiner Str. 4,23611,Bad Schwartau,DE,53.9208556,10.6971316,0451   293 02 0,eppendorf@dello.de,https://www.opel-dello-bad-schwartau.de/
"Ernst Dello GmbH & Co. KG, Reinbek",OPEL,Senefelder-Ring 1,21465,Reinbek,DE,53.5338755,10.2388104,040  7276060,,https://www.opel-dello-reinbek.de/
Auto Exner GmbH & Co. KG,OPEL,DRESDENER STR. 14,08529,PLAUEN,DE,50.50887,12.16027,03741-4560,info@automobile-exner.de,http://www.opel.de
Autohaus Funke,OPEL,Sandberg 34,37339,Gernrode,DE,51.3917434,10.4059079,036076  50281,autohaus.funke@t-online.de,https://www.opel-funke-gernrode.de/
Autohaus Koch Inhaber Sönke Koch e. K.,OPEL,Thieshoper Str. 11,21438,Brackel,DE,53.3045726,10.0568143,04185   58 450,service@opel-koch.de,https://www.opel-koch-brackel.de/
Autohaus Willi Hasselmann GmbH & Co. KG,OPEL,Steinförder Str. 6,29323,Wietze,DE,52.6544252,9.8407375,05146   381,opel-hasselmann@t-online.de,http://www.opel.de
Autohaus in Hanstedt GmbH & Co. KG,OPEL,Winsener Str. 11,21271,Hanstedt,DE,53.2578312,10.0166478,04184   89 420,manfred_menke@web.de,https://www.opel-hanstedt.de/
Autohaus Ahrens GmbH,OPEL,Bahnhofstr. 21,22885,Barsbüttel,DE,53.570035,10.2392673,040  7106174,Opel-Ahrens@t-online.de,https://www.opel-ahrens-barsbuettel.de/
"Ernst Dello GmbH & Co. KG, Reinfeld",OPEL,Stubbendorfer Ring 2,23858,Wesenberg OT Reinfeld,DE,53.82396,10.50598,04533-8004,eppendorf@dello.de,https://www.opel-dello-reinfeld.de/
Autohaus Dornig GmbH & Co. KG,OPEL,Brüderstr. 1,08527,Plauen,DE,50.4881327,12.1350949,03741  3070,,https://www.opel-dornig-plauen.de/
Autohaus Altermann GmbH,OPEL,Alt-Saale 4,07407,Uhlstädt-Kirchhasel,DE,50.7278334,11.381877,03672  4335  0,opel@autohaus-altermann.com,https://www.opel-altermann-uhlstaedt.de/
Willi Kaiser Inhaber Olaf Kaiser e.K.,OPEL,Erlenweg 1,21217,Seevetal,DE,53.4118958,10.0583551,04105  82482,Opel-Kaiser@t-online.de,https://www.opel-kaiser-seevetal.de/
Beer & Sokolowsky,OPEL,Grenzheide 50,30853,Langenhagen,DE,52.4596574,9.7619294,0511   97 266  0,,https://www.opel-beer-sokolowsky-langenhagen.de/
Autohaus Günther GmbH & Co. KG,OPEL,Hans-Böckler-Allee 29,30173,Hannover,DE,52.3710988,9.7710659,0511  98095  0,,https://www.opel-guenther-hannover.de/
DÜRKOP GmbH Filiale Hannover,OPEL,Am Listholze 26 - 30,30177,Hannover,DE,52.3979298,9.7638398,0511  696360,,https://www.opel-duerkop-hannover.de/
"Ernst Dello GmbH & Co. KG, Ahrensburg",OPEL,Beimoorweg 16,22926,Ahrensburg,DE,53.6801,10.25437,04102  8815  0,eppendorf@dello.de,https://www.opel-dello-ahrensburg.de/
Autohaus Zink GmbH,OPEL,Francois-Mitterand-Allee 14,07407,Rudolstadt,DE,50.7155147,11.3113868,03672  422406,,https://www.opel-zink-rudolstadt.de/
"Ernst Dello GmbH & Co. KG, Billstedt",OPEL,Möllner Landstr. 55,22117,Hamburg,DE,53.5385404,10.1107491,040  73623  0,,https://www.opel-dello-hamburg-billstedt.de/
Autohaus Günther GmbH & Co. KG,OPEL,Schöneberger Str. 80,30982,Pattensen,DE,52.2696798,9.7636465,05101  99850,opel@sustrate.com,https://www.opel-sustrate-pattensen.de/
Autohaus Schorr GmbH,OPEL,Ammersche Landstr. 140,99974,Mühlhausen/Thüringen,DE,51.2250665,10.4534088,03601  88150,info@schorr.de,https://www.opel-schorr-muehlhausen.de/
Autohaus Hentschel GmbH,OPEL,Vahrenwalder Str. 141,30165,Hannover,DE,52.398726,9.735693,0511 3525 0,,https://www.opel-hentschel-hannover.de/
Trend Autohaus GmbH,OPEL,Beim schwarzen Feld 6,99974,Mühlhausen/Thüringen,DE,51.1987052,10.4753543,03601  46090,,https://www.opel-trend-muehlhausen.de/
Zimpel & Franke GmbH,OPEL,Talstr. 3,08248,Klingenthal,DE,50.3553362,12.4683464,037467  289868,klingenthal@opel-klingenthal.de,https://www.opel-zimpel-franke-klingenthal.de/
"Ernst Dello GmbH & Co. KG, HH-Großmoorbogen",OPEL,Großmoorbogen 3,21079,Hamburg,DE,53.4620303,10.0108388,040  771 210,harburg@dello.de,https://www.opel-dello-hamburg-harburg.de/
Autohaus Schorr GmbH,OPEL,Ichtershäuser Str. 76,99310,Arnstadt,DE,50.8528836,10.9559827,03628  58570,,https://www.Opel-Schorr-Arnstadt.de/
Autohaus Hentschel GmbH,OPEL,Grambartstr. 33,30165,Hannover,DE,52.408531,9.702869,0511 3525520,,http://www.opel.de
Auto-Höhns GmbH & Co. KG,OPEL,Alte Landesstr. 4,29640,Schneverdingen,DE,53.1241194,9.8044345,05193  1239,ah-hoehns@t-online.de,https://www.opel-hoehns-schneverdingen.de/
A-C-H Saalfeld GmbH,OPEL,Mittlerer Watzenbach 15,07318,Saalfeld,DE,50.6563984,11.3436416,03671  53550,christian.hoffmann@hoffmann-mobile.de,https://www.opel-ach-saalfeld.de/
Ernst Dello GmbH & Co. KG,OPEL,Friedrich-Ebert-Damm 184,22047,Hamburg,DE,53.5859531,10.084394,040 6686040,,https://www.opel-dello-hamburg-wandsbek.de/
Autohaus Hamann GmbH,OPEL,Davenstedter Str. 120 - 122,30453,Hannover,DE,52.3652082,9.6930183,0511  921660,dirk.hamann@hamann.fsoc.de,https://www.opel-hamann-hannover.de/
CCF Centro Commerciale GmbH,OPEL,Eiffestrasse 578,20537,HAMBURG,DE,53.5515278,10.0525256,040 797240472,,http://www.opel.de
"Ernst Dello GmbH & Co. KG, Farmsen",OPEL,August-Krogmann-Str. 200,22159,Hamburg,DE,53.6234008,10.1110721,040  64 55 86 0,,https://www.opel-dello-hamburg-farmsen.de/
CCF Centro Commerciale GmbH,OPEL,WANDSBEKER CHAUSSEE 195-197,22089,HAMBURG,DE,53.567608,10.0468,040 - 54 88 78-0,,http://www.opel.de
Autohaus Siebrecht GmbH,OPEL,Hannoversche Str. 24,37574,Einbeck,DE,51.8213137,9.8500547,05561  93730,info@ah-siebrecht.de,https://www.opel-siebrecht-einbeck.de/
Volkmar GmbH,OPEL,Steingraben 13,37308,Heiligenstadt,DE,51.37929,10.12743,03606  506680,info@volkmar24.de,https://www.opel-volkmar-heiligenstadt.de/
Autohaus Dieter Hoch GmbH & Co. KG,OPEL,Rudolf-Diesel-Str. 2,29664,Walsrode,DE,52.8655498,9.6181144,05161  73255,saabzentrumwalsrode@t-online.de,https://www.opel-hoch-walsrode.de/
Harry Thiele GmbH,OPEL,Auf der Horst 78-80,30823,Garbsen,DE,52.4210879,9.5934171,05137   14090,info@opel-thiele.de,https://www.opel-thiele-garbsen.de/
"Ernst Dello GmbH & Co. KG, Eppendorf",OPEL,Nedderfeld 65,22529,Hamburg,DE,53.602163,9.974228,040  4712  0,,https://www.opel-dello-hamburg.de/
"Ernst Dello GmbH & Co. KG, Oldenburg",OPEL,Burgtorstr. 5-15,23758,Oldenburg,DE,54.293793,10.887493,04361 5153,,https://www.opel-dello-oldenburg.de/
CCF Centro Commerciale GmbH,OPEL,STRESEMANNALLEE 116,22529,HAMBURG,DE,53.5829749,9.9560172,040 5488780,,https://www.opel-karabag-stresemannallee.de/
CCF Centro Commerciale GmbH,OPEL,NEDDERFELD 21,22529,HAMBURG,DE,53.603431,9.968644,0405488780,,http://www.opel.de
Krüll OP GmbH,OPEL,Ruhrstr. 63,22761,Hamburg,DE,53.5675229,9.9247794,040  8530601,kai.olbrich@kruell-gruppe.de,http://www.opel.de
Automobile Peter GmbH,OPEL,Im Rinschenrott 5,37079,Göttingen,DE,51.55044,9.91986,0551-820840,info@petergroup.de,https://www.opel-peter-goettingen.de/
"Ernst Dello GmbH & Co. KG, Norderstedt",OPEL,Niendorfer Str. 139,22848,Hamburg,DE,53.6673157,9.9716497,040  534 29 0,eppendorf@dello.de,https://www.opel-dello-norderstedt.de/
Autohaus Brock e.K.,OPEL,Hamelner Str. 43,31832,Springe,DE,52.2044702,9.5419585,05041  94530,OpelGraver@t-online.de,https://www.opel-brock-springe.de/
Autohaus Marcel Ruprich,OPEL,Lessingstraße 71,21629,Neu Wulmstorf,DE,53.4652765,9.7824831,040  76114630,marcel.ruprich@mr-carsandmore.de,https://www.opel-ruprich-neu-wulmstorf.de/
Autohaus Witt GmbH & Co. KG,OPEL,Gewerbestr. 1,21279,Hollenstedt,DE,53.362317,9.710788,04165   21 33  0,opel-witt@t-online.de,http://www.opel.de
Autohaus Waltershausen GmbH,OPEL,Industriestr. 3,99880,Waltershausen,DE,50.9046858,10.563888,03622  44220,opel@autohaus-halbauer.de,https://www.opel-waltershausen.de/
Autohaus Schenk GmbH,OPEL,Auf dem Mittelfeld 6,98693,Ilmenau,DE,50.6908521,10.924718,03677  64340,,https://www.opel-schenk-ilmenau.de/
Autohaus Dornig GmbH & Co. oHG,OPEL,Kulmbacher Str. 85,95030,Hof,DE,50.3158232,11.8912919,09281  70960,autopark@dornig.de,https://www.opel-dornig-hof.de/
Autohaus Ullmann GmbH,OPEL,Lise-Meitner-Str. 13,31515,Wunstorf,DE,52.4100066,9.4563962,05031  77890,autohaus.ullmann@t-online.de,https://www.opel-ullmann-wunstorf.de/
Autohaus Hermann Kröger GmbH,OPEL,Blankeneser Chaussee 93,22869,Schenefeld,DE,53.5916008,9.8237013,040  830 40 91,info@kroeger-automobile.de,https://www.opel-kroeger-schenefeld.de/
Auto Exner GmbH & Co. KG,OPEL,Wunsiedler Str. 2,95032,Hof,DE,50.304697,11.9169353,09281  7820,,http://www.opel.de
Autohaus Estorff GmbH & Co.KG,OPEL,Rautenbergstr. 38,24306,Plön,DE,54.1570996,10.4402902,04522   9011,,https://www.opel-estorff-ploen.de/
"Ernst Dello GmbH & Co. KG, Rellingen",OPEL,Halstenbeker Weg 87,25462,Rellingen,DE,53.64363,9.84076,04101  214  0,eppendorf@dello.de,https://www.opel-dello-rellingen.de/
Wilhelm Kuhfuß KG,OPEL,Kieler Str. 49-51,25451,Quickborn,DE,53.7272092,9.8984743,04106   2600,info@autohaus-kuhfuss.de,https://www.opel-kuhfuss-quickborn.de/
Autohaus Fischer GmbH & Co. KG,OPEL,Werner-von-Siemens-Str. 1,24568,Kaltenkirchen,DE,53.828036,9.9802532,04191  9925  0,info@opelfischer.de,https://www.opel-fischer-kaltenkirchen.de/
Auto Exner GmbH & Co. KG,OPEL,Kronacher Str. 40,95119,Naila,DE,50.3234596,11.6937523,09282  5071,,http://www.opel.de
Autohaus Barleben GmbH,OPEL,Am Hopfenhof 2,24321,Lütjenburg,DE,54.2961805,10.5973941,04381  8642,autohaus-barleben@t-online.de,https://www.opel-barleben-luetjenburg.de/
Autohaus Klausnitz Inhaberin Anke Klausnitz,OPEL,Ilmenauer Str. 7G,98701,Großbreitenbach,DE,50.5830252,10.9969275,036781  42294,,https://www.opel-klausnitz-grossbreitenbach.de/
Autohaus Schorr GmbH,OPEL,Wilhelm-Rinkens-Straße 1,99817,Eisenach,DE,50.9804157,10.3184546,03691  2400,info@schorr.de,https://www.opel-schorr-eisenach.de/
Autohaus Altermann GmbH,OPEL,Sonneberger Str. 250,98724,Neuhaus am Rennweg,DE,50.493299,11.162338,03679  79000,opel@autohaus-altermann.com,https://www.opel-altermann-neuhaus.de/
Automobile Peter Nordhessen GmbH,OPEL,Thüringer Str. 22 b,37269,Eschwege,DE,51.195724,10.033264,05651  80000,,https://www.opel-heidenreich-eschwege.de/
Autohaus Siebrecht GmbH,OPEL,Wiesenstr. 15,37170,Uslar,DE,51.6596382,9.629737,05571  92300,info@ah-siebrecht.de,https://www.opel-siebrecht-uslar.de/
Automobile Peter Nordhessen GmbH,OPEL,Am Eschenbornrasen 15-17,37213,Witzenhausen,DE,51.3387969,9.8621006,05542   93 550,,https://www.opel-heidenreich-witzenhausen.de/
Autohaus Siebrecht GmbH,OPEL,Langes Feld 10,31789,Hameln,DE,52.097757987914584,9.394845987275193,05151 55510,,http://www.opel.de
Autohaus Siebrecht GmbH,OPEL,Lilienthalstr. 4,37603,Holzminden,DE,51.8412698,9.4673316,05531  93100,info@ah-siebrecht.de,https://www.opel-siebrecht-holzminden.de/
Autohaus Dornig GmbH & Co. KG,OPEL,Ottostr. 15,95233,Helmbrechts,DE,50.2370808,11.7226603,09252  3890,,https://www.opel-dornig-helmbrechts.de/
Autohaus Manfred Schulte GmbH,OPEL,Pinneberger Chaussee 11,25436,Moorrege,DE,53.6740485,9.6780887,04122  85920,fiat.schulte.moorrege@t-online.de,https://www.opel-schulte-moorrege.de/
Autohaus König GmbH,OPEL,Am Fröhlichen Mann 1-3,98528,Suhl,DE,50.634957,10.702893,03681/44660,,http://www.opel.de
Anders Automobile GmbH,OPEL,Nienburger Damm 11,31582,Nienburg,DE,52.6229837,9.2405452,05021  601530,hauke.anders@mercedes-vechta.de,https://www.opel-anders-nienburg.de/
Autohaus Hellwig + Fölster GmbH,OPEL,Lohe 1-4,25436,Uetersen,DE,53.6882702,9.6531589,04122  90320,,https://www.opel-hellwig-foelster-uetersen.de/
AUTOHAUS HELLWIG + FOELSTER UETERSEN GMBH,OPEL,LOHE 1-4,25436,UETERSEN,DE,53.6882702,9.6531589,04122/90320,a.rennekamp@hellwig-foelster.de,http://www.opel.de
Hermann Kröger GmbH,OPEL,Farmers Ring 5,25337,Kölln-Reisiek,DE,53.7479048,9.6987119,04121  572000,,https://www.opel-kroeger-koelln.de/
"Ernst Dello GmbH & Co. KG, Preetz",OPEL,Kieler Str. 33,24211,Preetz,DE,54.244318,10.277018,04342 85840,,https://www.opel-dello-preetz.de/
König & Partner GmbH,OPEL,Auenstr.,98529,Suhl,DE,50.6059915,10.6781228,03681  35350,,https://www.opel-koenig-partner-suhl.de/
"Ernst Dello GmbH & Co. KG, Neumünster",OPEL,Kieler Str. 166-172,24536,Neumünster,DE,54.053075,9.976694,04321 99840,,https://www.opel-dello-neumuenster.de/
Auto-Thielmann GmbH,OPEL,Ostertor (B1),31855,Aerzen,DE,52.051386,9.269023,05154   95 440,AUTOTHIELMANN.AERZEN@t-online.de,https://www.opel-thielmann-aerzen.de/
Simon Autohaus GmbH,OPEL,Am Eisberg 2,36456,Barchfeld-Immelborn,DE,50.80708,10.29564,036961  4870,,https://www.opel-simon-barchfeld.de/
Autohaus Cordes GmbH & Co. KG,OPEL,Harburger Str. 89-91,21680,Stade,DE,53.5904359,9.4859915,04141   6078  0,,https://www.opel-cordes-stade.de/
Autohaus Stauner GmbH,OPEL,Neustadter Straße 151,96515,Sonneberg,DE,50.3480592,11.1518349,03675 74770,info@stauner-sonneberg.de,http://www.opel.de
Autohaus Lau in der Probstei GmbH,OPEL,Kamp 4,24217,Schönberg,DE,54.3855389,10.3774673,04344  6311,info@autohauslau-inderprobstei.de,https://www.opel-lau-schoenberg.de/
Autohaus Kluge GmbH & Co. KG,OPEL,Alter Hoop 2,31633,Leese,DE,52.5013047,9.1183407,05761  2786,opelkluge@compuserve.de,https://www.opel-kluge-leese.de/
Automobil-Center GmbH Eisfeld,OPEL,Weihbach 30,98673,Eisfeld,DE,50.4230348,10.9030301,03686  39240,info@opel-eisfeld.de,https://www.opel-automobilcenter-eisfeld.de/
Autohaus Hellwig u. Fölster GmbH,OPEL,Marienstr. 1,25548,Kellinghusen,DE,53.9452616,9.7287024,04822  97 970,,https://www.opel-hellwig-foelster-kellinghusen.de/
Autohaus Fräter GmbH,OPEL,Wellseedamm 23,24145,Kiel,DE,54.2855607,10.1480698,0431  780980,fraeter.kiel.verkauf1@net.opel.com,https://www.opel-fraeter-kiel-wellsee.de/
A. Wolf & Sohn GmbH & Co. KG,OPEL,Große Str. 92-94,28870,Ottersberg,DE,53.1068244,9.1593779,04205   8887,info@opel-wolf.de,https://www.opel-wolf-ottersberg.de/
Autohaus Starnitzke GmbH,OPEL,Kreuzbreite 25,31675,Bückeburg,DE,52.26559,9.07448,05722  90540,frank@starnitzke.de,https://www.opel-starnitzke-bueckeburg.de/
Luisenburg Garage GmbH,OPEL,Jean-Paul-Str. 1,95615,Marktredwitz,DE,50.00227,12.0775,09231  9999  99,jk_worlddata@gmx.de,https://www.opel-luisenburg-marktredwitz.de/
Horst Wahl GmbH & Co. KG,OPEL,IHRINGSHAEUSER STR. 153-159,34125,KASSEL,DE,51.341,9.51751,0561 8102-0,info@wahl-group.de,https://www.opel-wahl-kassel.de/
König & Partner GmbH,OPEL,Leipziger Str. 110,98617,Meiningen,DE,50.589211,10.4116913,03693  4690,,https://www.opel-koenig-partner-meiningen.de/
Autohaus Johannsen GmbH & Co. KG,OPEL,Werkstraße 2,21706,Drochtersen,DE,53.7055597,9.3976154,04143 6171,info@johannsen-autohaus.de,http://www.opel.de
Autohaus Spies GmbH,OPEL,An der Automeile 2,24589,Nortorf,DE,54.1573308,9.853062,04392  9272  0,AutoAF@t-online.de,https://www.opel-spies-nortorf.de/
Auto-Center Vacha GmbH,OPEL,Badelacher Weg 29,36404,Vacha,DE,50.8294868,10.0363589,036962  53530,,https://www.opel-auto-center-vacha.de/
Wiegmann & Duhn GmbH,OPEL,Rudolf-Diesel-Str. 2,28876,Oyten,DE,53.0609659,9.0475556,04207  3200,fahrzeughaus-wiegmann@t-online.de,https://www.opel-wiegmann-oyten.de/
Autohaus B 206 Hohenlockstedt GmbH & Co.KG,OPEL,Kieler Str. 8 - 10,25551,Hohenlockstedt,DE,53.9579405,9.6121635,04826   86 000,,https://www.opel-hellwig-foelster-hohenlockstedt.de/
Autohaus Bibbig GmbH,OPEL,August-Bebel-Str. 7,34246,Vellmar,DE,51.3640362,9.456132,0561   98 22 70,info@bibbig.de,https://www.opel-bibbig-vellmar.de/
Autohaus Witschke GmbH,OPEL,Bahnhofstr. 33,27305,Bruchhausen-Vilsen,DE,52.8247636,8.9862674,04252  815  0,mail@witschke.com,https://www.opel-witschke-bruchhausen-vilsen.de/
Autohaus Fräter GmbH,OPEL,Klausbrookerweg 1,24107,Kiel,DE,54.3494123,10.0931163,0431   54 80 60,,https://www.opel-fraeter-kiel.de/
Autohaus Korn & Schwenk GmbH,OPEL,Albert-Ruckdeschel Str. 6,95326,Kulmbach,DE,50.1128682,11.450977,09221  90520,info@korn-schwenk.de,https://www.opel-korn-schwenk-kulmbach.de/
Autohaus K. A. Brodowski GmbH & Co. KG,OPEL,Nederlandstr. 22,32825,Blomberg,DE,51.9328055,9.0929125,05235  50150  0,,http://www.opel.de
Autohaus Dornig GmbH & Co. KG,OPEL,Hofer Str. 1,95502,Himmelkron,DE,50.0544731,11.6240263,09273  9860,helmbrechts@dornig.de,https://www.opel-dornig-himmelkron.de/
Autohaus Waldhoff GmbH & Co. KG,OPEL,Industriestr. 17,33034,Brakel,DE,51.7078906,9.1760892,05272  39944,waldhoffw@lycos.de,https://www.opel-waldhoff-brakel.de/
Auto-Center Vacha GmbH,OPEL,Wiesenthaler Str. 3,36466,Dermbach,DE,50.7143877,10.1225039,036964  89890,,https://www.opel-vacha-dermbach.de/
Autohaus Henning GmbH,OPEL,Billerbecker Str. 63,32839,Steinheim,DE,51.8709101,9.0798434,05233   94 060,,https://www.opel-henning-steinheim.de/
AUTOHAUS HELLWIG + FOELSTER ITZEHOE GMBH,OPEL,DORFSTR. 1,25524,ITZEHOE,DE,53.9311134,9.5004898,04821/73900,a.rennekamp@hellwig-foelster.de,http://www.opel.de
Autohaus Hellwig u. Fölster GmbH,OPEL,Dorfstr. 1,25524,Itzehoe,DE,53.9311134,9.5004898,04821 73900,,https://www.opel-hellwig-foelster-itzehoe.de/
Auto Brucker GmbH,OPEL,Äußere Regensburger Str. 42,95643,Tirschenreuth,DE,49.8739972,12.3409372,09631  70520,info@auto-brucker.de,https://www.opel-brucker-tirschenreuth.de/
Autohaus Tonn GmbH,OPEL,Itzehoer Str. 53,24594,Hohenwestedt,DE,54.0852654,9.6496328,04871  76 400,s.tonn@autohaus-tonn.com,https://www.opel-tonn-hohenwestedt.de/
HOMMERT AUTO ZENTRUM GMBH,OPEL,HAHNWIESE 9,96450,COBURG,DE,50.23591,10.97581,09561 82880,info@hommert.eu,http://www.opel.de
Grotefeld Automobile GmbH,OPEL,Erbeweg 17,32457,Porta Westfalica,DE,52.2611939,8.8984504,0571  504050,,https://www.opel-grotefeld-porta-westfalica.de/
Autohaus Müller GmbH & Co. KG,OPEL,Gewerbering 35,27432,Bremervörde,DE,53.4971367,9.1113174,04761  97790,info-brv@opel-mueller.de,https://www.opel-mueller-bremervoerde.de/
Herbert Müller GmbH,OPEL,Hamburger Str. 2,27442,Gnarrenburg,DE,53.3564447,9.0183416,04763  94900,verkauf@opel-mueller.de,https://www.opel-mueller-gnarrenburg.de/
Autohaus Meyer GmbH,OPEL,Falkenberger Landstr. 62,28865,Lilienthal,DE,53.1540326,8.9288096,04298   93 555,,https://www.opel-meyer-lilienthal.de/
Autohaus Dieckmann,OPEL,Jan-Weber-Str. 14,27726,Worpswede,DE,53.2583017,8.9574275,04792  2626,info@opel-dieckmann.de,https://www.opel-dieckmann-worpswede.de/
Thomas Wandscher Autovertriebs GmbH,OPEL,Steubenstr. 10,28207,Bremen,DE,53.072367,8.868239,0421 98978300,,https://www.opel-wandscher-bremen.de/
"Ernst Dello GmbH & Co. KG, Syke-Barrien",OPEL,Barrier Str. 39,28857,Syke-Barrien,DE,52.9297922,8.8244645,04242  1682  0,eppendorf@dello.de,https://www.opel-dello-syke-barrien.de/
B. Humborg Kfz. GmbH & Co. KG,OPEL,Dringenbergerstr. 89,33014,Bad Driburg,DE,51.7213168,9.0164015,05253  400 90,,https://www.opel-humborg-bad-driburg.de/
Autohaus Brinkmann GmbH & Co. KG,OPEL,Lübbecker Str. 114,32479,Hille-Rothenuffeln,DE,52.2905463,8.794018,05734  1001,,https://www.opel-brinkmann-hille.de/
MGS Motor Gruppe Sticht GmbH & Co. KG,OPEL,Himmelkronstr. 12,95445,Bayreuth,DE,49.9549047,11.5490266,0921  74510,,https://www.opel-mgs-bayreuth.de/
Rietschle Automobile GmbH & Co. KG,OPEL,Steinweg 6,34587,Felsberg,DE,51.1346423,9.4264971,05662  5001  0,info@autohaus-rietschle.de,https://www.opel-rietschle-felsberg.de/
Josef Banrucker,OPEL,Tirschenreuther Str. 20,92681,Erbendorf,DE,49.8357217,12.0558073,09682  1733,opel.banrucker@t-online.de,http://www.opel.de
B. Humborg Kfz. GmbH & Co. KG,OPEL,Industriestr. 4,34414,Warburg,DE,51.4964277,9.1299194,05641  74380,,https://www.opel-autohaus-warburg.de/
"Ernst Dello GmbH & Co. KG, Bremen",OPEL,Neuenlander Str. 93-97,28199,Bremen,DE,53.0556667,8.7983778,0421  536600,bremen-flughafen@dello.de,https://www.opel-dello-bremen-flughafen.de/
Autohaus Utbremen Schmidt und Koch GmbH,OPEL,Norderneystr. 2,28217,Bremen,DE,53.0921458,8.7944079,0421  389980,,https://www.opel-schmidt-koch-utbremen.de/
Autohaus Fräter GmbH,OPEL,Kollunder Str. 3 -7,24768,Rendsburg,DE,54.29589,9.67578,04331  5093,,https://www.opel-fraeter-rendsburg.de/
Autohaus Bleker GmbH,OPEL,Carl-Zeiss-Str. 43-45,28816,Stuhr,DE,53.02372,8.76391,0421 1783060,,http://www.opel.de
Auto-Gerstner GmbH,OPEL,Bamberger Str. 40,96231,Bad Staffelstein,DE,50.0988792,10.9961035,09573  96330,,https://www.opel-gerstner-staffelstein.de/
Autohaus Heinrich Holtorf,OPEL,Bremer Str. 47,27211,Bassum,DE,52.8539022,8.7272127,04241  93550,geschaeftsleitung@holtorf.fsoc.de,https://www.opel-holtorf-bassum.de/
Autohaus Schmidt GmbH,OPEL,Hauptstr. 8,27248,Ehrenburg,DE,52.7490625,8.7032595,04275 964080,Schmidt-Ehrenburg@t-online.de,https://www.opel-schmidt-ehrenburg.de/
Autohaus Meyer GmbH,OPEL,Siemensstr. 12,27711,Osterholz-Scharmbeck,DE,53.2499227,8.812266,04791  96280,Thomas.Schwab@opelmeyer.de,https://www.opel-meyer-osterholz.de/
Hans Heinrichs GmbH,OPEL,Stoddartstr. 18,32758,Detmold,DE,51.9526888,8.8119,05232   8195,opel.heinrichs@t-online.de,https://www.opel-heinrichs-detmold.de/
Autohaus Gebr. Hoppe GmbH & Co. KG,OPEL,Briloner Str. 83,34414,Warburg,DE,51.5254788,9.0253465,05642   98 200,,http://www.opel.de
Autohaus Fräter GmbH,OPEL,Sauerstr. 5-7,24340,Eckernförde,DE,54.450152,9.8338263,04351  8831970,j.rebehn@autohaus-fraeter.de,https://www.opel-fraeter-eckernfoerde.de/
Auto Bollhöfer Service GmbH,OPEL,Daimlerstr. 1,32108,Bad Salzuflen,DE,52.057958,8.7519888,05222  92720,,https://www.opel-bollhoefer-bad-salzuflen.de/
Georg Karkutsch GmbH,OPEL,Gewerbestr. 1,21781,Cadenberge,DE,53.7750426,9.0549542,04777   1777,karkutsch@t-online.de,http://www.opel.de
Autohaus Fritzlar GmbH,OPEL,Gießener Str. 50,34560,Fritzlar,DE,51.1241175,9.2800456,05622  98940,info@autohaus-fritzlar.de,https://www.opel-fritzlar.de/
Horst Wahl GmbH & Co. KG,OPEL,Gießener Str. 52-54,34560,Fritzlar,DE,51.123631,9.279088,0271 402-0,info@wahl-group.de,http://www.opel.de
Autohaus Rau GmbH & Co. KG,OPEL,Eddelaker Str. 133,25541,Brunsbüttel,DE,53.9091783,9.1426747,04852   54 770,info@opel-rau.de,https://www.opel-rau-brunsbuettel.de/
Autohaus Buschmann GmbH,OPEL,Beuthener Str. 4,32339,Espelkamp,DE,52.3732665,8.6265232,05772  97000,h.buschmann@opelbuschmann.de,https://www.opel-buschmann-espelkamp.de/
Autohaus Buschmann GmbH & Co. KG,OPEL,Werrestraße 96 - 98,32049,Herford,DE,52.12874,8.67546,05221  996090,,https://www.opel-buschmann-herford.de/
Autohaus fahr Stein GmbH,OPEL,Hersfelder Str. 41,36088,Hünfeld,DE,50.683666,9.758265,06652/973-0,info@opel-huenfeld.de,https://www.opel-fahr-stein-huenfeld.de/
Autohaus Brockmeier GmbH,OPEL,Bleichstr. 21,33175,Bad Lippspringe,DE,51.7788265,8.8058065,05252  6533,opelbrockmeier@t-online.de,https://www.opel-brockmeier-bad-lippspringe.de/
Autohaus Franz Sadler GmbH,OPEL,Hattenbacher Str. 1,36272,Niederaula,DE,50.799243,9.6025216,06625  92232  0,info@autohaus-sadler.de,https://www.opel-sadler-niederaula.de/
Autohaus Detert GmbH & Co. KG,OPEL,Zeiss-Str. 7,32312,Lübbecke,DE,52.3275802,8.6234547,05741  40627,verkauf@opel-blase.de,https://www.opel-detert-luebbecke.de/
Autohaus Dietz OHG,OPEL,Bahnhofstr. 37-39,96106,Ebern,DE,50.1008923,10.7909936,09531  627  0,,https://www.opel-dietz-ebern.de/
Autoservice Reimann GmbH,OPEL,Bremer Str. 61,27749,Delmenhorst,DE,53.051917968244126,8.641081697605072,04221-934033,,http://www.opel.de
Alfred Grasser e.K. Inh. Mario Grasser,OPEL,Hollfelder Str. 9,96167,Königsfeld,DE,49.9461087,11.1732248,09207  297,info@opel-grasser.de,https://www.opel-grasser-koenigsfeld.de/
Auto-Richter Inh. Gerhard Richter,OPEL,Pressather Str. 51,92676,Eschenbach,DE,49.756578,11.8428883,09645  724,,https://www.opel-richter-eschenbach.de/
Autohaus Holler GmbH,OPEL,Wesermünder Str. 30,27619,Schiffdorf,DE,53.5079372,8.8000425,04749  226,opel.holler@t-online.de,http://www.opel.de
Franke Automobile GmbH & Co. KG,OPEL,Dr.-Johann-Stark-Str. 1,92637,Weiden/Oberpfalz,DE,49.6910481,12.1371026,0961  670980,,https://www.opel-franke-weiden.de/
Bauer & Bickmeier GmbH,OPEL,Detmolder Str. 120,33100,Paderborn,DE,51.7361845,8.7677382,05251  14540,,https://www.opel-bauer-bickmeier-paderborn.de/
Autohaus Heinrich Freitag GmbH & Co. KG,OPEL,Westring 3,33818,Leopoldshöhe,DE,51.9798986,8.6561118,05202  983700,n.steffen@opel-Freitag.de,https://www.opel-freitag-leopoldshoehe.de/
Autohaus Laudensack GmbH,OPEL,Besengaustr. 12,97616,Bad Neustadt an der Saale,DE,50.3326685,10.2171322,09771  61510,laudensack.badneust.service1@net.opel.com,https://www.opel-laudensack-bad-neustadt.de/
Woltmann GmbH & Co. KG,OPEL,Martinsheide 22,28757,Bremen,DE,53.1827577,8.6273403,0421  660090,veljko.cujic@bremot.de,https://www.opel-woltmann-bremen.de/
Autohaus-Wohnwagen Pieper GmbH,OPEL,Alter Postweg 54 A,32351,Stemwede,DE,52.390403,8.524048,05745   2254,Pieper.Autohaus@t-online.de,https://www.opel-pieper-stemwede.de/
Autohaus Axel Erdbrügger,OPEL,Werfer Str. 106,32257,Bünde,DE,52.1814414,8.5608379,05223  92960,opel-erdbruegger@t-online.de,https://www.opel-erdbruegger-buende.de/
Autohaus Mitlmeier GmbH,OPEL,Böhmischbrucker Str. 21,92648,Vohenstrauß,DE,49.6170594,12.3506715,09651  92050,info@automitlmeier.de,https://www.opel-mitlmeier-vohenstrauss.de/
Autohaus Koch GmbH & Co. KG,OPEL,Kirchstr. 41,33178,Borchen-Etteln,DE,51.6271687,8.763063,05292  896,AutohausKoch@t-online.de,https://www.opel-koch-borchen.de/
Auto Markötter GmbH,OPEL,Barkhauser Str. 8,33106,Paderborn,DE,51.705526,8.719751,05251/41766-0,paderborn@markoetter.de,https://www.opel-markoetter-paderborn.de/
Autohaus Orlea Inh. Ralph Orlea,OPEL,Lüssumer Str. 36,28779,Bremen,DE,53.1869654,8.5777887,0421  698660,chef@schleef.de,https://www.opel-orlea-bremen.de/
Autohaus Niederbröker GmbH   & Co. KG,OPEL,Hansastr. 27,32289,Rödinghausen,DE,52.2518604,8.522042,05746  920210,klaus.niederbroeker@niederbroeker.de,https://www.opel-niederbroeker-roedinghausen.de/
HW Autohaus Otterndorf GmbH,OPEL,Raiffeisenstraße 1,21762,Otterndorf,DE,53.8001638,8.8923442,04751  978170,t.wieboldt@autohaus-otterndorf.de,https://www.opel-autohaus-otterndorf.de/
Autohaus Egeberg,OPEL,Hauptstr. 9,24848,Kropp,DE,54.411088,9.511525,04624   12 64,Autohaus-Egeberg@t-online.de,https://www.opel-egeberg-kropp.de/
AS Automobile Necati Aslan e.K.,OPEL,Herforder Straße 84,33602,Bielefeld,DE,52.0320506,8.538439,0521  96798600,Necati.Aslan@as-automobile.de,https://www.opel-as-automobile-bielefeld.de/
R & B Automobile GmbH,OPEL,Brunnenäcker 4,91257,Pegnitz,DE,49.7456533,11.5334601,09241  99160,r.redel@rb-auto.de,https://www.opel-rb-pegnitz.de/
Scheller Beteiligungsgesellschaft mbH,OPEL,Dr. Raabe Str. 7,36043,Fulda,DE,50.551216,9.715941,06619 393930,,https://www.opel-scheller-fulda.de/
Günter Oldenbürger GmbH & Co. KG,OPEL,Lange Str. 100,32139,Spenge,DE,52.1482861,8.484675,05225   877 20,info@opel-oldenbuerger.de,https://www.opel-oldenbuerger-spenge.de/
Autohaus Rau GmbH & Co. KG,OPEL,Raiffeisenplatz 1,25704,Meldorf,DE,54.089684,9.0787985,04832  95000,info@opel-rau.de,http://www.opel.de
Wehmeier Kraftfahrzeuge GmbH,OPEL,Stadtring 11,33647,Bielefeld,DE,51.9811189,8.5207836,0521  417171,autohaus@opel-wehmeier.de,https://www.opel-wehmeier-bielefeld.de/
Autohaus Markötter GmbH,OPEL,Artur-Ladebeck-Str. 208,33647,Bielefeld,DE,51.99961,8.503295,0521/94255-0,bielefeld@markoetter.de,https://www.opel-markoetter-bielefeld.de/
ATB Autotechnik GmbH Bamberg-Schweinfurt,OPEL,Kärntenstr. 13,96052,Bamberg,DE,49.913304,10.899437,0951 406290,service@autotechnik-bamberg.de,https://www.opel-atb-bamberg.de/
fahr Jakob GmbH,OPEL,Andreasberg 4,36041,Fulda,DE,50.5535153,9.6610919,0661 83030,,https://www.opel-fahr-jakob-fulda.de/
Woltmann GmbH & Co. KG,OPEL,Ahlhorner Straße 83,27793,Wildeshausen,DE,52.89839,8.41178,04431  94900,thomas.roettger@woltmann-gruppe.de,https://www.opel-woltmann-wildeshausen.de/
"Ernst Dello GmbH & Co. KG, Schleswig",OPEL,Flensburger Str. 43,24837,Schleswig,DE,54.5250538,9.5405799,04621  96980,eppendorf@dello.de,https://www.opel-dello-schleswig.de/
Autohaus Stefan Fricke GmbH & Co. KG,OPEL,Paderborner Str. 49,33154,Salzkotten,DE,51.6761,8.61863,05258 98110,info@autozentrum-fricke.de,https://www.opel-fricke-salzkotten.de/
"Ernst Dello GmbH & Co. KG, Heide",OPEL,Hamburger Str. 123-127,25746,Heide,DE,54.1973814,9.1156041,0481  85440,eppendorf@dello.de,https://www.opel-dello-heide.de/
Schmalzried GmbH,OPEL,Stresemannstr. 37/39,27570,Bremerhaven,DE,53.5489661,8.5935502,0471   924 65  0,info@ah-schmalzried.de,https://www.opel-schmalzried-bremerhaven.de/
Autohaus Hirsch oHG,OPEL,Forchheimer Str. 44,91320,Ebermannstadt,DE,49.7771887,11.1781869,09194  73700,c.brehm@opel-hirsch.de,https://www.opel-hirsch-ebermannstadt.de/
Autohaus Rupprecht GmbH,OPEL,Nürnberger Str. 153,92533,Wernberg-Köblitz,DE,49.5421421,12.1398723,09604  2204,opel-rupprecht@t-online.de,https://www.opel-rupprecht-wernberg.de/
Autohaus Kreis GmbH & Co. KG,OPEL,Salzschlirfer Str. 2,36137,Großenlüder-Müs,DE,50.59743,9.50476,06648  95020,autohaus-kreis@t-online.de,https://www.opel-kreis-grossenlueder.de/
Autohaus Kiener,OPEL,Pilchauer Str. 6 - 8,92723,Gleiritsch-Lampenricht,DE,49.508985,12.3253363,09655  913050,opel-kiener@t-online.de,https://www.opel-kiener-gleiritsch.de/
Schlattmann GmbH & Co. KG,OPEL,Buersche Str. 16,49324,Melle,DE,52.207231,8.3459774,05422   9410  0,,https://www.opel-schlattmann-melle.de/
Autohaus Möller GmbH,OPEL,Große Heide 13,33790,Halle/Westfalen,DE,52.0472895,8.3804497,05201  971560  0,info@autohaus-ok.de,https://www.opel-moeller-halle.de/
Autohaus Hartmann GmbH,OPEL,Hersfelder Str. 81,36304,Alsfeld,DE,50.7516586,9.2830931,06631  9790,,https://www.opel-hartmann-alsfeld.de/
Gebr. Müller GmbH,OPEL,Martin-Pauls-Str. 110,26954,Nordenham,DE,53.5074235,8.4953445,04731  99999,,https://www.opel-mueller-nordenham.de/
AUTOHAUS REGETT GMBH,OPEL,WESTENHOLZER STR. 103,33129,DELBRUECK-WESTENHOLZ,DE,51.756053,8.469675,02944-97660,info@autohaus-regett.de,http://www.opel.de
Autohaus Georg Schött Inh. Fa.Autodienst Reiner Müller KG,OPEL,Vogelsbergstr. 18,36341,Lauterbach (Hessen),DE,50.6355152,9.3935332,06641  7077,,https://www.opel-schoett-lauterbach.de/
Autohaus Werner Pepping GmbH & Co KG,OPEL,Lange Str. 5,33397,Rietberg,DE,51.8225976,8.4313282,05244  3000,info@pepping.de,https://www.opel-pepping-rietberg.de/
Auto Köchling GmbH & Co. KG,OPEL,Lindenstr. 22,33142,Büren,DE,51.5573147,8.5648863,02951   9855  0,info@auto-koechling.de,https://www.opel-koechling-bueren.de/
Autohaus Graf GmbH,OPEL,Rudolf-Diesel-Str. 1,97688,Bad Kissingen,DE,50.1827247,10.0771914,0971  730730,,https://www.opel-graf-bad-kissingen.de/
Sollfrank Automobile GmbH,OPEL,Gewerbepark 3,92526,Oberviechtach,DE,49.4598707,12.4054184,09671  92440,Info@Autohaus-Sollfrank.de,https://www.opel-sollfrank-oberviechtach.de/
Anders Automobile GmbH,OPEL,Falkenrotterstr. 177,49377,Vechta,DE,52.7295075,8.253453,04441  89290,hauke.anders@mercedes-vechta.de,https://www.opel-anders-vechta.de/
Autohaus Friedrich Huber GmbH & Co. KG,OPEL,Marburger Str. 31,35279,Neustadt (Hessen),DE,50.852037135703654,9.109735495738391,06692  20380,c.huber@huber-neustadt.de,https://www.opel-huber-neustadt.de/
Autohaus Markötter GmbH,OPEL,Auf'm Kampe 1-11,33334,Gütersloh,DE,51.885077,8.35935,05241/9504-0,guetersloh@markoetter.de,https://www.opel-markoetter-guetersloh.de/
Autohaus Rau GmbH & Co. KG,OPEL,Heider Str. 8 a,25761,Büsum,DE,54.1371596,8.8706517,04834  2575,info@opel-rau.de,http://www.opel.de
THOMAS WANDSCHER AUTOVERTRIEBS GMBH,OPEL,BREMER HEERSTRASSE 400,26135,OLDENBURG,DE,53.113477,8.265002,0441 9207710,info@wandscher-gruppe.de,http://www.opel.de
Autohaus Rachinger eine Filiale der Autohaus Kropf GmbH,OPEL,Paul-Keith-Str. 1-2,91301,Forchheim,DE,49.713747,11.059913,09191/1769,,http://www.opel.de
Auto Löffler GmbH,OPEL,Rudolf-Diesel-Str. 22,97424,Schweinfurt,DE,50.0339552,10.2361322,09721  7680,,https://www.opel-loeffler-schweinfurt.de/
Auto Steinhäußer e.K.,OPEL,Bayreuther Str. 40,91322,Gräfenberg,DE,49.64491,11.25484,09192  6486,info@auto-steinhaeusser.de,https://www.opel-steinhaeusser-graefenberg.de/
Auto Köchling GmbH & Co. KG Zweigbetrieb Brilon,OPEL,Hoppecker Str. 47,59929,Brilon,DE,51.3902359,8.5749195,02961   9771  0,info@auto-koechling.de,https://www.opel-koechling-brilon.de/
Christine Frech Kfz-Werkstätte,OPEL,Regensburger Str. 33,93449,Waldmünchen,DE,49.3774724,12.6870877,09972  8430,info@autohaus-frech.de,https://www.opel-frech-waldmuenchen.de/
HIRO Automarkt GmbH,OPEL,Langenweg 20,26125,Oldenburg,DE,53.1849804,8.2212111,0441  95562  0,info@hiro-online.de,https://www.opel-hiro-oldenburg.de/
Autohaus Meixensberger Inh. Helmut Meixensberger,OPEL,Eibensteinstr. 6,92554,Thanstein,DE,49.3786806,12.4682045,09676  923160,autohaus-meixensberger@t-online.de,https://www.opel-meixensberger-thanstein.de/
Autohaus Heidrich GmbH,OPEL,Hundsmühler Str. 149,26131,Oldenburg,DE,53.1198421,8.1917438,0441  500 44  0,stamereilers@opelheidrich.de,https://www.opel-heidrich-oldenburg.de/
Autohaus Nau GmbH,OPEL,Marburger Str. 2,35260,Stadtallendorf,DE,50.8299678,9.005401,06428  3058,autohaus@nau.de,http://www.opel.de
Funke Automobile GmbH,OPEL,Schröderstr. 2,33378,Rheda-Wiedenbrück,DE,51.8616144,8.2746428,05242  94510,,https://www.opel-funke-rheda-wiedenbrueck.de/
Autohaus Röse GbR,OPEL,Wolkersdorfer Str. 33,35099,Burgwald Bottendorf,DE,51.0246705,8.8071998,06451   8939,autohausroese@t-online.de,http://www.opel.de
Autohaus Grundmeier GmbH,OPEL,Gütersloher Str. 33,33428,Harsewinkel,DE,51.9588706,8.2334373,05247   923 20,kontakt@grundmeier.com,https://www.opel-grundmeier-harsewinkel.de/
Autohaus Schwarzkopf eine Filiale der Autohaus Kropf GmbH,OPEL,Bayreuther Str. 39,92224,Amberg,DE,49.46078,11.85025,09621  6780,,http://www.opel.de
Autohaus Stefan Fricke GmbH & Co. KG,OPEL,NIKOLAUS-OTTO-STR. 5,59557,LIPPSTADT,DE,51.6526958,8.3454852,02941-28220,info@opel-fricke.de,https://www.opel-fricke-lippstadt.de/
Autohaus H. Lorenzen Inh.Helge Lorenzen,OPEL,Am Krug 10,24988,Oeversee,DE,54.7253655,9.4406539,04630  90 02  0,helge.lorenzen@opel-lorenzen.de,https://www.opel-lorenzen-oeversee.de/
Autohaus Hansa GmbH,OPEL,Raiffeisenstr. 68,26180,Rastede,DE,53.2456884,8.1849854,04402   1088,info@hansa-rastede.de,https://www.opel-hansa-rastede.de/
Autohaus Kramer,OPEL,Carls-Aue-Str. 26,59939,Olsberg,DE,51.3099808,8.5253748,02962  4580,opel.kramer@t-online.de,http://www.opel.de
Peter und Siegfried Mühlbauer oHG,OPEL,Chamer Str. 6,93437,Furth im Wald,DE,49.3029614,12.8282279,09973  84240,,https://www.opel-muehlbauer-furth.de/
"Ernst Dello GmbH & Co. KG, Husum",OPEL,Simonsberger Str. 1,25813,Husum,DE,54.4721206,9.0508338,04841  839250,eppendorf@dello.de,https://www.opel-dello-husum.de/
ELMER - die Autowelt GmbH,OPEL,Nordfeldstr. 21,33775,Versmold,DE,52.0464622,8.1492743,05423   94 320,versmold@elmer-dieautowelt.de,https://www.opel-elmer-versmold.de/
Auto Deters GmbH & Co. KG,OPEL,Mindener Str. 131,49084,Osnabrück,DE,52.2704484,8.0910788,0541  74466,,https://www.opel-deters-osnabrueck.de/
MD-Autohaus GmbH & Co. KG,OPEL,Industriestr. 6,92431,Neunburg vorm Wald,DE,49.33747,12.395722,09672  92420,md-autohaus@t-online.de,https://www.opel-md-neunburg.de/
Klaus + Co Grands Garages GmbH,OPEL,Liebigstr. 12,24941,Flensburg,DE,54.76621,9.426354,0461 903900,,https://www.opel-klaus-flensburg.de/
Autohaus Fräter GmbH,OPEL,Graf-Zeppelin-Str. 2,24941,Flensburg,DE,54.7610086,9.4112032,0461  957 33 13,,https://www.opel-fraeter-flensburg.de/
Autohaus Joh. Klarmann GmbH,OPEL,Stahlstr. 2,26215,Wiefelstede,DE,53.2499055,8.1203862,04402  69510,joh.klarmann@t-online.de,https://www.opel-klarmann-wiefelstede.de/
Heinz Viere Kfz. GmbH & Co. KG,OPEL,Teutoburger-Wald-Str. 15,49124,Georgsmarienhütte,DE,52.1974479,8.0698393,05401  86040,,https://www.opel-viere-georgsmarienhuette.de/
Anröchter Autohaus Karl Friedrich GmbH,OPEL,Boschstr. 1,59609,Anröchte,DE,51.5664956,8.3117082,02947  727,,https://www.opel-friedrich-anroechte.de/
Autohaus Weiß & Sohn Inh. Hans-Werner Lack e.K.,OPEL,Ringstr. 5,35329,Gemünden (Felda),DE,50.6811779,9.0439413,06634  574,info@opel-weiss.de,https://www.opel-weiss-gemuenden.de/
Rahenbrock Automobile GmbH & Co KG,OPEL,Hansastraße 101,49090,Osnabrück,DE,52.2944004,8.0354223,05419 62620,,https://www.opel-rahenbrock-osnabrueck.de/
Josef Scharf Automobile GmbH & Co. KG,OPEL,Neunkirchener Str. 51,91207,Lauf an der Pegnitz,DE,49.516993,11.2954807,09123  96740,kontakt@opel-scharf.de,https://www.opel-scharf-lauf.de/
Autohaus Meyer GmbH & Co. KG,OPEL,Ringstr. 2,49134,Wallenhorst,DE,52.3554072,8.0049673,05407 80321 0,,http://www.opel.de
Autohaus Müller GmbH & Co. KG,OPEL,Am Tennisplatz 2,26316,Varel,DE,53.3804552,8.1255511,04451  961300,mueller@autohaus-mueller-varel.de,http://www.opel.de
Sommerfeld's Autowelt GmbH,OPEL,MESCHEDER LANDSTRASSE 43,59581,WARSTEIN,DE,51.431117,8.346191,02902-2332,info@fiat-warstein.de,http://www.opel.de
Autohaus Biebighäuser GmbH,OPEL,Biedenkopfer Str. 5,35088,Battenberg (Eder),DE,51.0120221,8.6421646,06452  93500,,https://www.opel-biebighaeuser-battenberg.de/
Autohaus Menslage GmbH,OPEL,Robert-Bosch-Ring 2,49584,Fürstenau,DE,52.6792508,7.9577393,05431  9444  0,,https://www.opel-menslage-quakenbrueck.de/
Autohaus Dollacker Inh. Michael Dollacker,OPEL,Hauptstr. 10,92266,Ensdorf,DE,49.3406131,11.9355364,09624  1238,dollacker@t-online.de,https://www.opel-dollacker-ensdorf.de/
Autohaus Kropf GmbH,OPEL,Goerdelerstraße 4,91058,Erlangen,DE,49.57364,10.99014,09131 972090,info@kropf-automobile.de,http://www.opel.de
Autocenter Stauner GmbH,OPEL,Max-Planck-Str. 2,92421,Schwandorf,DE,49.3116228,12.1000434,09431  790810,,https://www.opel-stauner-schwandorf.de/
Thomas Wandscher Autovertriebs GmbH,OPEL,Im Doorgrund 4,26160,Bad Zwischenahn,DE,53.169172,7.998812,0440 32025,,http://www.opel.de
Auto Hammer Service GmbH,OPEL,Rückersdorfer Str. 38-40,90552,Röthenbach an der Pegnitz,DE,49.4857189,11.2456863,0911  5442660,niwo@auto-hammer-service.de,https://www.opel-hammer-roethenbach.de/
Ludwig Griesbeck Kraftfahrzeuge GmbH & Co. KG,OPEL,Badstr. 1,93413,Cham,DE,49.2205565,12.6693702,09971  85600,info@griesbeck-automobile.de,https://www.opel-griesbeck-cham.de/
Jan Martensen,OPEL,Hauptstr. 1,25862,Goldelund,DE,54.6779442,9.1144295,04673  94010,JMartensen@t-online.de,https://www.opel-martensen-goldelund.de/
Josef Scharf Automobile GmbH & Co. KG,OPEL,Ringstr. 40a,91074,Herzogenaurach,DE,49.5754861,10.8881454,09132  78180,kontakt@opel-scharf.de,https://www.opel-scharf-herzogenaurach.de/
Georg Schmidt GmbH,OPEL,Ebkeriege 34,26389,Wilhelmshaven,DE,53.5265387,8.0791098,04421   75550,,https://www.opel-schmidt-wilhelmshaven.de/
Autohaus Nau GmbH,OPEL,Gisselberger Str. 57,35037,Marburg,DE,50.7942785,8.7564322,06421  29970,autohaus@nau.de,http://www.opel.de
Zumbült Auto Arena GmbH,OPEL,Neubeckumer Str. 49,59269,Beckum,DE,51.7650819,8.0425051,02521  9383  0,,https://www.opel-zumbuelt-beckum.de/
Autohaus Kropf GmbH,OPEL,Bessemerstraße 10,90411,Nürnberg,DE,49.47435,11.10577,0911  95691210,,http://www.opel.de
Autohaus Regett GmbH,OPEL,AM KUEMKEN 2,59494,SOEST,DE,51.565824,8.123696,02921 969800,,https://www.opel-regett-soest.de/
Autohaus Thomas eine Filiale der Autohaus Kropf GmbH,OPEL,Seeackerstraße 55,90765,Fürth,DE,49.4973451,11.0021933,0911 979440,,http://www.opel.de
Auto-Fleischmann KG,OPEL,Nürnberger Str. 21 - 23,90518,Altdorf bei Nürnberg,DE,49.3846974,11.3491297,09187  90180,Auto-Fleischmann@t-online.de,https://www.opel-fleischmann-altdorf.de/
Hubert Winter Inh. Roland Winter,OPEL,Schnieglinger Str. 134 - 138,90425,Nürnberg,DE,49.46634,11.04203,0911  9333180,,http://www.opel.de
Klotmann GmbH,OPEL,Hauptstr. 8,59510,Lippetal,DE,51.6650633,8.0376096,02527  345,Info@klotmann.de,https://www.opel-klotmann-lippetal.de/
Rosenthal & Rustemeier GmbH & Co. KG,OPEL,Werler Landstraße 6,59494,Soest,DE,51.56543,8.088194,02921 6860,,https://www.opel-rosenthal-rustemeier-soest.de/
Carmen Wabner,OPEL,Hansastr. 24,90766,Fürth,DE,49.4868482,10.9571924,0911  731773,Auto-Wabner@t-online.de,https://www.opel-wabner-fuerth.de/
Autohaus Kropf GmbH,OPEL,Deutschherrnstr. 1-7,90429,Nürnberg,DE,49.4535571,11.0662404,0911  270740,,http://www.opel.de
Autohaus Graml Inh. Franz Graml jun.,OPEL,Regentalstr. 22,93149,Nittenau,DE,49.1974792,12.2631936,09436  300220,opel-graml@t-online.de,https://www.opel-graml-nittenau.de/
Autohaus Kropf GmbH,OPEL,Regensburger Str. 418 b,90480,Nürnberg,DE,49.429391,11.14201,0911 474050,,http://www.opel.de
Autohaus Pufahl GmbH & Co. KG,OPEL,Münsterstr. 51,49525,Lengerich,DE,52.1835212,7.8485437,05481  9400  0,mail@autohaus-pufahl.de,https://www.opel-pufahl-lengerich.de/
Autohaus Gerhardt e.K.,OPEL,Licher Str. 34,35321,Laubach,DE,50.5508797,8.9182054,06405  6520,info@autohaus-gerhardt.de,https://www.opel-gerhardt-laubach.de/
Autohaus Bad Orb GmbH,OPEL,Frankfurter Str. 36,63619,Bad Orb,DE,50.2303232,9.3411025,06052 9188013,,http://www.opel.de
Franz-J. Müller Autohaus Inh. Mario Müller e.K.,OPEL,Zum Musbach 4,35216,Biedenkopf,DE,50.9002641,8.5442571,06461  92644  0,info@opelmueller.de,https://www.opel-mueller-biedenkopf.de/
Köstner Automobile Service GmbH,OPEL,Nürnberger Str. 49,91413,Neustadt a. d. Aisch,DE,49.5793564,10.6162208,09161 6650,,http://www.opel.de
Autohaus Konrad GmbH,OPEL,Röntgenstr. 3,97230,Estenfeld,DE,49.8348359,10.0097838,09305  1000,kontakt@autohaus-konrad.com,http://www.opel.de
Autohaus Kroh GmbH,OPEL,Ederstr. 72,57319,Bad Berleburg,DE,51.0396364,8.3843784,02751  926660,Kroh@Opel-Kroh.de,https://www.opel-kroh-bad-berleburg.de/
Autohaus Tenambergen GmbH,OPEL,Recker Str. 27,49497,Mettingen,DE,52.3204431,7.7725604,05452  3785,info@Tenambergen.de,https://www.opel-tenambergen-mettingen.de/
Auto-Weber,OPEL,Nürnberger Straße 199,90579,Langenzenn,DE,49.4945262,10.8167764,09101  7908,info@opel-weber.com,https://www.opel-weber-langenzenn.de/
Funke Automobile GmbH,OPEL,Beckumer Str. 107,59229,Ahlen,DE,51.7647305,7.911751,02382  70700,info@auto-funke.de,https://www.opel-funke-ahlen.de/
Autohaus Schöner GmbH & Co. KG,OPEL,Nürnberger Str. 41,90556,Cadolzburg,DE,49.4635415,10.8597822,09103  79390,info@autohaus-schoener.de,https://www.opel-schoener-cadolzburg.de/
Auto-Galerie Nidda GmbH,OPEL,Raun 100,63667,Nidda,DE,50.4101773,9.0114327,06043  96460,joerg.henrich@kfz-henrich.de,https://www.opel-autogalerie-nidda.de/
Wilhelmsen AutoMix GmbH,OPEL,Bundesstr. 14,25917,Enge-Sande,DE,54.7359555,8.9462901,04662  87300,info@AUTOMIX.DE,https://www.opel-wilhelmsen-sande.de/
Josef Scharf Automobile GmbH & Co. KG,OPEL,Neuburger Str. 20,90451,Nürnberg,DE,49.402536,11.050271,0911 324340,info@scharf-automobile.de,https://www.opel-scharf-nuernberg.de/
Kerschbaum & Kahr GmbH,OPEL,Unternesselbach 52,91413,Neustadt an der Aisch,DE,49.5804373,10.5089851,09164  635,kerschbaum-und-kahr@t-online.de,https://www.opel-kerschbaum-kahr-neustadt.de/
Autohaus Ehrlich GmbH,OPEL,Nürnberger Str. 128,97076,Würzburg,DE,49.7956116,10.0004698,0931  270150,Carmen.uhl@ehrlich.de,https://www.opel-ehrlich-wuerzburg.de/
Thomas Lochschmidt GmbH,OPEL,Mohastr. 6,35410,Hungen,DE,50.4727526,8.9116206,06402  50022,service@lochschmidt.com,http://www.opel.de
Autohaus Bauer oHG,OPEL,Friedhofstr. 22,94234,Viechtach,DE,49.0756025,12.8872372,09942  94200,info@opel-bauer-viechtach.de,http://www.opel.de
Erhard Michael GmbH,OPEL,Gewerbegebiet Ost 6,92353,Postbauer-Heng,DE,49.30285,11.35984,09188  2880,info@opel-michael.de,https://www.opel-michael-postbauer.de/
Autohaus Tigger GmbH,OPEL,Osttor 63-65,48324,Sendenhorst,DE,51.8412798,7.8423948,02526  1865,UTigger@AH-Tigger.de,https://www.opel-tigger-sendenhorst.de/
Schielein Autohaus GmbH & Co. KG,OPEL,Regensburger Str. 61,92318,Neumarkt,DE,49.2715898,11.4675234,09181  26660,,https://www.opel-schielein-neumarkt.de/
Autohaus Brass GmbH & Co. KG,OPEL,Zum Eisengießer 3,97816,Lohr,DE,49.9997812,9.5757677,09352  6009  0,info.lohr@brass-gruppe.de,https://www.opel-brass-lohr.de/
Autohaus Dartmann GmbH,OPEL,Wolbecker Str. 1a,48291,Telgte,DE,51.9792214,7.7853564,02504  93140,info@opel-dartmann.de,https://www.opel-dartmann-telgte.de/
Auto-Gross GmbH,OPEL,Berliner Str. 13-15,63654,Büdingen,DE,50.2879609,9.1082483,06042  96090,,https://www.opel-gross-buedingen.de/
Autohaus Nau GmbH,OPEL,An der Automeile 20,35394,Giessen,DE,50.57333,8.71174,0641  95350,autohaus@nau.de,http://www.opel.de
"AH Bad Endbach Elsemann, NL der AH Biebighäuser GmbH",OPEL,Landstr. 61,35080,Bad Endbach,DE,50.7563744,8.5073124,02776  1000  0,,https://www.opel-elsemann-bad-endbach.de/
Wilhelm Jonas GmbH & Co.,OPEL,Hammer Str. 92,59457,Werl,DE,51.5636547,7.8983656,02922  50180,,https://www.opel-jonas-werl.de/
Autohaus Zimmermann GmbH,OPEL,Brückenstr. 32,61200,Wölfersheim-Berstadt,DE,50.4259264,8.8612939,06036  781,AH.Zimmermann@t-online.de,https://www.opel-zimmermann-woelfersheim.de/
HIRO Automarkt GmbH,OPEL,Hauptstr. 117,26639,Wiesmoor,DE,53.4215155,7.7464849,04944   9190  0,,https://www.opel-hiro-wiesmoor.de/
KIFFE V & N GmbH,OPEL,Werler Str. 171-177,59063,Hamm,DE,51.666978,7.8320222,02381  95500,manfred.martens@kiffe.de,https://www.opel-kiffe-hamm.de/
Autohaus Moser GmbH,OPEL,Wischenhofer Str. 2a,93182,Heitzenhofen,DE,49.1249791,11.9220561,09473  1307,autohaus.moser@t-online.de,https://www.opel-moser-heitzenhofen.de/
Auto Karl GmbH,OPEL,Hohenfelser Str. 11,92331,Parsberg,DE,49.162217,11.7158611,09492  5062,info@auto-karl-gmbh.de,https://www.opel-karl-parsberg.de/
Auto-Gross GmbH,OPEL,Lützelhäuser Straße 1,63571,Gelnhausen,DE,50.1596973,9.1905506,06051  9678  0,,https://www.opel-gross-gelnhausen.de/
Berkemeier GmbH,OPEL,Ibbenbürener Str. 19-23,48369,Saerbeck,DE,52.1773708,7.637311,02574  870,info@opel-berkemeier.de,https://www.opel-berkemeier-saerbeck.de/
Autohaus Zehnder Inh. Jochen Zehnder,OPEL,Hans-Böckler-Str. 34,90619,Trautskirchen,DE,49.4551955,10.5981648,09107  763,,https://www.opel-zehnder-trautskirchen.de/
Autohaus Sessner e.K.,OPEL,Würzburger Str. 45,97199,Ochsenfurt,DE,49.6700545,10.0587604,09331  87560,info@autohaus-sessner.de,https://www.opel-sessner-ochsenfurt.de/
ELMER - die Autowelt GmbH,OPEL,Bahnhofstr. 32,48477,Hörstel,DE,52.2980394,7.5918241,05459  93470,,https://www.opel-elmer-hoerstel.de/
ELMER - die Autowelt GmbH,OPEL,Rudolf-Diesel-Str. 69,48157,Münster,DE,51.9883779,7.6656649,0251  141900,muenster@elmer-dieautowelt.de,https://www.opel-elmer-muenster.de/
Berkemeier GmbH,OPEL,Zum Wasserwerk 9,48268,Greven,DE,52.1117816,7.608247,02571  91950,,https://www.opel-berkemeier-greven.de/
Ebbinghaus Automobile GmbH Filiale Ebbinghaus in Hamm,OPEL,Schmiedestr. 1,59067,Hamm,DE,51.6641826,7.7630857,02381  940550,opel@ea-mail.de,https://www.opel-ebbinghaus-hamm.de/
Autohaus Multi GmbH,OPEL,Wernher-von-Braun-Str. 9,63694,Limeshain-Rommelhausen,DE,50.25953,8.97861,06047  96345,autohaus-mkramer@t-online.de,https://www.opel-autohausmulti-limeshain.de/
Autohaus Berkemeier GmbH,OPEL,Rösnerstraße 1,48155,Münster,DE,51.940576,7.646766,0251  97821  0,,https://www.opel-berkemeier-muenster.de/
Schielein Autohaus GmbH & Co. KG,OPEL,Neumarkter Str. 4,92342,Freystadt,DE,49.1983891,11.3327265,09179  94950,,https://www.opel-schielein-freystadt.de/
Feyl Automobile GmbH,OPEL,Gutenbergstr. 14,91560,Heilsbronn,DE,49.3475727,10.801334,09872  97210,FeylAutomobile@t-online.de,https://www.opel-feyl-heilsbronn.de/
Autohaus Ferstl Inh. Josef Ferstl,OPEL,Schlosserweg 1,93176,Beratzhausen,DE,49.0969058,11.8028426,09493  2031,service@opel-ferstl.de,https://www.opel-ferstl-beratzhausen.de/
Ulrich Willer GmbH,OPEL,Petzoltstr. 32,97828,Marktheidenfeld,DE,49.8478043,9.604911,09391  9875  0,info@opel-willer.de,https://www.opel-willer-marktheidenfeld.de/
Autohaus Kropf GmbH,OPEL,Ostring 14,91154,Roth,DE,49.2501678,11.1056325,09171  97910,,http://www.opel.de
Autohaus Tönnemann GmbH & Co. KG,OPEL,Merkureck 2,48165,Münster,DE,51.9130505,7.6339373,02501  9636  0,,https://www.opel-toennemann-muenster.de/
Autohaus Thomas Schmitt,OPEL,Am Krähenstein 1,63825,Blankenbach,DE,50.0617364,9.2303655,06024  6347770,,https://www.opel-schmitt-blankenbach.de/
Autohaus Bartels GmbH & Co. KG,OPEL,Hümmlinger Ring 1,49751,Sögel,DE,52.833694,7.506037,05952  1515,info@autohaus-bartels.com,https://www.opel-bartels-soegel.de/
Autohaus Schmelter GmbH u. Co. KG,OPEL,Bahnbetriebswerk 26,57368,Lennestadt,DE,51.0984955,8.0658549,02723  92600,,https://www.opel-schmelter-lennestadt.de/
Sieber Automobile GmbH & Co.KG,OPEL,Frankenstr. 12-14,93059,Regensburg,DE,49.0282994,12.095713,0941  81000,,http://www.opel.de
Autohaus Nau GmbH,OPEL,Roter Lohweg 27-30,35510,Butzbach,DE,50.4357564,8.6891939,06033  96660,autohaus@nau.de,http://www.opel.de
ELMER - die Autowelt GmbH,OPEL,Elbersstr. 23,48282,Emsdetten,DE,52.1792929,7.5339653,02572  2040,georgteigeler@elmer-dieautowelt.de,https://www.opel-elmer-emsdetten.de/
Rosendahl Autohaus GmbH,OPEL,Steinfurter Str. 68,59387,Ascheberg,DE,51.8001168,7.648977,02593   78 94,service@opel-rosendahl.de,https://www.opel-rosendahl-ascheberg.de/
Autohaus Augele GmbH,OPEL,Uferstr. 1,57413,Finnentrop,DE,51.1655199,7.9787223,02721  95450,,https://www.opel-augele-finnentrop.de/
Autohaus Carl Bichmann GmbH   & Co. KG,OPEL,Kolpingstr. 19-23,58706,Menden,DE,51.4333853,7.8005049,02373   9095  0,,https://www.opel-bichmann-menden.de/
Autohaus Kludt Inh.Dipl.-Ing. Berthold Kludt e.K.,OPEL,Hörnsheimer Eck 9a,35578,Wetzlar,DE,50.5366319,8.5389282,06441  679020,autokludt@compuserve.de,https://www.opel-kludt-wetzlar.de/
Autohaus Nau GmbH,OPEL,Hermannsteiner Str. 46,35576,Wetzlar,DE,50.5705296,8.4976349,06441  37780,autohaus@nau.de,http://www.opel.de
Autohaus Nau GmbH,OPEL,Frankfurter Str. 9-15,61169,Friedberg,DE,50.32805,8.74892,06031 722070,autohaus@nau.de,http://www.opel.de
SCHIERMEIER AUTOHAUS RHEINE GMBH & CO. KG,OPEL,ROENTGENSTRASSE 3,48432,RHEINE,DE,52.3100637,7.4371155,05971/97110,schiermeier@schiermeier.de,http://www.opel.de
Autohaus Brass GmbH & Co. KG,OPEL,Industriestr. 17,63755,Alzenau,DE,50.0969222,9.0499594,06023  9659  0,info.alzenau@brass-gruppe.de,https://www.opel-brass-alzenau.de/
Hoppmann Autohaus GmbH,OPEL,Berliner Str. 45,35683,Dillenburg,DE,50.7247522,8.2927727,02771  89720,andreas.wilke@hoppmann-autowelt.de,https://www.opel-hoppmann-dillenburg.de/
HIRO Automarkt GmbH,OPEL,Papenburger Str. 5,26789,Leer,DE,53.2341135,7.4758479,0491   91 92 20,,https://www.opel-hiro-leer.de/
Franz Rüschkamp GmbH & Co. KG,OPEL,Lünener Str. 41,59368,Werne,DE,51.6549567,7.6262776,02389   98 400,,https://www.opel-rueschkamp-werne.de/
Autohaus G. Overhoff GmbH,OPEL,Antoniusstr. 1,49811,Lingen,DE,52.5127251,7.3989972,0591  9777790,G.overhoff@autohaus-overhoff.de,https://www.opel-overhoff-lingen.de/
Auto Kopp GmbH & Co. KG,OPEL,Rednitzstr. 9,91166,Georgensgmünd,DE,49.1928538,11.025691,09172  69380,info@auto-kopp.de,https://www.opel-kopp-georgensgmuend.de/
Ebbinghaus Automobile GmbH Filiale Ebbinghaus in Kamen,OPEL,Dortmunder Allee 16,59174,Kamen,DE,51.5798415,7.6556922,02307  97292  0,opel@ea-mail.de,https://www.opel-ebbinghaus-kamen.de/
Autohaus Carl Bichmann GmbH & Co. KG,OPEL,Hauptstr. 57,58675,Hemer,DE,51.3762771,7.7611748,02372   9488  0,info@bichmann.de,https://www.opel-bichmann-hemer.de/
Autohaus Hessengarage GmbH,OPEL,An der Brückengrube 16,63452,Hanau,DE,50.14837,8.9392237,06181 901199,,https://www.opel-hessengarage-hanau.de/
Erwin Paul Auto & Servicecenter GmbH,OPEL,Heinrichstr. 70,93080,Pentling,DE,48.9659185,12.0520746,09405  963630,service@erwinpaulgmbh.de,https://www.opel-paul-pentling.de/
Auto-Dienst Weber GmbH,OPEL,Rosenauerstr. 25,94481,Grafenau,DE,48.862484,13.396862,08552  1263,opel@kfzweber.de,http://www.opel.de
"Autohaus Hafner GbR, Inh. Benjamin und Jürgen Hafner",OPEL,Hochweg 4,93098,Mintraching-Moosham,DE,48.9275246,12.2725935,09406  649,opel.hafner@t-online.de,https://www.opel-hafner-mintraching.de/
Hoppmann Autohaus GmbH,OPEL,Mühlwiese 14,57439,Attendorn,DE,51.1234691,7.9067692,02722  6351370,vincenzo.cavallaro@autohaus-schmelter.de,https://www.opel-cavallaro-attendorn.de/
Wilhelm Jonas GmbH & Co.,OPEL,Massener Hellweg 44 - 46,59427,Unna,DE,51.5378524,7.6463083,02303  5590,jonas.unnamassen.verkauf@net.opel.com,https://www.opel-jonas-unna.de/
Autohaus Kummich GmbH,OPEL,Würzburger Landstr. 51,91522,Ansbach,DE,49.30963,10.56002,0981 488290,info@kummich.de,https://www.opel-kummich-ansbach.de/
Autohaus Brass GmbH & Co. KG,OPEL,Würzburger Straße 1,63739,Aschaffenburg,DE,49.971825,9.159004,06021/387-0,aschaffenburg@brass-gruppe.de,https://www.opel-brass-aschaffenburg.de/
Autohaus Gärtner GmbH,OPEL,Weingärtnerstr.1,97877,Wertheim,DE,49.7634578,9.5107486,09342  933300,,https://www.opel-gaertner-wertheim.de/
HIRO Automarkt GmbH,OPEL,Leerer Landstr. 36-40,26603,Aurich,DE,53.4652251,7.4867415,04941   1700  0,,https://www.opel-hiro-aurich.de/
Autohaus Greiner GmbH & Co. KG,OPEL,Graflinger Str. 155,94469,Deggendorf,DE,48.8542532,12.9624773,0991  25013  0,,https://www.opel-greiner-deggendorf.de/
Sieber Automobile GmbH & Co.KG Filiale Straubing,OPEL,Clemens-Attenkofer-Str. 1,94315,Straubing,DE,48.8805912,12.5636543,09421  99220,,http://www.opel.de
Gebrüder Nolte GmbH & Co. KG,OPEL,Giesestr. 16,58636,Iserlohn,DE,51.3986129,7.6971549,02371  97700,kontakt@nolte-gruppe.de,https://www.opel-nolte-iserlohn-giesestrasse.de/
Autohaus Simmerl GmbH,OPEL,Passauer Str. 4,94513,Schönberg,DE,48.83748,13.34043,08554  96050,info@autohaus-simmerl.de,https://www.opel-simmerl-schoenberg.de/
Autohaus Börschlein e.K. Inh. Anita Börschlein,OPEL,Trautenfurter Weg 8,91174,Spalt,DE,49.1765594,10.921808,09175  666,,https://www.opel-boerschlein-spalt.de/
Hoppmann Autohaus GmbH,OPEL,Heesstr. 91,57223,Kreuztal,DE,50.9580547,7.9769656,02732  58620,andreas.wilke@hoppmann-autowelt.de,https://www.opel-hoppmann-kreuztal.de/
Auto Gary GmbH,OPEL,Adelsmannsdorfer Str. 3,91639,Wolframs-Eschenbach,DE,49.2255068,10.7304536,09875  240,CarService@auto-gary.de,https://www.opel-gary-wolframs-eschenbach.de/
Auto Kemper GmbH & Co. KG,OPEL,Industriestr. 19,49716,Meppen,DE,52.6616019,7.3025025,05931  13838,autokemper@t-online.de,https://www.opel-kemper-meppen.de/
Autohaus Klaus Kiefer,OPEL,Zum Tiefengraben 2,35647,Waldsolms,DE,50.4583689,8.4499217,06085  982130,kiefer-waldsolms@t-online.de,http://www.opel.de
Augustin Mobile OHG,OPEL,Schützenstr. 91,49716,Meppen,DE,52.70361,7.2919724,05931  93500,,https://www.opel-augustin-meppen.de/
Ebbinghaus Automobile GmbH Filiale Ebbinghaus am Flughafen,OPEL,Emschertalstr. 132,44289,Dortmund,DE,51.5062254,7.5890548,0231  409090,opel@ea-mail.de,https://www.opel-ebbinghaus-dortmund-flughafen.de/
Autohaus Berkemeier GmbH,OPEL,Wettringer Str. 64,48565,Steinfurt,DE,52.1552552,7.3420772,02551  70470  0,,https://www.opel-berkemeier-steinfurt.de/
Autohaus Treus GmbH & Co.,OPEL,Terup 26,48366,Laer,DE,52.0534025,7.3658333,02554  295,treus@t-online.de,https://www.opel-treus-laer.de/
Franz Rüschkamp GmbH & Co. KG,OPEL,Schachtstr. 1,59379,Selm,DE,51.6931952,7.4922544,02592  97333  0,,https://www.opel-rueschkamp-selm.de/
Autohaus Weihrauch GmbH,OPEL,Wertheimer Str. 15,97941,Tauberbischofsheim,DE,49.6280314,9.6662397,09341  4027,info@opel-weihrauch.de,http://www.opel.de
Franz Rüschkamp GmbH & Co. KG,OPEL,Viktoriastr. 73,44532,Lünen,DE,51.609771,7.515958,02306  20203  0,,https://www.opel-rueschkamp-luenen.de/
Hoppmann Autohaus GmbH,OPEL,Eiserfelder Str. 196,57072,Siegen,DE,50.8559881,8.0111421,0271  31820,info@hoppmann-autowelt.de,https://www.opel-hoppmann-siegen.de/
Automobile Stauner GmbH,OPEL,Östliche Weinstr. 2,93309,Kelheim,DE,48.9190011,11.8930485,09441  50500,,https://www.opel-stauner-kelheim.de/
Autohaus Bad Vilbel GmbH & Co. KG,OPEL,Homburger Str. 63,61118,Bad Vilbel,DE,50.1868794,8.7345094,06101  3490500,null@null.de,https://www.opel-bad-vilbel.de/
Autohaus Herbert Klein OHG,OPEL,Ernst-Heinkel-Str. 2,57299,Burbach,DE,50.7497649,8.0986796,02736  6618,Opel-Klein@t-online.de,https://www.opel-klein-burbach.de/
Franz Rüschkamp GmbH & Co. KG,OPEL,Seppenrader Str. 17,59348,Lüdinghausen,DE,51.7669231,7.4295469,02591  7979  0,,https://www.opel-rueschkamp-luedinghausen.de/
Autohaus Paul GmbH,OPEL,Ansbacher Str. 40,91541,Rothenburg ob der Tauber,DE,49.3749595,10.1918459,09861  94640,info@paul-opel.de,https://www.opel-paul-rothenburg.de/
Gebrüder Nolte GmbH & Co. KG,OPEL,Am Ostentor 1,58239,Schwerte,DE,51.4436263,7.5734498,02304  240360,,https://www.opel-nolte-schwerte.de/
Autohaus Brass GmbH & Co. KG,OPEL,Mühlheimer Str. 311,63075,Offenbach,DE,50.1106474,8.7988507,069  9864780,,https://www.opel-brass-offenbach.de/
Autohaus Wern GmbH,OPEL,Weilstr. 80,35789,Weilmünster,DE,50.4311685,8.3779537,06472  325,Autohaus.Wern@t-online.de,https://www.opel-wern-weilmuenster.de/
Autohaus Schmelter GmbH,OPEL,Raiffeisenstr. 4,57462,Olpe,DE,50.9983487,7.8396831,02761  90960,,https://www.opel-schmelter-olpe.de/
Autohaus Lammers GmbH,OPEL,Lilienthalstr. 7,49835,Wietmarschen-Lohne,DE,52.4830298,7.2123546,05908  969262,Autohaus.Lammers@t-online.de,http://www.opel.de
Autohaus Hermann Wiens GmbH&Co. KG,OPEL,Münsterstrasse 60,48727,Billerbeck,DE,51.9739993,7.2981158,02543   2323  0,,https://www.opel-wiens-billerbeck.de/
Frankfurt Hessengarage,OPEL,Am Riederbruch 8,60386,Frankfurt/M.,DE,50.1240407,8.7288333,069 4209870,,https://www.opel-hessengarage-frankfurt.de/
Franz Rüschkamp GmbH & Co. KG,OPEL,Evinger Str. 22-24,44145,Dortmund,DE,51.5374218,7.4555186,0231  317275  0,info@autohaus-rueschkamp.de,https://www.opel-rueschkamp-dortmund.de/
Autohaus Freitag & Loos OHG,OPEL,An der Backstania 1,35781,Weilburg,DE,50.4904817,8.2555825,06471  30031,autohaus@freitag-loos.de,https://www.opel-freitag-loos-weilburg.de/
Autohaus Christian Bartosch GmbH,OPEL,Wilhelm-Frank-Straße 72-73,97980,Bad Mergentheim,DE,49.4975523,9.7594018,07931  964920,,https://www.opel-bartosch-bad-mergentheim.de/
Autohaus Martin Osseforth GmbH,OPEL,Karl-Braun-Str. 3,48531,Nordhorn,DE,52.464799,7.153875,05921 308220,,https://www.opel-osseforth-nordhorn.de/
Auto-Neulinger GmbH & Co. KG,OPEL,Weißenburger Str. 84-86,91710,Gunzenhausen,DE,49.1060184,10.7611903,09831  9001,info@auto-neulinger.de,https://www.opel-neulinger-gunzenhausen.de/
Winkelheide Autozentrum GmbH   & Co. KG,OPEL,Hochstr. 6-8,45731,Waltrop,DE,51.6218498,7.3852249,02309  2055,,https://www.opel-winkelheide-waltrop.de/
Ebbinghaus Automobile GmbH,OPEL,Hagener Str. 152,44225,Dortmund,DE,51.4693404,7.4602152,0231  409090,opel@ea-mail.de,https://www.opel-ebbinghaus-dortmund.de/
Autohaus Brass GmbH & Co. KG,OPEL,Darmstädter Str. 19,64832,Babenhausen,DE,49.941879,8.93119,06073/7232-0,info.babenhausen@brass-gruppe.de,https://www.opel-brass-babenhausen.de/
Ebbinghaus Automobile GmbH Filiale Ebbinghaus Autozentrum Dortmund,OPEL,Arminiusstrasse 51-53,44149,Dortmund,DE,51.51664,7.42439,0231  91740,opel@ea-mail.de,https://www.opel-ebbinghaus-dortmund-autozentrum.de/
Autohaus Heinr. Zumbusch GmbH & Co. KG,OPEL,Lüdinghauser Str. 114-116,48249,Dülmen,DE,51.82443,7.28801,02594  78312  0,info@opelzumbusch.de,https://www.opel-zumbusch-duelmen.de/
Autohaus Gärtner GmbH,OPEL,Würzburger Str. 54,74736,Hardheim,DE,49.6104394,9.4808241,06283  6679,,https://www.opel-gaertner-hardheim.de/
Bauer Automobile,OPEL,Aßberg 15,94118,Jandelsbrunn,DE,48.7177782,13.6897017,08583  91245,info@opel-bauer.de,https://www.opel-bauer-jandelsbrunn.de/
Autohaus Brass GmbH & Co. KG,OPEL,Elisabeth-Selbert-Str. 3,63128,Dietzenbach,DE,50.0126327,8.7933873,06074/801700,,https://www.opel-brass-dietzenbach.de/
HIRO Automarkt GmbH,OPEL,Hans-Böckler-Allee 1,26759,Hinte,DE,53.4006895,7.2082651,04925   9191  0,,https://www.opel-hiro-hinte.de/
Autohaus Bleker GmbH,OPEL,Halterner Str. 252,48249,Dülmen,DE,51.813915,7.255401,02594/782240,,http://www.opel.de
Autohaus Brass GmbH & Co.KG,OPEL,Auweg 1,63920,Großheubach,DE,49.7126827,9.2421015,09371  4030  0,info.grossheubach@brass-gruppe.de,https://www.opel-brass-grossheubach.de/
Szamatulski Automobile GmbH,OPEL,Messenhäuser Str. 47,63322,Rödermark,DE,49.9846066,8.8032612,06074  84000,info@szamatulski.de,https://www.opel-szamatulski-roedermark.de/
Autohaus Brass GmbH & Co. KG,OPEL,Guerickestr. 9,60488,Frankfurt,DE,50.1294087,8.5993576,069  9767120,,https://www.opel-brass-frankfurt.de/
Gebrüder Nolte GmbH & Co. KG,OPEL,Konrad-Adenauer-Ring 32,58135,Hagen,DE,51.3482194,7.4403453,02331  7847714,kontakt@nolte-gruppe.de,https://www.opel-nolte-hagen.de/
Derk Averes & Co. GmbH,OPEL,Neuenhauser Str. 145,48527,Nordhorn,DE,52.4470633,7.0547843,05921  83660,,https://www.opel-averes-nordhorn.de/
Autohaus Bergneustadt Ley GmbH,OPEL,Stadionstr. 5,51702,Bergneustadt,DE,51.0180372,7.6436597,02261  4098  0,info@opel-ley.de,https://www.opel-ley-bergneustadt.de/
Autohaus Nachtmann OHG,OPEL,Hauptstr. 1,93352,Rohr in Niederbayern,DE,48.7681964,11.9719939,08783  250,,https://www.opel-nachtmann-rohr.de/
Autohaus Tönnemann GmbH & Co. KG,OPEL,Dreischkamp 46,48653,Coesfeld,DE,51.9244495,7.1617309,02541  933100,,https://www.opel-toennemann-coesfeld.de/
Autohaus Greiner GmbH & Co. KG,OPEL,Wiesenweg 27,94405,Landau an der Isar,DE,48.687462,12.7022639,09951    9807    0,,https://www.opel-greiner-landau.de/
B & K Autohaus Norden GmbH,OPEL,Am Nordertief 17,26506,Norden,DE,53.5872731,7.2075931,04931  93910,info@bundknorden.de,https://www.opel-bundk-norden.de/
Autohaus Brass GmbH & Co. KG,OPEL,Gross-Umstädter-Str. 63,64807,Dieburg,DE,49.8953932,8.8534965,06071  8277  0,opel.brass@t-online.de,https://www.opel-brass-dieburg.de/
Autohaus Feix GmbH,OPEL,Dortmunder Str. 56,58453,Witten,DE,51.444191,7.35496,02302  20202  0,feix@auto-feix.de,https://www.opel-feix-witten.de/
Autohaus Erlemann GmbH & Co. KG,OPEL,Weilburger Str. 30,65606,Villmar,DE,50.3924929,8.1975835,06482  4777,,https://www.opel-erlemann-villmar.de/
Autohaus Brass GmbH & Co. KG,OPEL,Erbacher Str. 90,64739,Höchst i. Odw.,DE,49.79443,9.0004,06163  9342  0,,https://www.opel-brass-hoechst.de/
August Seiferlein GmbH & Co. KG,OPEL,Industriestr. 13,91555,Feuchtwangen,DE,49.1662159,10.3186418,09852  67780,,https://www.opel-seiferlein-feuchtwangen.de/
Autohaus Borgmann GmbH,OPEL,Hellweg 282,45721,Haltern,DE,51.7578248,7.1970539,02364  508800,,https://www.opel-borgmann-haltern.de/
Autohaus E. Zielenbach GmbH   & Co. KG,OPEL,Waldbröler Str. 94-96,51597,Morsbach,DE,50.8751331,7.7212116,02294  98080,,https://www.opel-zielenbach-morsbach.de/
Klaus Geier,OPEL,Dreiburgenstr. 4,94154,Neukirchen v. Wald,DE,48.6467392,13.3257606,08504  922390,kfz-geier@t-online.de,http://www.opel.de
Autohaus Langenscheid OHG,OPEL,Waldweg 1,58553,Halver,DE,51.1897765,7.4871899,02353  667910,dirk@autohaus-langenscheid.de,https://www.opel-langenscheid-halver.de/
Auto Rieder GmbH & Co. KG,OPEL,Ergoldsbacher Str. 11,84092,Bayerbach bei Ergoldsbach,DE,48.7048364,12.2954337,08774  593,info@opel-rieder.de,https://www.opel-rieder-bayerbach.de/
Autohaus Hartl OHG,OPEL,Kapuzinerstr. 99,94474,Vilshofen,DE,48.6420506,13.1719408,08541  7322,info@autohartl.de,https://www.opel-hartl-vilshofen.de/
Autohaus Hindriks GmbH,OPEL,Georgsdorfer Str. 18,49828,Neuenhaus,DE,52.5197695,6.9999649,05941  92950,info@opel-hindriks.de,https://www.opel-hindriks-neuenhaus.de/
Autohaus Heitele GmbH,OPEL,Bürgermeister-Korn-Str. 1,91757,Treuchtlingen,DE,48.9584756,10.9250013,09142  96650,paul.heitele@autohaus-heitele.de,https://www.opel-Heitele-Treuchtlingen.de/
Emil Pieper KG,OPEL,Am Neggenborn 105,44892,Bochum,DE,51.4692166,7.303079,0234  927930,,https://www.opel-pieper-bochum.de/
Auto-Müller GmbH,OPEL,Frankfurter Str. 102,65520,Bad Camberg,DE,50.2875246,8.2757229,06434  91680,,https://www.opel-mueller-bad-camberg.de/
Autohaus Krebs GmbH,OPEL,Ansbacher Str. 18,91717,Wassertrüdingen,DE,49.0451633,10.5988439,09832  68350,info@opel-krebs.de,https://www.opel-krebs-wassertruedingen.de/
Hoppmann Autohaus GmbH,OPEL,Hückeswagener Str. 25,51647,Gummersbach,DE,51.0421172,7.5501106,02261  8090  0,andreas.wilke@hoppmann-autowelt.de,https://www.opel-hoppmann-gummersbach.de/
Autohaus H. P. Kircher GmbH   & Co. KG,OPEL,Am Zollstock 12-14,64546,Mörfelden-Walldorf,DE,50.01403,8.5822535,06105  97000,christine.kircher@autohaus-kircher.de,https://www.opel-kircher-moerfelden.de/
Autohaus Tönnemann GmbH & Co. KG,OPEL,Heeker Str. 71,48683,Ahaus,DE,52.0889119,7.0247022,02561/97998610,info@toennemann.com,https://www.opel-toennemann-ahaus.de/
Autohaus Gruber GmbH,OPEL,Neufahrner Straße 45,84056,Rottenburg,DE,48.7021332,12.0357975,08781  201500,christine.gruber@autohaus-gruber.de,https://www.opel-gruber-rottenburg.de/
Autohaus Pflanz GmbH,OPEL,Hanielstr. 10,44801,Bochum,DE,51.461521,7.260295,0234/93880-0,info@pflanz-gruppe.de,https://www.opel-pflanz-bochum.de/
Ebbinghaus Autozentrum Bochum GmbH,OPEL,Wittener Str. 270,44803,Bochum,DE,51.4722103,7.2545637,0234  93593  0,kontakt@fischer-bochum.de,https://www.opel-fischer-bochum.de/
Autohaus E. Zielenbach GmbH & Co. KG,OPEL,Wiehler Str. 15,51545,Waldbröl,DE,50.8853083,7.6359624,02291  80950,g.schmidt@autohaus-zielenbach.de,https://www.opel-zielenbach-waldbroel.de/
Autohaus Feix GmbH,OPEL,Castroper Str. 180-188,44791,Bochum,DE,51.4903123,7.2400293,0234  30708  0,feix@auto-feix.de,https://www.opel-feix-bochum-stadion.de/
Autohaus Karl Asbach GmbH,OPEL,Graf-Heinrich-Str. 16,57627,Hachenburg,DE,50.66313,7.81988,02662  95270,j.asbach@asbach-hachenburg.de,https://www.opel-asbach-hachenburg.de/
Autohaus Günther & Schmitt GmbH,OPEL,Beyerbachstr. 10,65830,Kriftel,DE,50.0753497,8.4732418,06192  95117  0,kriftel@guenther-und-schmitt.de,https://www.opel-guenther-schmitt-kriftel.de/
Gebrüder Nolte GmbH & Co. KG,OPEL,Im Winkel 1,58285,Gevelsberg,DE,51.314132,7.3293328,02332  66605  0,,https://www.opel-nolte-gevelsberg.de/
Bieling Automobil GmbH,OPEL,Bochumer Str. 212 - 218,44625,Herne,DE,51.5223508,7.2143738,02323  99410,,https://www.opel-bieling-herne.de/
"Autohaus Sieber GmbH, Landshut Filiale Dingolfing",OPEL,Fischerei 29,84130,Dingolfing,DE,48.6317882,12.4950737,08731  50660,,http://www.opel.de
Autohaus Simon Bauer,OPEL,Gommersdorfer Str. 25,74238,Krautheim,DE,49.3800158,9.6288101,06294  307,opel-service-bauer@t-online.de,https://www.opel-bauer-krautheim.de/
Autohaus Limburg GmbH,OPEL,Offheimer Weg 66,65549,Limburg,DE,50.404866,8.0622275,06431  95350,info@autohaus-limburg.de,https://www.opel-autohaus-limburg.de/
Bieling Automobil GmbH,OPEL,Kaiserstr. 251,45699,Herten,DE,51.6030814,7.1606342,02366  8880,,https://www.opel-bieling-herten.de/
Autohaus Feix GmbH,OPEL,Oskar-Hoffmann Str. 63-69,44789,Bochum,DE,51.4737906,7.2225213,0234  30708  0,feix@auto-feix.de,https://www.opel-feix-bochum.de/
Autohaus Twyhues,OPEL,Schuckertstr. 7,48712,Gescher,DE,51.9418724,7.0280806,02542  1718,autohaus.twyhues@t-online.de,https://www.opel-twyhues-gescher.de/
AMZ Ingolstadt GmbH,OPEL,Goethestr. 147,85055,Ingolstadt,DE,48.7722132,11.4548938,0841  955910,klaus.hotzan@avag.eu,http://www.opel.de
Autohaus Borgmann GmbH,OPEL,Heerstr. 51,44653,Herne,DE,51.545041,7.170686,02325  58400,info@opel-borgmann.de,https://www.opel-borgmann-herne.de/
Autohaus Kurt Bingler GmbH & Co. KG,OPEL,Bödigheimer Str. 24,74722,Buchen,DE,49.5117761,9.3157388,06281  52150,,https://www.opel-bingler-buchen.de/
Auto Schmale GmbH & Co. KG,OPEL,Kaiserstr. 38,42477,Radevormwald,DE,51.2034214,7.3525009,02195  91233,,https://www.opel-schmale-radevormwald.de/
Autohaus Brass GmbH & Co. KG,OPEL,Hulster Str. 3,64720,Michelstadt,DE,49.6840243,9.0012628,06061  95950,darmstadt@autohaus-brass.com,https://www.opel-brass-michelstadt.de/
Autohaus Botsch,OPEL,Crailsheimer Str. 13,74592,Kirchberg an der Jagst,DE,49.2012501,9.9822141,07954  1054,autohaus-botsch@t-online.de,http://www.opel.de
August Seiferlein GmbH & Co. KG,OPEL,Augsburger Str. 1,91550,Dinkelsbühl,DE,49.0654935,10.3323232,09851  57130,,https://www.opel-seiferlein-dinkelsbuehl.de/
Auto Mittermeier,OPEL,"Söldenau, Zum Bräukeller 10",94496,Ortenburg,DE,48.5599174,13.2191225,08542  1702,info@auto-mittermeier.com,https://www.opel-mittermeier-ortenburg.de/
Autohaus Tönnemann GmbH & Co. KG,OPEL,Coesfelder Str. 67,46342,Velen,DE,51.8979656,6.991741,02863   8021,,https://www.opel-toennemann-velen.de/
Auto-Becker GmbH,OPEL,Margarete-Steiff-Weg 3,64372,Ober-Ramstadt,DE,49.8274561,8.7324554,06154  63220,info@auto-becker-opel.de,http://www.opel.de
Kronemeyer Autohaus GmbH,OPEL,Westersand 24,49824,Emlichheim,DE,52.6162061,6.8548827,05943  93 300,info@opel-kronemeyer.de,https://www.opel-kronemeyer-emlichheim.de/
Autohaus Brass GmbH & Co. KG,OPEL,Kasinostr. 62,64293,Darmstadt,DE,49.8791802,8.6437878,06151  108  6,,https://www.opel-brass-darmstadt.de/
Auto-Nenninger GmbH,OPEL,Adelsheimer Str. 27,74706,Osterburken,DE,49.4279746,9.4182135,06291  8156,Auto-Nenninger-Osterburken@t-online.de,https://www.opel-nenninger-osterburken.de/
Autohaus Günther & Schmitt GmbH,OPEL,Weilbacher Str. 37-39,65439,Flörsheim am Main,DE,50.0239915,8.4331633,06145  92720,,https://www.opel-guenther-schmitt-floersheim.de/
Autohaus Wilkes GmbH & Co. KG,OPEL,Breul 67,48703,Stadtlohn,DE,51.98914,6.93859,02563  9356  0,service@opel-wilkes.de,https://www.opel-wilkes-stadtlohn.de/
Autolöwen GnbH,OPEL,Hofwiesenstr. 42,74564,Crailsheim,DE,49.142776,10.029629,07951/91880,,https://www.opel-autoloewen-crailsheim.de/
Auto Gerlach Westerwald GmbH,OPEL,Hauptstr. 33,56414,Niederahr,DE,50.4914406,7.8610672,02602  68010,ulrich.kuechler@opel-gerlach.de,https://www.opel-gerlach-niederahr.de/
Autohaus Borgmann GmbH,OPEL,Hervester Str. 130,46286,Dorsten,DE,51.7050382,7.0080534,02369  91500,info@opel-borgmann.de,https://www.opel-borgmann-dorsten.de/
Autohaus Borgmann GmbH,OPEL,Rademachersweg 5,45894,Gelsenkirchen,DE,51.586408,7.052207,0209/36097-0,info@autohausborgmann.de,https://www.opel-borgmann-gelsenkirchen.de/
Hermann Biber Reparaturwerkstatt e.K.,OPEL,Torgasse 9,74740,Adelsheim,DE,49.4039049,9.3894054,06291  1323,U-Biber@web.de,https://www.opel-biber-adelsheim.de/
Autohaus Sieber GmbH,OPEL,Regensburger Str. 64,84048,Mainburg,DE,48.6448087,11.7818736,08751 86230,,http://www.opel.de
Autohaus Heilmann GmbH,OPEL,Emscherstr. 36,45891,Gelsenkirchen,DE,51.54187,7.06677,0209  95860,p.dahlmann@dresen.de,https://www.opel-heilmann-gelsenkirchen.de/
MOHAG Motorwagen- Handelsgesellschaft mbH,OPEL,Grothusstr. 18,45881,Gelsenkirchen,DE,51.5211067,7.0757322,0209  360040,a.wellner@mohag.de,https://www.opel-mohag-gelsenkirchen.de/
Autohaus Tönnemann GmbH & Co. KG,OPEL,Industriestr. 21,46359,Heiden,DE,51.8216717,6.947493,02867  97330,,https://www.opel-toennemann-heiden.de/
Autohaus Schilling GmbH & Co. KG,OPEL,Wilhelm-Leuschner-Str. 255,64347,Griesheim,DE,49.8637231,8.5861209,06155  8742  0,info@autohausschilling.de,https://www.opel-schilling-griesheim.de/
Autohaus Jacob GmbH & Co. KG,OPEL,Darmstädter Str. 83,65428,Rüsselsheim,DE,49.9858503,8.4126321,06142  6090,,https://www.opel-jacob-ruesselsheim.de/
Wetterauer GmbH,OPEL,Hauptstr. 34,74743,Seckach-Großeicholzheim,DE,49.4445203,9.2823522,06293  285,wetterauer-gmbh@t-online.de,https://www.opel-wetterauer-seckach.de/
Autohaus Bruno Widmann GmbH & Co. KG,OPEL,Maybachstraße 10,74653,Künzelsau,DE,49.252192,9.681133,07361 5703-0,info@widmann.de,http://www.opel.de
Karl Farrenberg GmbH,OPEL,Kölner Str. 100,57610,Altenkirchen (Westerwald),DE,50.6895728,7.6247835,02681  87990,,https://www.opel-farrenberg-altenkirchen.de/
Autohaus Köttel,OPEL,Burgstr. 8,73495,Stödtlen,DE,49.0011807,10.3019791,07964  482,autohaus-koettel@t-online.de,https://www.opel-koettel-stoedtlen.de/
Auto Croll & Sondermann GmbH,OPEL,Bonsfelder Str. 33,42555,Velbert,DE,51.3652877,7.1328372,02056  93190,chso@croll-sondermann.de,https://www.opel-croll-sondermann-velbert.de/
Autohaus März GmbH,OPEL,Gernsheimer Str. 58,64521,Groß-Gerau,DE,49.9120937,8.4865614,06152  980049,,https://www.opel-maerz-gross-gerau.de/
Autohaus Brass GmbH & Co. KG,OPEL,Eberstädter Str. 194,64319,Pfungstadt,DE,49.8128017,8.6186068,06157  80070,darmstadt@autohaus-brass.com,https://www.opel-brass-pfungstadt.de/
aurego GmbH,OPEL,Lenneper Str. 166,42855,Remscheid,DE,51.18026,7.2281204,02191  3624  0,info@aurego.de,https://www.opel-aurego-remscheid.de/
Autohaus Borgmann GmbH,OPEL,An der Glashütte 1,46282,Dorsten,DE,51.6602984,6.9725138,02362  99120,,http://www.opel.de
Autohaus Degener Service GmbH,OPEL,Alstätter Str. 100,48691,Vreden,DE,52.04623,6.83485,02564  9200,,https://www.opel-degener-vreden.de/
Automobile Spierer Inh. Michael Spierer,OPEL,Frauenberger Str. 12,84166,Adlkofen,DE,48.5488151,12.2621855,08707  233,Spierer@t-online.de,https://www.opel-spierer-adlkofen.de/
Ralf Schlattmann,OPEL,Landwehr 55,46325,Borken,DE,51.8551404,6.8790799,02861  2709,OPEL-Schlattmann@t-online.de,https://www.opel-schlattmann-borken.de/
Trend Automobile GmbH & Co. KG,OPEL,Am Wunderbau 7,42103,Wuppertal,DE,51.256722,7.159131,0202 317560,,http://www.opel.de
Autohaus Nowak GmbH,OPEL,Konrad-Adenauer-Str. 17,65232,Taunusstein,DE,50.139078,8.147088,06128 91690,service@autohaus-nowak.de,http://www.opel.de
Otto Hildebrandt Autohaus GmbH & Co. KG,OPEL,Berliner Str. 95 A,42929,Wermelskirchen,DE,51.1437892,7.2253837,02196  72090,,https://www.opel-hildebrandt-wermelskirchen.de/
Auto Schweiger GmbH,OPEL,Dieselstr. 1,85084,Reichertshofen,DE,48.6562801,11.4829495,08453  33880,info@auto-schweiger.com,https://www.opel-schweiger-reichertshofen.de/
Auto Tiefel oHG,OPEL,Oderstr. 22,65468,Trebur,DE,49.9278381,8.4159494,06147  2534,tiefel-trebur@t-online.de,https://www.opel-tiefel-trebur.de/
Albert Böttcher oHG,OPEL,Am Südpark 14,86633,Neuburg/Donau,DE,48.721216,11.1707477,08431  537120,,https://www.opel-boettcher-neuburg.de/
aurego GmbH,OPEL,Steinbecker Meile 1,42103,Wuppertal,DE,51.2489434,7.1376035,0202  890000,,https://www.opel-aurego-wuppertal-elberfeld.de/
Autohaus Borgmann GmbH,OPEL,Johanniskirchstr. 102,45329,Essen,DE,51.498477,6.9962338,0201  835000,,https://www.opel-borgmann-essen.de/
Autohaus Vogel & Werner GmbH,OPEL,Kölner Str. 69,51491,Overath,DE,50.9628787,7.3200799,02206  2274,info@autohaus-vogel-werner.de,https://www.opel-vogel-werner-overath.de/
Autohaus B & B GmbH,OPEL,Riedinger Str. 7,45141,Essen,DE,51.47272,7.002296,0201  827510,j.borawski@autohaus-bub.de,https://www.opel-bundb-essen.de/
"Autohaus Sieber GmbH, Landshut",OPEL,Watzmannstr. 54,84034,Landshut,DE,48.5349725,12.1211224,0871  2769490,info@opel-sieber.de,http://www.opel.de
Günther GmbH,OPEL,Rheinstr. 2+7,56235,Ransbach-Baumbach,DE,50.472258,7.73609,02623  894  4,,https://www.opel-guenther-ransbach-baumbach.de/
Auto-Müller GmbH,OPEL,Rheinallee 183,55120,Mainz,DE,50.0229581,8.236233,06131  962620,,https://www.opel-mueller-mainz.de/
Autohaus Bleker GmbH,OPEL,Nordring 223,46325,Borken,DE,51.8397904,6.8325077,02861  94380,,https://www.opel-bleker-borken.de/
Stellantis &You Deutschland GmbH,OPEL,Rheingaustr. 61-63,65201,Wiesbaden,DE,50.042571,8.208624,0611 996830 25,psa-retail@mpsa.com,https://www.opel-stellantisandyou-wiesbaden.de/
Autohaus Rösch,OPEL,Hauptstraße Nord 16,69483,Wald-Michelbach,DE,49.5945056,8.8553512,06207  2481,autohaus-roesch@t-online.de,https://www.opel-roesch-waldmichelbach.de/
Autohaus Am Ruhrdeich GmbH,OPEL,Haedenkampstr. 77,45143,Essen,DE,51.45487,6.98601,0201  3194080,,https://www.opel-ruhrdeich-essen.de/
AHS Autohaus Handels- und Service GmbH,OPEL,Passauer Str. 6,94099,Ruhstorf,DE,48.4391112,13.337231,08531  3033,Autohausniederhofer@t-online.de,https://www.opel-ahs-ruhstorf.de/
"Autohaus Schweizer, NL der Autohaus Straub GmbH",OPEL,Gewerbestr. 25,86720,Nördlingen,DE,48.8601286,10.5162566,09081  21960,,https://www.opel-schweizer-noerdlingen.de/
Autohaus Hüppe GmbH,OPEL,Ährenfeld 2,46348,Raesfeld,DE,51.7751475,6.8369459,02865  60090  0,,https://www.opel-hueppe-raesfeld.de/
Borgmann GmbH,OPEL,Weidkamp 279,45356,Essen,DE,51.490998,6.9531736,0201  613050,,https://www.opel-borgmann-essen-borbeck.de/
Autohaus Ernst GmbH,OPEL,Edmund-Heusinger-Str. 15-17,65307,Bad Schwalbach,DE,50.1430029,8.0468796,06124  3034,ahernstservice@aol.com,https://www.opel-ernst-bad-schwalbach.de/
Autohaus Borgmann GmbH,OPEL,Kirchhellener Str. 193,46240,Bottrop,DE,51.5397336,6.9220426,02041  79590,,https://www.opel-borgmann-bottrop.de/
Autolöwen GmbH,OPEL,Raiffeisenstr. 11,74523,Schwäbisch Hall,DE,49.109676,9.78621,0791/40750,,http://www.opel.de
F.X. Solcher GmbH,OPEL,Passauer Str. 46-50,84347,Pfarrkirchen,DE,48.4325379,12.9444015,08561  984390,info@auto-solcher.de,https://www.opel-solcher-pfarrkirchen.de/
Autohaus Burmann GmbH,OPEL,Frohnhauser Str. 448,45144,Essen,DE,51.4481344,6.9555252,0201  876990,info@autohaus-burmann.de,https://www.opel-burmann-essen.de/
Franz Solcher GmbH,OPEL,Schwaimerstr. 1,94086,Bad Griesbach,DE,48.4201824,13.211686,08532  1358 + 8211,,https://www.opel-solcher-bad-griesbach.de/
Auto-Speicher Inh. Uwe Speicher,OPEL,Rittwiese 4,74842,Billigheim,DE,49.3501166,9.2468779,06265  221,auto-speicher@t-online.de,https://www.opel-speicher-billigheim.de/
Autohaus Beilharz GmbH & Co.KG,OPEL,Rindelbacher Str. 4,73479,Ellwangen,DE,48.9687396,10.1243275,07961  54007,,https://www.opel-beilharz-ellwangen.de/
Autohaus Schmidt GmbH & Co. KG,OPEL,Ringstr. 7,53819,Neunkirchen-Seelscheid,DE,50.838273,7.3308941,02247  92020,marc.schmidt@freenet.de,https://www.opel-schmidt-neunkirchen-seelscheid.de/
Autohaus Gallersdörfer GmbH   & Co. KG,OPEL,Neumarkter Str. 4,84140,Gangkofen,DE,48.4352622,12.562838,08722  96220,,https://www.opel-gallersdoerfer-gangkofen.de/
Autohaus Horn & Ziegler GmbH,OPEL,Rheinallee 51,55283,Nierstein,DE,49.867494,8.349526,06133  9766  0,horn.torsten@web.de,https://www.opel-horn-ziegler-nierstein.de/
Autohaus Mundigl GmbH,OPEL,Landshuter Str. 54,84137,Vilsbiburg,DE,48.45156,12.34218,08741/92470,opel@mundigl.de,https://www.opel-mundigl-vilsbiburg.de/
Autohaus Philipp GmbH,OPEL,Friedrich-Ebert-Str. 39,69412,Eberbach,DE,49.4659876,8.9786378,06271  92120,,https://www.opel-philipp-eberbach.de/
Huber Automobile GmbH & Co.KG,OPEL,Simbacher Str. 38,94060,Pocking,DE,48.3969781,13.3096541,08531  90280,,https://www.opel-huber-pocking.de/
Auto Müller,OPEL,Weinberg 1,74423,Obersontheim,DE,49.0441733,9.8630388,07973  5917,opel.automueller@t-online.de,https://www.opel-mueller-obersontheim.de/
Autohaus Strack GmbH,OPEL,Hauptstr. 92,56379,Singhofen,DE,50.2704891,7.8371816,02604  97070,info@autohaus-strack.de,https://www.opel-strack-singhofen.de/
Autolöwen GmbH,OPEL,SCHLEIFBACHWEG 59-63,74613,OEHRINGEN,DE,49.198021,9.4958558,07941 91250,,https://www.opel-autoloewen-oehringen.de/
Autohaus Schliesser GmbH,OPEL,Wilhelm-Leuschner-Str.  5,64579,Gernsheim,DE,49.7553608,8.4828399,06258  3388,opel-schliesser@t-online.de,https://www.opel-schliesser-gernsheim.de/
Albert Böttcher oHG,OPEL,Neuburger Str. 22,86641,Rain,DE,48.690937,10.9255768,09090  95980,g.boettcher@opel-boettcher.de,https://www.opel-boettcher-rain.de/
Auto Knapp GmbH,OPEL,Robert-Bosch-Str. 23-25,64625,Bensheim,DE,49.67747,8.59536,06251 - 1001-0,info@autoknapp.de,http://www.opel.de
Autohaus Christian Scherer GmbH,OPEL,Teutoburger Str. 34,46145,Oberhausen,DE,51.514968,6.8602509,0208  7400590,c.scherer@autohaus-scherer.com,https://www.opel-scherer-oberhausen.de/
Autohaus Am Ruhrdeich GmbH,OPEL,Fritz-Thyssen-Straße 6,45475,Mülheim/Ruhr,DE,51.4522057,6.8827565,0208  99664  0,,https://www.opel-ruhrdeich-muelheim.de/
AMZ Ingolstadt GmbH,OPEL,Otto-Hahn-Str. 4,85276,Pfaffenhofen,DE,48.5449077,11.5137445,0841 955910,,http://www.opel.de
Autohaus Groß-Bölting GmbH,OPEL,Butenpaß 16,46414,Rhede,DE,51.8288606,6.7093328,02872  1400,info@opel-gross-boelting.de,https://www.opel-gross-boelting-rhede.de/
Autohaus Heinrich Stumpf GmbH,OPEL,Tiergartenstr. 12,64646,Heppenheim,DE,49.6430509,8.6176272,06252  9963  0,,https://www.opel-stumpf-heppenheim.de/
Auto M. & K. Postert GmbH,OPEL,Gabelstr. 44,46147,Oberhausen,DE,51.550587,6.819084,0208/625400,,https://www.opel-postert-oberhausen.de/
F.X. Solcher GmbH,OPEL,Niederndorf 28,84307,Eggenfelden,DE,48.386534,12.7608827,08721  70160,opelsolcher@t-online.de,https://www.opel-solcher-eggenfelden.de/
Autohaus Straub GmbH,OPEL,Kaiser-Karl-Str. 1,86609,Donauwörth,DE,48.7109,10.7567542,0906  3041,autohaus-straub@t-online.de,https://www.opel-straub-donauwoerth.de/
Auto Wutzer e.K.,OPEL,Münchener Str. 40,85368,Moosburg,DE,48.4645308,11.9316754,08761  76550,gf@autowutzer.de,https://www.opel-wutzer-moosburg.de/
Autohaus Nastätten GmbH,OPEL,Rheinstr. 62 a,56355,Nastätten,DE,50.1986158,7.8479391,06772  96460,verkauf@autohaus-nastaetten.de,http://www.opel.de
Gebr. Gieraths GmbH,OPEL,Kölner Str. 105,51429,Bergisch-Gladbach,DE,50.9598485,7.144972,02204  40080,g.gieraths@gieraths.de,https://www.opel-gieraths-bergisch-gladbach-bensberg.de/
Schönauen Autohaus GmbH & Co. KG,OPEL,Kottendorfer Str. 2 - 6,42697,Solingen,DE,51.16745,7.00369,0212-223240,info@schoenauen.com,https://www.opel-schoenauen-solingen.de/
Karl Altmann GmbH & Co. KG,OPEL,Düsseldorfer Str. 69 - 79,42781,Haan,DE,51.1858775,6.9878317,02129  93200,anfrage@altmann-autoland.de,https://www.opel-altmann-haan.de/
AHH Auto-Haus Hennef GmbH,OPEL,Frankfurter Str. 135,53773,Hennef,DE,50.7790245,7.2746819,02242  92150,r.mueller@ahh-haus.de,https://www.opel-ahh-hennef.de/
Gebr. Gieraths GmbH,OPEL,Paffrather Str. 195,51469,Bergisch-Gladbach,DE,50.9951034,7.1103865,02202  299330,,https://www.opel-gieraths-bergisch-gladbach.de/
Kraftfahrzeuge Rührmair GmbH,OPEL,Pöttmeser Str. 24,86529,Schrobenhausen,DE,48.5646968,11.2510065,08252  88720,joerg@berrothjoerg.de,http://www.opel.de
Schleusener GmbH & Co. KG,OPEL,Hauptstr. 151,53797,Lohmar,DE,50.8311882,7.2057408,02246  92200,info@opel-schleusener.de,https://www.opel-schleusener-lohmar.de/
Autohaus Am Ruhrdeich GmbH,OPEL,Neumühler Str. 72,47138,Duisburg,DE,51.47874,6.79302,0203  995450,,https://www.opel-ruhrdeich-duisburg-neumuehl.de/
Elspass Autoland GmbH & Co. KG,OPEL,Karl-Heinz-Klingen-Str. 106,46539,Dinslaken,DE,51.5632377,6.7529429,02064  60090,,https://www.opel-elspass-dinslaken.de/
Autohaus Luchtenberg GmbH,OPEL,Ottostraße 7,51381,Leverkusen,DE,51.05793,7.01854,02171/79033-0,info@auto-luchtenberg.de,https://www.opel-luchtenberg-leverkusen.de/
Autohaus Bleker GmbH,OPEL,Industriestraße 40,46395,Bocholt,DE,51.8329586,6.6270294,02871  25590,,https://www.opel-bleker-bocholt.de/
Autohaus Gierten GmbH,OPEL,Schneiderstr. 16,40764,Langenfeld,DE,51.120753,6.9681155,02173  9063  0,,https://www.opel-gierten-langenfeld.de/
Autohaus Blank,OPEL,Altöttinger Str. 96,84494,Neumarkt-Sankt Veit,DE,48.3522,12.50897,08639  330,info@opel-blank.de,http://www.opel.de
Franz Zeindl,OPEL,Hauptstr. 66,94094,Malching,DE,48.3168404,13.1943828,08573  686,info@auto-zeindl.de,https://www.opel-zeindl-malching.de/
Autohaus Fröhlich GmbH & Co.KG,OPEL,Moselring 31-33,56073,Koblenz,DE,50.3607982,7.5873917,0261  941600,,https://www.opel-froehlich-koblenz.de/
Autohaus Neff GmbH,OPEL,Kocherwaldstr. 26,74177,Bad Friedrichshall,DE,49.2332174,9.2149788,07136  946200,,http://www.opel.de
Autohaus Jöst GmbH,OPEL,Freiburgerstr. 33,69469,Weinheim,DE,49.5480406,8.6373154,06201  99490,verkauf1@opel-joest.de,https://www.opel-joest-weinheim.de/
Stephan Scharrenbroich e.K.,OPEL,Rösrather Str. 724,51107,Köln,DE,50.9205242,7.0939733,0221  80097083,scharri86@gmail.com,https://www.opel-scharrenbroich-koeln.de/
Stellantis &You Gebrauchtwagenzentrum Hilden,OPEL,AUF DEM SAND 24,40721,Hilden,DE,51.175527,6.921012,00000,,http://www.opel.de
Autohaus Gierten GmbH,OPEL,Hans-Sachs-Str. 1,40721,Hilden,DE,51.1737916,6.9202358,02103  4902  0,info-hi@gierten.de,https://www.opel-gierten-hilden.de/
Auto Attenberger GmbH,OPEL,Theodor-Triebenbacher-Str. 2,84149,Velden,DE,48.368876,12.2467229,08742  533,auto-attenberger@t-online.de,https://www.opel-attenberger-velden.de/
Autohaus Sporer GmbH,OPEL,Südliche Bergstr. 3,69469,Weinheim,DE,49.5281986,8.6577478,06201  500100,sporer@autohaus-sporer.de,https://www.opel-sporer-weinheim.de/
Autohaus Am Ruhrdeich GmbH,OPEL,Max-Peters-Str. 25,47059,Duisburg,DE,51.4431709,6.7605201,0203  3181610,pgerards@ruhrdeich.de,https://www.opel-ruhrdeich-duisburg.de/
ASR Auto Service Ratingen GmbH,OPEL,Sandstr. 47,40878,Ratingen,DE,51.2961263,6.8373679,02102  940733,Xmailasr@aol.com,http://www.opel.de
Autolöwen GmbH,OPEL,Friedrichstrasse 157,73430,Aalen,DE,48.8501631,10.0926792,07361 96640,info-aalen@autoloewen.de,https://www.opel-autoloewen-aalen.de/
Autohaus Basting & Euler GmbH,OPEL,Chauvignystr. 26,65366,Geisenheim,DE,49.9890389,7.9817362,06722  7100  0,,https://www.opel-basting-euler-geisenheim.de/
Autohaus Ulmen GmbH & Co. KG,OPEL,Am Roten Kreuz 41,40880,Ratingen,DE,51.303019799,6.8286361,02102 9977 - 200,info@ulmen.com,http://www.opel.de
Emil Frey NRW-Garage,OPEL,Manforter Str. 24,51373,Leverkusen,DE,51.0275228,6.9913631,0214/83006-0,,https://www.opel-emilfrey-nrwgarage-leverkusen.de/
Auto Maibom OHG,OPEL,Schermbecker Landstr. 25,46485,Wesel,DE,51.659846,6.643465,0281/9523330,kontakt@maibom-gruppe.de,https://www.opel-maibom-wesel.de/
auto-kohl GmbH,OPEL,Nibelungenstr. 10,68642,Bürstadt,DE,49.6415197,8.4477248,06206  6361,info@autokohl-gmbh.de,https://www.opel-kohl-buerstadt.de/
Autohaus Kronenberger GmbH,OPEL,Torfbruchstr. 329a,40625,Düsseldorf,DE,51.2251739,6.8587419,0211-8383420,mail@autohaus-kronenberger.de,https://www.opel-kronenberger-duesseldorf.de/
Stellantis &You Deutschland GmbH,OPEL,THEODORSTR. 190,40472,DUESSELDORF,DE,51.273617,6.809808,0211 890961 25,psa-retail@mpsa.com,https://www.opel-stellantisandyou-duesseldorf.de/
Stellantis & You Deutschland GmbH,OPEL,Frankfurter Str. 130,51065,Köln,DE,50.954143071964815,7.013481818035405,0221 699970,,https://www.opel-psa-retail-koeln-muehlheim.de/
Nelles Automobile GmbH,OPEL,Heinkelstr. 5,53844,Troisdorf,DE,50.8170061,7.1082921,02241  8445207,fn@autohaus-nelles.de,https://www.opel-nelles-troisdorf.de/
Autohaus Neff GmbH,OPEL,Im Klauenfuß 6,74172,Neckarsulm,DE,49.180228,9.2231704,07132  95120  0,info@auto-neff.de,http://www.opel.de
Häusler Automobil GmbH & Co. KG,OPEL,Haggertystr. 2,85356,Freising,DE,48.397848,11.7707708,08161  99770,info.freising@haeusler.de,https://www.opel-haeusler-freising.de/
Walter Himmelmann,OPEL,Neckarsteinacher Str. 35-37,69151,Neckargemünd,DE,49.396141,8.8048655,06223  5204,Opel-Himmelmann@t-online.de,https://www.opel-himmelmann-neckargemuend.de/
Autohaus Weber,OPEL,Am Frühscheid 2,53545,Linz,DE,50.5701316,7.3036351,02644  2707,danielweber@opel-weber-linz.de,https://www.opel-weber-linzamrhein.de/
Autohaus Ulmen GmbH & Co. KG,OPEL,Königsberger Strasse 26,40231,Düsseldorf,DE,51.2182333,6.8221041,0211  31000  0,,https://www.opel-ulmen-duesseldorf-lierenfeld.de/
Autohaus Bachem GmbH,OPEL,Maarstr. 95,53227,Bonn,DE,50.737474,7.1399315,0228  946680,,https://www.opel-bachem-bonn.de/
Autohaus Treiber GmbH,OPEL,Friedrichstr. 93-95,69221,Dossenheim,DE,49.4449505,8.6758247,06221  866542,AutohausTreiber@aol.com,https://www.opel-treiber-dossenheim.de/
Albert und Josef Schick GmbH   & Co. KG,OPEL,Weier 4,84375,Kirchdorf am Inn,DE,48.2553757,12.9944233,08571  91510,schick.kirchdorf.verkauf1@net.opel.com,https://www.opel-schick-kirchdorf.de/
Auto Mai GmbH,OPEL,Fritz-Frey-Str. 19,69121,Heidelberg,DE,49.4373419,8.6802896,06221  45710,,https://www.opel-mai-heidelberg.de/
Autoservice Unkel GmbH,OPEL,Im unteren Maarfeld 22,53619,Rheinbreitbach,DE,50.6240094,7.2201847,02224  9897470,info@autoservice-unkel.de,http://www.opel.de
Autohaus Becker GmbH,OPEL,An der B 9,55430,Oberwesel,DE,50.1078722,7.7259034,06744  386,Autohaus-Becker-Opel@t-online.de,https://www.opel-becker-oberwesel.de/
Auto-Nau GmbH & Co. KG,OPEL,Wormser Str. 11-13,67593,Westhofen,DE,49.7031458,8.2479271,06244  90630,info@auto-nau.de,https://www.opel-nau-westhofen.de/
Auto Pieroth GmbH & Co. KG,OPEL,Speyerer Str. 88-100,67547,Worms,DE,49.62444,8.35631,06241  84010,fpieroth@auto-pieroth.de,https://www.opel-pieroth-worms.de/
Autohaus Busch GmbH,OPEL,Maria Münster Str. 8-10,67547,Worms,DE,49.6219992,8.3596046,06241  6441,erwin.kotheimer@t-online.de,https://www.opel-busch-worms.de/
Elspass Autoland GmbH & Co. KG,OPEL,Rheinbergerstr. 193-195,47445,Moers,DE,51.4744097,6.6319194,02841  88111  0,info@elspass.de,https://www.opel-elspass-moers.de/
Autohaus Schlecht GmbH,OPEL,An der Bahn 1,89420,Höchstädt an der Donau,DE,48.6220927,10.5735388,09074  95676  0,info@autohaus-schlecht.de,https://www.opel-schlecht-hoechstadt.de/
Autohaus Am Ruhrdeich GmbH,OPEL,Mühlenstr. 3,47441,Moers,DE,51.4558437,6.6282093,02841  99898  0,,https://www.opel-ruhrdeich-moers.de/
Autohaus Dresen GmbH,OPEL,Ellerstr. 73-75,53119,Bonn,DE,50.7408498,7.0845561,0228  26950,I.majic@dresen.de,https://www.opel-dresen-bonn-Ellerstrasse.de/
Auto Pieroth GmbH & Co. KG,OPEL,In der Weide 5,55411,Bingen,DE,49.9236502,7.915196,06721/9144-0,info@auto-pieroth.de,https://www.opel-pieroth-bingen.de/
Autohaus Uwe Schökel,OPEL,Bollwerksweide 1,46419,Isselburg,DE,51.8388018,6.4642165,02874  905430,boschservice.schoekel@freenet.de,https://www.opel-schoekel-isselburg.de/
Autohaus Neff GmbH,OPEL,Lise-Meitner-Str. 26,74074,Heilbronn,DE,49.1215035,9.2171667,07131  390500,info@auto-neff.de,http://www.opel.de
RKG Markenwelt GmbH & Co. KG,OPEL,Bornheimer Str. 200,53119,BONN,DE,50.73907,7.07903,0228 944 9820,,https://www.opel-rkg-bonn.de/
Autohaus Morchel GmbH,OPEL,Kreuznacher Str. 5-7,55576,Sprendlingen,DE,49.8624979,7.9859789,06701  93040,autohaus.morchel@t-online.de,http://www.opel.de
Autohaus Heinen GmbH,OPEL,Mathias-Giesen-Str. 14,41540,Dormagen,DE,51.0935,6.81848,021332545 0,info@autohaus-heinen.de,http://www.opel.de
Autohaus Dechent Rhein-Neckar GmbH,OPEL,Speyerer Str. 11,69115,Heidelberg,DE,49.3986167,8.6750085,06221  5310,info.hd@dechent.de,https://www.opel-dechent-heidelberg.de/
Autohaus Louis Dresen GmbH,OPEL,Lübecker Str. 12,41540,Dormagen,DE,51.0917109,6.8133218,02133  25440,,https://www.opel-dresen-dormagen.de/
Augsburger Auto-Center Albert Sigg GmbH,OPEL,Ulrichstr. 17,86405,Meitingen-Herbertshofen,DE,48.5223726,10.8577746,08271  813260,bernhard.spengler@opel-sigg.de,http://www.opel.de
Bubach Automobile GmbH,OPEL,Bahnhofstr. 13,55232,Alzey,DE,49.7507032,8.1113573,06731  96040,,https://www.opel-bubach-alzey.de/
Moll Automobile GmbH & Co. KG,OPEL,Maarweg 241 - 251,50825,Köln,DE,50.947446,6.896469,0221 29275-0,info@moll-automobile.de,https://www.opel-moll-koeln.de/
Häusler Automobil GmbH & Co. KG,OPEL,Landshuter Str. 57,85435,Erding,DE,48.3092271,11.9160147,08122  97850,info.erding@haeusler.de,https://www.opel-haeusler-erding.de/
Autohaus Betzmeir GmbH,OPEL,Augsburger Str. 33,86551,Aichach,DE,48.4514023,11.1265437,08251  87670,,https://www.opel-betzmeir-aichach.de/
Martin Forster & Sohn OHG,OPEL,Ruprechtsberg 17,84405,Dorfen,DE,48.2770177,12.1472083,08081  2144,,https://www.opel-forster-dorfen.de/
Stellantis &You Deutschland GmbH,OPEL,Widdersdorfer Str. 345,50933,Köln,DE,50.9465909,6.8906693,0221 955842 25,ruven.waldner@mpsa.com,https://www.opel-psa-retail-koeln-widdersdorfer.de/
Auto-Heckel GmbH,OPEL,Meckesheimer Str. 5,74939,Zuzenhausen,DE,49.296593,8.8228365,06226  9251  0,zuzenhausen@auto-heckel.de,https://www.opel-heckel-zuzenhausen.de/
Vogl Sebastian e. K.,OPEL,Elbestraße 6,84453,Mühldorf am Inn,DE,48.2365522,12.5375639,08631 37850,info@opel-vogl.de,https://www.opel-vogl-muehldorf.de/
Vogl Sebastian e. K.,OPEL,Fabrikstr. 19,84503,Altötting,DE,48.2236305,12.672676,08671 96790,,https://www.opel-vogl-altoetting.de/
Autohaus Am Ruhrdeich GmbH,OPEL,Saalestr. 15,47800,Krefeld,DE,51.35795,6.62288,02151  47985  0,,https://www.opel-ruhrdeich-krefeld.de/
Auto-Wexeler GmbH,OPEL,Mainzer Str. 45,53332,Bornheim,DE,50.7574516,7.0102929,02222  91020,werner@auto-wexeler.de,https://www.opel-wexeler-bornheim.de/
Herbrand-Jansen GmbH,OPEL,Hammer Landstr. 41-43,41460,Neuss,DE,51.2010463,6.701837,02131 12480,info@herbrand-jansen.de,https://www.opel-herbrand-neuss.de/
AMZ Mannheim GmbH,OPEL,Viehhofstr. 6-20,68165,Mannheim,DE,49.4738706,8.484073,0621/44550,,http://www.opel.de
Autohaus Kummich GmbH,OPEL,In den Tieräckern 21,89520,Heidenheim an der Brenz,DE,48.69525,10.17221,07321 35990,info@kummich.de,https://www.opel-kummich-heidenheim.de/
AUTO KNAPP GMBH,OPEL,HEIDENÄCKERSTR. 11,69027,SANDHAUSEN,DE,49.35135,8.65782,06224/9361-0,info@autoknapp.de,http://www.opel.de
Vogl Sebastian e. K.,OPEL,Daimlerstraße 45,84478,Waldkraiburg,DE,48.218025,12.411061,08638 96790,,https://www.opel-vogl-waldkraiburg.de/
Autohaus Hartmann GmbH,OPEL,Kölnstr. 202,50321,Brühl,DE,50.8394252,6.9107252,02232  945840,,https://www.opel-hartmann-bruehl.de/
Autohaus Louis Dresen GmbH,OPEL,Moselstr. 11,41464,Neuss,DE,51.1794444,6.6811924,02131  79990,info-neuss@dresen.de,https://www.opel-dresen-neuss.de/
Autohaus Wickenhäuser GmbH,OPEL,Ludwig-Erhard-Str. 9,85375,Neufahrn,DE,48.31208,11.64994,08165 95350,info@opel-wickenhaeuser.de,http://www.opel.de
Auto Knapp GmbH,OPEL,Heßheimer Straße 158,67227,Frankenthal,DE,49.541898,8.334355,06233-37550,info@autoknapp.de,http://www.opel.de
Autohaus Reiche GmbH,OPEL,Hoftalstr. 1,71723,Großbottwar,DE,49.0065511,9.3029745,07148  350,,https://www.opel-reiche-grossbottwar.de/
CarCenter Autohaus Kreuznach GmbH,OPEL,Mainzer Str. 20a,55545,Bad Kreuznach,DE,49.8472278,7.8861592,0671  88500,,http://www.opel.de
Autohaus Louis Dresen GmbH,OPEL,Untergath 171,47805,Krefeld,DE,51.3200143,6.5870102,02151  8070  0,info-krefeld@dresen.de,https://www.opel-dresen-krefeld.de/
Autohaus Glath GmbH & Co. KG,OPEL,Heppingerstr. 27,53501,Grafschaft,DE,50.574295583144576,7.098072811706098,02641  91145  0,Autohaus-Glath@t-online.de,https://www.opel-glath-grafschaft.de/
Moll GmbH & Co. KG,OPEL,Königsberger Straße 2,41564,Kaarst,DE,51.2196,6.63145,02131 96000,kaarst@moll.de,http://www.opel.de
Autohaus Staiger GmbH,OPEL,Lorcher Str. 99,73525,Schwäbisch-Gmünd,DE,48.79622,9.78111,07171  911810,,http://www.opel.de
Autohaus Walter Mulfinger GmbH,OPEL,Stuttgarter Str. 141,71522,Backnang,DE,48.9354283,9.4376264,07191  95880,u.mulfinger@mulfinger.de,https://www.opel-mulfinger-backnang.de/
Autohaus Kummich GmbH,OPEL,Dillinger Str. 7,89415,Lauingen,DE,48.57336,10.43452,09072 95220,info@kummich.de,https://www.opel-kummich-lauingen.de/
Autohaus Talay GmbH,OPEL,Bruchwiesenstr. 13a,67059,Ludwigshafen,DE,49.464246,8.418484,0621  579190,,https://www.opel-talay-ludwigshafen.de/
Autohaus Bast GmbH,OPEL,Am Fischlerbach 8-10,55494,Rheinböllen,DE,49.9979866,7.676306,06764/1222,,https://www.opel-bast-rheinboellen.de/
AMZ Mannheim GmbH,OPEL,In der Mörschgewanne 6,67065,Ludwigshafen,DE,49.45107,8.423559,0621 44550,,http://www.opel.de
Autohaus v. Wülfing GmbH,OPEL,Bergerwiesenstr. 16,53340,Meckenheim,DE,50.6398847,7.0210562,02225  7055811,info@opel-vonwuelfing.de,https://www.opel-wuelfing-meckenheim.de/
Augsburger Auto-Center Albert Sigg GmbH,OPEL,Augsburger Str. 36,86444,Affing / Mühlhausen,DE,48.43243,10.92383,0820-7959920,info@sigg-automobile.de,http://www.opel.de
Auto-Lechner Inh. Michael Lechner e.K.,OPEL,Messerschmittstr. 4,86453,Dasing,DE,48.3888723,11.0594079,08205  959040,info@auto-lechner.de,https://www.opel-lechner-dasing.de/
Auto Heckel GmbH,OPEL,Bruchsaler Str. 5,74918,Angelbachtal,DE,49.2328309,8.7698322,07265  9151  0,zuzenhausen@auto-heckel.de,https://www.opel-heckel-angelbachtal.de/
Autohaus Butsch GmbH,OPEL,Elsterweg 17,89542,Herbrechtingen,DE,48.6281528,10.1804991,07324  2305,info@zimmermannundbutsch.de,https://www.opel-butsch-herbrechtingen.de/
Autohaus Max Niebler GmbH,OPEL,Dieselstr. 18,86368,Gersthofen,DE,48.429129,10.8654438,0821  491049,info@opel-niebler.de,https://www.opel-niebler-gersthofen.de/
Autohaus Dechent Rhein-Neckar GmbH,OPEL,Altrottstr. 41,69190,Walldorf,DE,49.2938435,8.6497703,06227  61344,,https://www.opel-dechent-walldorf.de/
Burgey Automobile GmbH,OPEL,Hanns-Hörbiger-Str. 16,67133,Maxdorf,DE,49.4898138,8.2925491,06237  925900,,https://www.opel-burgey-maxdorf.de/
Auto Knapp GmbH,OPEL,1.Industriestr. 2,68766,Hockenheim,DE,49.33929,8.5339,06205/30556-0,info@autoknapp.de,http://www.opel.de
Autohaus NETT GmbH & Co. KG,OPEL,Koblenzer Str. 146,56727,Mayen,DE,50.327576,7.243645,02651/70440,info@autohaus-nett.de,https://www.opel-nett-mayen.de/
Auto Pieroth GmbH & Co. KG,OPEL,Daimlerstr. 8,67269,Grünstadt,DE,49.55573,8.18001,06359  937830,,https://www.opel-pieroth-grünstadt.de/
Augsburger Auto-Center Albert Sigg GmbH,OPEL,Robert-Bosch-Str. 5,86167,Augsburg,DE,48.3932609,10.9161956,0821  74790,,http://www.opel.de
Autohaus Nossmann GmbH,OPEL,Kleine Heeg 36,53359,Rheinbach,DE,50.626796,6.9636939,02226  92100,,https://www.opel-nossmann-rheinbach.de/
Wolters Nutzfahrzeuge GmbH,OPEL,KASTELLSTR. 40-42,47546,KALKAR,DE,51.7320563,6.2966824,02824 92340,,http://www.opel.de
Augsburger Auto-Center Albert Sigg GmbH,OPEL,Donauwörther Str. 138,86154,Augsburg,DE,48.3916465,10.8817934,0821  217450,roland.nosky@opel-sigg.de,http://www.opel.de
Autosalon Faber,OPEL,Robert-Bosch-Str. 3,85221,Dachau,DE,48.2653954,11.4727527,08131  5166  0,josef.faber@opel-faber.de,https://www.opel-faber-dachau.de/
Augsburger Auto-Center Albert Sigg GmbH,OPEL,Donaustr. 7,86165,Augsburg,DE,48.3756697,10.9329113,0821  7947440,,http://www.opel.de
Autohaus Härter GmbH,OPEL,Gottlob-Müller-Str. 1,74354,Besigheim,DE,48.9931028,9.1445762,07143  36025,info@opel-haerter.de,https://www.opel-haerter-besigheim.de/
Autohaus ELLMANN GmbH & Co. KG,OPEL,Fischbachstr. 47,50127,Bergheim,DE,50.9274071,6.7047972,02273  93040,,https://www.opel-ellmann-bergheim.de/
Autohaus Lenz,OPEL,Beethovenstr. 60,71726,Benningen am Neckar,DE,48.9398877,9.2382866,07144  97958,info@lenz-benningen.de,https://www.opel-lenz-benningen.de/
Wolters Nutzfahrzeuge GmbH,OPEL,MAX-PLANCK-STR. 30,47608,GELDERN,DE,51.5250072,6.3539163,02831 93340,,http://www.opel.de
Autohaus Schnorberger GmbH,OPEL,Kirrlacherstr. 38,68789,St. Leon-Rot,DE,49.264153,8.5971505,06227  51053,info@opelschnorbeger.de,https://www.opel-schnorberger-st-leon-rot.de/
Autohaus Louis Dresen GmbH,OPEL,Friedrich-Ebert-Straße 27,41352,Korschenbroich,DE,51.1939689,6.5206076,02161  992990,p.dahlmann@dresen.de,https://www.opel-dresen-korschenbroich.de/
Franz Brunnhuber Automobile GmbH & Co. KG,OPEL,Hessenbachstr. 63,86156,Augsburg,DE,48.3747625,10.8760315,0821  440060,,https://www.opel-brunnhuber-augsburg.de/
Autohaus Kühnen,OPEL,Katzenberg 11,47589,Uedem,DE,51.6705268,6.2846022,02825  6259,opel-kuehnen@t-online.de,https://www.opel-kuehnen-uedem.de/
Auto Nagel Kempen GmbH & Co. KG,OPEL,Otto-Schott-Str. 7,47906,Kempen,DE,51.377091,6.4161621,02152/ 2096  0,info@auto-nagel.de,https://www.opel-gossens-kempen.de/
Seibold GmbH,OPEL,Ulmer Str. 33,89547,Gerstetten,DE,48.6176959,10.0244216,07323  96240,info@seibold-gerstetten.de,https://www.opel-seibold-gerstetten.de/
Schönauen Autohaus GmbH & Co. KG,OPEL,Siemensstr. 10,50374,Erftstadt,DE,50.7937599,6.7750661,02235  954560,info@schoenauen.com,https://www.opel-schoenauen-erftstadt.de/
Autohaus Drach GmbH,OPEL,Bruchsaler Str. 39,76669,Bad Schönborn,DE,49.2163584,8.6528016,07253  7242,info@autohaus-drach.de,https://www.opel-drach-bad-schoenborn.de/
Georg Haas GmbH & Co. KG Automobile,OPEL,Gögginger Str. 17 a b,86159,Augsburg,DE,48.3585341,10.8882686,0821  570520,,http://www.opel.de
Schönauen Autohaus GmbH & Co. KG,OPEL,Kölnerstr. 89 - 93,50171,Kerpen,DE,50.87398,6.70106,02237  923250,info@schoenauen.com,https://www.opel-schoenauen-kerpen.de/
Autohaus Louis Dresen GmbH,OPEL,Heinrich-Barth-Str. 28,53881,Euskirchen,DE,50.6857138,6.8340107,02251  95080,info-euskirchen@dresen.de,https://www.opel-dresen-euskirchen.de/
Herbrand-Jansen GmbH,OPEL,Krefelder Str. 365,41066,Mönchengladbach,DE,51.2153858,6.4719276,02161/694990,info@herbrand-jansen.de,https://www.opel-herbrand-moenchengladbach.de/
Auto Könninger GmbH,OPEL,Fabrikstr. 8,73079,Süssen,DE,48.6817825,9.7666019,07162  41400,info@autohaus-koenninger.de,https://www.opel-koenninger-suessen.de/
Auto-Roth GmbH,OPEL,Tiefenthaler Str. 40,67310,Hettenleidelheim,DE,49.53651,8.0839,06351  13050,,https://www.opel-roth-hettenleidelheim.de/
Autohaus Weller GmbH & Co. KG,OPEL,Berliner Str. 40,74321,Bietigheim-Bissingen,DE,48.9414831,9.1405367,07142  95400,,https://www.opel-weller-bietigheim.de/
Autohaus Wiedemann,OPEL,Südstr. 74,71404,Korb,DE,48.8385287,9.3660489,07151  31100,ah-wiedemann@t-online.de,https://www.opel-wiedemann-korb.de/
Auto Maibom OHG,OPEL,Bedburger Weide 57,47551,Bedburg-Hau,DE,51.768929,6.187119,02821/97680-0,kontakt@maibom-gruppe.de,https://www.opel-maibom-kleve.de/
Autohaus Wickenhäuser GmbH,OPEL,Frankfurter Ring 193,80807,München,DE,48.18782,11.5989,089  143810  0,info@opel-wickenhaeuser.de,http://www.opel.de
Autohaus Weller GmbH u. Co. KG,OPEL,Marbacher Str. 69,71642,Ludwigsburg,DE,48.9033273,9.2043812,07141  56140,,https://www.opel-weller-ludwigsburg.de/
Auto Maibom OHG,OPEL,Gewerbering 38,47623,Kevelaer,DE,51.5757829,6.2617935,02832  92300,hjm@maibom-gruppe.de,https://www.opel-maibom-Kevelaer.de/
RKG Markenwelt GmbH & Co. KG,OPEL,Kölner Str. 245,53879,Euskirchen,DE,50.669056,6.806513,02251 6503671,,https://www.opel-rkg-euskirchen.de/
Autozentrum Dresen GmbH,OPEL,Freiheitsstraße 226,41747,Viersen,DE,51.250983,6.402159,02162  95693  0,,https://www.opel-dresen-viersen.de/
Autohaus Staiger GmbH,OPEL,Stuttgarter Str. 81,73033,Göppingen,DE,48.7109791,9.6287459,07161  984720,,http://www.opel.de
Augsburger Auto-Center Albert Sigg GmbH,OPEL,Pilsener Str. 2,86199,Augsburg,DE,48.3137646,10.9082351,0821  808950,,http://www.opel.de
Auto Schuster e.K. Inh. Michael Schuster,OPEL,Badanger Str. 52,86438,Kissing,DE,48.2960295,10.98404,08233  5050,info@autoschuster.de,http://www.opel.de
Hauer Inh.M.Reiter,OPEL,Wasserburger Str. 26 - 28,83530,Schnaitsee,DE,48.0710751,12.3668779,08074  232,Opel.Hauer@t-online.de,https://www.opel-hauer-schnaitsee.de/
Autozentrum Dresen GmbH,OPEL,Aachener Str. 235,41061,Mönchengladbach,DE,51.1879849,6.419175,02161  30500,,https://www.opel-dresen-moenchengladbach.de/
Häusler Automobil GmbH & Co. KG,OPEL,Otto-Lilienthal-Ring 34,85622,Feldkirchen,DE,48.1403205,11.7381571,089  907770,info.feldkirchen@haeusler.de,https://www.opel-haeusler-feldkirchen.de/
Georg Thissen,OPEL,Junkersstr. 5,47638,Straelen,DE,51.4325935,6.2737419,02834  780450,info@georg-thissen.de,https://www.opel-thissen-straelen.de/
Autohaus Stein GbR,OPEL,August-Horch-Str. 3,56759,Kaisersesch,DE,50.2338984,7.1491063,02653  99940,anfrage@opel-stein.de,https://www.opel-stein-kaisersesch.de/
Autohaus Staiger GmbH,OPEL,Schüttelgrabenring 2,71332,Waiblingen,DE,48.817079,9.311326,07151  17030,,http://www.opel.de
Autohaus Zimmermann GmbH & Co. KG,OPEL,Robert-Koch-Str. 2,89312,Günzburg,DE,48.4532959,10.2946882,08221  36330,info@zimmermann-guenzburg.de,https://www.opel-zimmermann-guenzburg.de/
Häusler Automobil GmbH & Co. KG,OPEL,Olchinger Straße 94,82194,Gröbenzell,DE,48.1877267,11.3815675,08142  650480,info.groebenzell@haeusler.de,https://www.opel-haeusler-groebenzell.de/
Wegst GmbH,OPEL,Leibnizstr. 2,70806,Kornwestheim,DE,48.8619072,9.191024,07154  801120,s.wegst@caractiv.de,https://www.opel-wegst-kornwestheim.de/
Georg Haas GmbH & Co. KG Automobile,OPEL,Haunstetter Str. 57,86343,Königsbrunn,DE,48.285322,10.8950614,08231  86033,thomas.fuchs@haas-automobile.de,http://www.opel.de
Autohaus Vodermayer GmbH,OPEL,Rosenheimer Str. 13,83512,Wasserburg am Inn,DE,48.05731,12.22901,08071  90580,info@vodermayer.de,https://www.opel-vodermayer-wasserburg.de/
Automobilforum Kuttendreier GmbH,OPEL,Drosselweg 21,81827,München,DE,48.1183867,11.694629,089  453120,,https://www.opel-kuttendreier-muenchen.de/
Häusler Automobil GmbH & Co. KG,OPEL,Kreillerstr. 56,81673,München,DE,48.1264708,11.639035,089  4368973,info.bergamlaim@haeusler.de,https://www.opel-haeusler-berg-am-laim.de/
Häusler Automobil GmbH & Co. KG,OPEL,Maisacher Str. 127,82256,Fürstenfeldbruck,DE,48.19352,11.25555,08141  40060,Info.ffb@haeusler.de,https://www.opel-haeusler-fuerstenfeldbruck.de/
"Autohaus Eichhorn, Inh. Paul Eichhorn",OPEL,Münchenerstr. 14,85560,Ebersberg,DE,48.0760868,11.9634878,08092  857770,info@autohaus-eichhorn.de,https://www.opel-eichhorn-ebersberg.de/
Häusler Automobil GmbH & Co. KG,OPEL,Landsberger Strasse 83-87,80339,München,DE,48.1398123,11.536796,089  5101  0,info@haeusler.de,https://www.opel-haeusler-muenchen.de/
Autohaus Klosterhalfen GmbH,OPEL,Kölner Str. 12,52399,Merzenich,DE,50.8370852,6.5843887,02275  911888,Autohaus@Opel-Klosterhalfen.de,https://www.opel-klosterhalfen-merzenich.de/
Auto-Knapp GbR,OPEL,Remstalstr. 8,73773,Aichwald,DE,48.7484482,9.3895539,0711  361226,service@auto-knapp.com,http://www.opel.de
Auto Hiller KG,OPEL,Wasserburger Landstr. 3,85604,Zorneding,DE,48.0827925,11.8263847,08106  20040,opel-hiller@t-online.de,https://www.opel-hiller-zorneding.de/
Autohaus Menhofer GmbH & Co. KG,OPEL,Hochstr. 14,86399,Bobingen,DE,48.2699579,10.8340028,08234  70668  0,opel-menhofer@t-online.de,https://www.opel-menhofer-bobingen.de/
Häusler Automobil GmbH & Co. KG,OPEL,Bodenseestr. 257,81249,München,DE,48.1426522,11.423046,089  893280  0,info.neuaubing@haeusler.de,https://www.opel-haeusler-muenchen-neuaubing.de/
Autohaus Staiger GmbH,OPEL,Schwieberdinger Str. 98,70435,Stuttgart,DE,48.8329736,9.1565243,0711  25090,,http://www.opel.de
Auto Zschernitz GmbH,OPEL,Dieselweg 7-9,76646,Bruchsal,DE,49.11912,8.57343,07251 8080,,http://www.zschernitz.de
Autohaus Kuhn GmbH,OPEL,Esslinger Str. 94-96,73207,Plochingen,DE,48.715546,9.414488,07153  8908  8,info@opel-kuhn.de,https://www.opel-kuhn-plochingen.de/
Häusler Automobil GmbH & Co. KG,OPEL,Grünwalderstr. 31,81547,München,DE,48.107489,11.5729668,089  6205210,info.harlching@haeusler.de,https://www.opel-haeusler-muenchen-harlaching.de/
Autohaus Staiger GmbH,OPEL,Pragstr. 138,70376,Stuttgart,DE,48.80758,9.19426,0711-268710,kontakt@autostaiger.de,http://www.opel.de
Mascher & Noder GmbH,OPEL,Münchener Str. 30,85567,Grafing,DE,48.0484195,11.9666896,08092  31071,Mascher.Grafing.Verkauf1@Net.Opel.Com,http://www.opel.de
Autohaus Holz GmbH,OPEL,Branchweilerhofstr. 87-89,67433,Neustadt/Weinstraße,DE,49.3508115,8.1670366,06321  91880,,https://www.opel-holz-neustadt.de/
Autohaus Metzger GmbH,OPEL,Industriestr. 118,75417,Mühlacker,DE,48.9545948,8.8711116,07041  95550,info@metzger-autohaus.de,https://www.opel-metzger-muehlacker.de/
Autohaus Staiger GmbH,OPEL,Abelsbergstr. 77-89,70188,Stuttgart,DE,48.7852699,9.212817,0711  268640,,http://www.opel.de
Häusler Automobil GmbH & Co. KG,OPEL,Hauptstr. 1,85579,Neubiberg,DE,48.0767123,11.6597766,089  18931450,info.neubiberg@haeusler.de,https://www.opel-haeusler-neubiberg.de/
AUTO PALAZZO GMBH,OPEL,NECKARSTR. 137-139,70190,STUTTGART,DE,48.788245,9.193054,0711 2803-1100,,http://www.opel.de
Autohaus Staiger GmbH,OPEL,Dornierstr. 16,73730,Esslingen,DE,48.7187227,9.3465856,0711  931350,,http://www.opel.de
Autohaus Sobeck GmbH,OPEL,Max-Eyth-Str. 2,73249,Wernau,DE,48.6828944,9.4248887,07153  91030,autohaus.wernau@t-online.de,http://www.opel.de
Autohaus Günther GmbH & Co. KG,OPEL,Trostbergerstr. 4,83301,Traunreut,DE,47.960721,12.6068181,08669  85850,info@autohaus-traunreut.de,https://www.opel-guenther-traunreut.de/
Auto-Baumann GmbH,OPEL,Im Sänder 20,73342,Bad Ditzenbach,DE,48.57895,9.674942,07335  6203,info@autobaumann.de,https://www.opel-baumann-bad-ditzenbach.de/
Auto-Velten GmbH,OPEL,Im Stockach 5,73235,Weilheim,DE,48.6247684,9.5282866,07023  2117,auto-velten@t-online.de,http://www.opel.de
Autohaus Fürst GmbH,OPEL,Berblinger Str.  4,71254,Ditzingen,DE,48.8195215,9.0615331,07156  937060,Autohaus-Fuerst@t-online.de,https://www.opel-fuerst-ditzingen.de/
Autohaus Sobeck GmbH,OPEL,Sudetenstr. 27,73230,Kirchheim,DE,48.6415468,9.4723632,07021  98050  0,autohaus.wernau@t-online.de,https://www.opel-sobeck-kirchheim.de/
Autohaus Meures GmbH,OPEL,Gewerbestr. Süd 62,41812,Erkelenz,DE,51.0681763,6.3109039,02431  9612  0,,https://www.opel-meures-erkelenz.de/
Autohaus Happel KG,OPEL,Oberstr. 84 - 86,52349,Düren,DE,50.7970126,6.4869181,02421  958300,,https://www.opel-happel-dueren.de/
Autohaus Günter Brust GmbH   & Co. KG,OPEL,Hauptstr. 30,55624,Gösenroth,DE,49.8909468,7.323981,06544  358,info@autohaus-brust.de,https://www.opel-brust-goesenroth.de/
Auto Thüllen Indeland GmbH & Co. KG,OPEL,Monschauer Str. 17-35,52355,Düren,DE,50.7949493,6.4730761,02421  96440,,https://www.opel-thuellen-dueren.de/
Auto Thüllen Indeland GmbH & Co. KG,OPEL,Dürener Str. 35,52428,Jülich,DE,50.9147128,6.3757088,02461  6960,,https://www.opel-thuellen-juelich.de/
Häusler Automobil GmbH & Co. KG,OPEL,Kraillinger Str. 6,82131,Stockdorf,DE,48.0782406,11.3450739,089  8951420,info.stockdorf@haeusler.de,https://www.opel-haeusler-stockdorf.de/
B+R Autohaus GmbH Alfred Maier,OPEL,HOERVELSINGER WEG 8-10,89081,ULM,DE,48.4259225,9.9867122,0731 14350,,http://www.opel.de
Autohaus Mittermüller e. K.,OPEL,Adolf-Kolping-Str. 1,85625,Glonn,DE,47.9890929,11.8756049,08093  759,Autohaus.Mittermueller@t-online.de,https://www.opel-mittermueller-glonn.de/
Georg Haas GmbH & Co. KG Automobile,OPEL,Augsburgerstr. 64,86830,Schwabmünchen,DE,48.1965982,10.7571203,08232  2099,,http://www.opel.de
Autohaus Götzinger e.K.,OPEL,Wasserbrenner 15,83367,Petting,DE,47.8918224,12.8411796,08686  8435,info@opel-goetzinger.de,https://www.opel-goetzinger-petting.de/
Albert Schnell GmbH,OPEL,Tisinstr. 42,82041,Oberhaching,DE,48.0209454,11.5928986,089  6131612,info@autohaus-schnell.de,https://www.opel-schnell-oberhaching.de/
"donau-autohaus, ein Filialbetrieb der Hanser + Leiber GmbH & Co. KG",OPEL,Schwabenstr. 39,89231,Neu-Ulm,DE,48.3989289,10.0162451,0731  970070,,https://www.opel-donau-autohaus-neu-ulm.de/
Peter Ehrbar GmbH,OPEL,Hofoldinger Str. 13-15,85649,Brunnthal,DE,48.0018955,11.6864866,08102  6091,p.ehrbar@gmx.net,http://www.opel.de
Autohaus Burg GmbH,OPEL,An der Blumenkapelle 5,86470,Thannhausen,DE,48.2534064,10.4906311,08281  2048,verwaltung@autohaus-burg.de,https://www.opel-burg-thannhausen.de/
Hanser & Leiber GmbH & Co. KG,OPEL,Neutorstr. 31,89073,Ulm,DE,48.4034868,9.9857062,0731  14400,,https://www.opel-hanser-und-leiber-ulm.de/
Autohaus Zimmermann GmbH & Co. KG,OPEL,Industriestr. 1,86836,Untermeitingen,DE,48.1659988,10.8272062,08232  184 601  0,info@zimmermann-guenzburg.de,https://www.opel-zimmermann-untermeitingen.de/
D-Automobile GmbH,OPEL,In der Au 13,72622,Nürtingen,DE,48.6346237,9.3438887,07022  92730,,https://www.opel-d-automobile-nuertingen.de/
Autohaus Trometer e.K.,OPEL,Schwabmünchner Str. 16,86836,Klosterlechfeld,DE,48.15908,10.82763,08232  3036,info@trometer.de,https://www.opel-trometer-klosterlechfeld.de/
Autozentrum Stein GmbH,OPEL,Sägmühlweg 21,75203,Königsbach-Stein,DE,48.9585846,8.6400966,07232  809590,j.schlafer@autozentrum-stein.de,https://www.opel-stein-koenigsbach.de/
Auto-Epple Erich Epple GmbH,OPEL,Renninger Str. 24,71277,Rutesheim,DE,48.807055,8.9424405,07152  99330,info@auto-epple.com,https://www.opel-epple-rutesheim.de/
Auto Hübner GmbH,OPEL,Mainzer Str. 101,67657,Kaiserslautern,DE,49.4539995,7.7917296,0631  34131  0,,http://www.opel.de
Autohaus Liegert GmbH,OPEL,Neue Str. 3,67659,Kaiserslautern,DE,49.472879,7.7614539,0631  371137,,https://www.opel-liegert-kaiserslautern.de/
Auto & Service GmbH & Co. KG,OPEL,Gablonzer Str. 9,75181,Pforzheim,DE,48.8856176,8.7542929,07231  784060,m.muhr@auto-und-service.de,https://www.opel-auto-service-pforzheim.de/
AUTOMOBILFORUM STAIGER GMBH,OPEL,Maybachstr. 4-6,70771,Leinfelden,DE,48.7008704,9.1437452,0711  9036340,,http://www.opel.de
Autohaus Christoph Steinborn,OPEL,In der Hilbach 50,52396,Heimbach,DE,50.6325433,6.4931841,02446  3330,Opelsteinborn@aol.com,https://www.opel-steinborn-heimbach.de/
Gerstel GmbH & Co. KG,OPEL,Altstädter Str. 14-18,75175,Pforzheim,DE,48.8919562,8.7120305,07231  2800090,,https://www.opel-gerstel-pforzheim.de/
Auto-Boos GmbH,OPEL,Hauptstr. 1,54472,Hochscheid,DE,49.877225,7.215359,06536  93980,info@auto-boos.de,https://www.opel-boos-hochscheid.de/
Autohaus Englhart GmbH,OPEL,Maxlrainer Str. 2,83104,Tuntenhausen-Beyharting,DE,47.9251941,11.9896327,08065  90660,empfang@englhart.de,https://www.opel-englhart-tuntenhausen.de/
Autohaus  Wieländer GmbH,OPEL,Günzburger Str. 54,89264,Weißenhorn,DE,48.3112813,10.1579535,07309  96980,autohaus.wielaender@t-online.de,https://www.opel-wielaender-weissenhorn.de/
Autohaus Wilhelm,OPEL,Bahnhofstr. 84,86381,Krumbach,DE,48.249443,10.3582472,08282  896470,verwaltung@autohaus-wilhelm.de,https://www.opel-wilhelm-krumbach.de/
Autohaus Holz GmbH,OPEL,Hainbachstr. 70-76,76829,Landau/Pfalz,DE,49.206515,8.1245407,06341  96520,,https://www.opel-holz-landau.de/
Autohaus Hans Panzer GmbH,OPEL,Sonntagshornstr. 37,83278,Traunstein,DE,47.855412,12.624912,0861 166210,dieter.panzer@stellantis-panzer.de,https://www.opel-panzer-traunstein.de/
Ruprecht Tretter Autohaus GmbH & Co. KG,OPEL,Lise-Meitner-Str. 2,76829,Landau,DE,49.1911334,8.1319004,06341  510999,info@opel-tretter.de,https://www.opel-tretter-landau.de/
Autohaus Stanglmair GmbH & Co. Betriebs-KG,OPEL,Hadorfer Str. 2,82319,Starnberg,DE,48.0227228,11.2666832,08151 555050,,http://www.opel.de
Auto Schott GmbH & Co.KG,OPEL,Weiherstr.15,71106,Magstadt,DE,48.745235,8.9680262,07159  40950,,https://www.opel-schott-magstadt.de/
LIEGERT & BÖSKEN Automobile GmbH,OPEL,Merkurstr. 11,67663,Kaiserslautern,DE,49.4435952,7.7304017,0631  535560,,https://www.opel-boesken-kaiserslautern.de/
AUTOMOBILFORUM STAIGER GMBH,OPEL,Mahdentalstr. 70,71065,Sindelfingen,DE,48.7070072,9.0218099,07031  86620,,http://www.opel.de
Auto Zschernitz GmbH,OPEL,Fassendeichstr. 1,76829,Landau,DE,49.193521,8.094859,06341 98670,,http://www.zschernitz.de
Auto Füllemann,OPEL,Albstr. 66,72587,Römerstein,DE,48.4956778,9.5089305,07382  246,autofuellemann@t-online.de,https://www.opel-fuellemann-roemerstein.de/
Autohaus Meures GmbH,OPEL,Ferdinand-Porsche-Str. 6,52525,Heinsberg,DE,51.0609613,6.1213128,02452  99910,,https://www.opel-meures-heinsberg.de/
Autohaus Kriener KG Kraftfahrzeuge,OPEL,Hauptstr. 13,87757,Kirchheim in Schwaben,DE,48.172455,10.4786613,08266  86110,geschaeftsleitung@opel-kriener.de,https://www.opel-kriener-kirchheim.de/
Autohaus Czasny GmbH,OPEL,Gewerbestr. 58,82211,Herrsching,DE,48.0047589,11.1737301,08152  1001,autohaus@czasny.de,https://www.opel-czasny-herrsching.de/
Autohaus Barth & Frey GmbH,OPEL,Tiefensteiner Str. 149-155,55743,Idar-Oberstein,DE,49.7395101,7.2805749,06781  330  0,m.frey@barth-frey.de,https://www.opel-barth-frey-idar-oberstein.de/
Autohaus Haeberlen GmbH,OPEL,Hermann-Köhl-Str. 3,86899,Landsberg am Lech,DE,48.07181,10.85921,08191  92800,,http://www.opel.de
Auto Zschernitz GmbH,OPEL,Am Mühlburger Bahnhof 10,76189,Karlsruhe,DE,49.0168466,8.3499626,0721 66280,,http://www.zschernitz.de
Autohaus Vodermayer GmbH,OPEL,Innstr. 70,83022,Rosenheim,DE,47.8547174,12.1395222,08031  30070,info@vodermayer.de,https://www.opel-vodermayer-rosenheim.de/
Autohaus Mitteregger GmbH,OPEL,Vagenerstr. 1-3,83052,Bruckmühl,DE,47.8799181,11.9105808,08062  7070  0,info@opel-mitteregger.de,https://www.opel-mitteregger-bruckmuehl.de/
CSA - Autovertriebs GmbH,OPEL,Chiemseestr. 27,83022,Rosenheim,DE,47.851248,12.137449,08031 36760,,https://www.opel-csa-rosenheim.de/
Autohaus Hasieber GmbH,OPEL,Liebigstraße 6,89155,Erbach,DE,48.3279802,9.8995468,07305 96450,,https://www.opel-hasieber-erbach.de/
Josef Hinterauer GmbH,OPEL,Gewerbering 16,82544,Egling,DE,47.9298268,11.5013385,08176  7430,karolin.hinterauer@hinterauer-opel.de,http://www.opel.de
ACE GmbH,OPEL,Daimlerstr. 24,72581,Dettingen an der Erms,DE,48.5299576,9.3336843,07123  9720,,https://www.opel-ace-dettingen.de/
Ruprecht Tretter Autohaus GmbH & Co. KG,OPEL,Lauterburger Str. 9,76870,Kandel,DE,49.0763189,8.2017467,07275  95610,info@opel-tretter.de,https://www.opel-tretter-kandel.de/
Auto Thüllen Indeland GmbH & Co. KG,OPEL,Kloshaus 18,52499,Baesweiler,DE,50.8936519,6.1767937,02401  804747,esko.thuellen@thuellen.de,https://www.opel-thuellen-baesweiler.de/
Auto Klasen GmbH,OPEL,Dauner Str. 29,54570,Pelm,DE,50.2383121,6.6922819,06591  95550,info@autoklasen.de,http://www.opel.de
Autohaus Johannes GmbH & Co. KG,OPEL,Hauptstr. 17-19,76831,Billigheim-Ingenheim,DE,49.1379163,8.0816931,06349  99410,Info@autohaus-johannes.de,https://www.opel-johannes-billigheim.de/
Autohaus Ritter GmbH & Co. KG,OPEL,Industriestr. 1,54486,Mülheim/Mosel,DE,49.9125684,7.0187592,06534  8000,autohaus-ritter@t-online.de,https://www.opel-ritter-muelheim.de/
Hans Steingraber GmbH & Co. KG,OPEL,Robert-Bosch-Str. 1,83607,Holzkirchen,DE,47.879952,11.7101075,08024  90660,,https://www.opel-steingraber-holzkirchen.de/
Autohaus Widmann GmbH & Co. KG,OPEL,Herrenweiher 20,89165,Dietenheim,DE,48.2457212,10.0568548,07347  96660,info@autohaus-widmann.org,https://www.opel-widmann-dietenheim.de/
Auto Zschernitz GmbH,OPEL,Siemensstr. 19,76275,Ettlingen,DE,48.9393945,8.3748819,07243 3310,,http://www.zschernitz.de
Jochen Laub GmbH,OPEL,Industriestr. 49,66869,Kusel,DE,49.5422009,7.4311453,06381  92070,diplo-JochenS.4@t-online.de,https://www.opel-laub-kusel.de/
Autohaus Wickenhäuser GmbH,OPEL,Hans-Urmiller-Ring 42,82515,Wolfratshausen,DE,47.901152,11.4290861,08171  41870,info@opel-wickenhaeuser.de,http://www.opel.de
Autohaus AHS GmbH,OPEL,Gutenbergstr. 2,54516,Wittlich,DE,49.9784194,6.9006465,06571  927  0,,https://www.opel-heister-wittlich.de/
Auto-Dechent,OPEL,Hirtenbachstr. 4-8,67706,Krickenbach,DE,49.36308,7.6649732,06307  562,info@auto-dechent.de,https://www.opel-dechent-krickenbach.de/
Auto Schumacher e.K.,OPEL,Auf der Bever 2,52152,Simmerath,DE,50.6115523,6.3085643,02473/1395,info@auto-schumacher.com,http://www.opel.de
Pascher e.K.,OPEL,Amberger Str. 60,86807,Buchloe,DE,48.0415775,10.7063341,08241  960090,info@opel-pascher.de,https://www.opel-pascher-buchloe.de/
Autohaus Gastager GmbH,OPEL,Seehauser Str. 43 a,83324,Ruhpolding,DE,47.7488988,12.6561606,08663  88550,info@autohaus-gastager.de,https://www.opel-gastager-ruhpolding.de/
Autohaus Schick GmbH,OPEL,Saarbrücker Str. 34,66849,Landstuhl,DE,49.4147237,7.5590782,06371  46840,info@ah-schick.net,https://www.opel-schick-landstuhl.de/
Kohl automobile Vertriebs GmbH,OPEL,Neuenhofstr. 166,52078,Aachen,DE,50.7645161,6.1497537,0241  92770,,https://www.opel-kohl-aachen.de/
Auto Thüllen Aachen GmbH & Co. KG,OPEL,Rotter Bruch 25,52068,Aachen,DE,50.7812589,6.1273117,0241  94400,,https://www.opel-thuellen-aachen.de/
Automobilforum Staiger GmbH,OPEL,Daimlerstr. 4-6,72793,Pfullingen,DE,48.4785795,9.2272277,07121  70150,,http://www.opel.de
Franz Schmid GmbH & Co. KG,OPEL,Wendelsteinstr. 4,83714,Miesbach,DE,47.7901284,11.8411138,08025  70020,gl-hk@franz-schmid-mercedes.de,https://www.opel-schmid-miesbach.de/
Autohaus Lindenschmid GmbH,OPEL,Bebenhäuser Str. 8,72074,Tübingen,DE,48.5330873,9.0774619,07071  56556  0,Autohaus.Lindenschmid@t-online.de,https://www.opel-lindenschmid-tuebingen.de/
Autohaus Wilhelm Pütz GmbH   & Co.KG,OPEL,Kirchdorfer Str. 85,86825,Bad Wörishofen,DE,48.0219801,10.5945588,08247/96490,,https://www.opel-puetz-bad-woerishofen.de/
Automobilzentrum Memmingen GmbH,OPEL,Allgäuer Str. 11,87719,Mindelheim,DE,48.0424051,10.504334,08261  763130,,http://www.opel.de
Auto-Hauck Mathias Hauck,OPEL,Hauptstr. 100,67714,Waldfischbach-Burgalben,DE,49.2855373,7.6483584,06333  3091,auto-hauck@t-online.de,https://www.opel-hauck-waldfischbach.de/
Autohaus Meures GmbH,OPEL,Suestrastr. 63,52538,Selfkant-Süsterseel,DE,50.9966208,5.9380586,02456  506840,,https://www.opel-meures-selfkant.de/
Autohaus Hasieber Ehingen GmbH & Co.,OPEL,Wachau 2,89584,Ehingen-Berg,DE,48.2537549,9.7419408,07391  77720,,https://www.opel-hasieber-ehingen.de/
Auto-Team GmbH,OPEL,Tübinger Str. 71,71083,Herrenberg,DE,48.5890061,8.8817083,07032  279660,herrenberg@auto-team.de,https://www.opel-auto-team-herrenberg.de/
Auto-Team GmbH,OPEL,Tübinger Str. 69,72119,Ammerbuch,DE,48.5501778,8.9666511,07073  91870,ammerbuch@auto-team.de,https://www.opel-auto-team-ammerbuch.de/
Autohaus Stanglmair GmbH & Co. Betriebs-KG,OPEL,Edelweißstr. 15,82407,Wielenbach,DE,47.8686459,11.1632207,0881/9245540,,https://opel-stanglmair-wielenbach.de
Schwabengarage GmbH,OPEL,Hechinger Str. 156,72072,Tübingen,DE,48.496884,9.064922,07071 97570,tuebingen@schwabengarage.de,https://www.opel-schwabengarage-tuebingen.de/
Schechter GmbH & Co KG,OPEL,Eckstr. 12,66976,Rodalben/Neuhof,DE,49.234406,7.6649242,06331  2328  0,info@schechter24.de,https://www.opel-schechter-rodalben.de/
Herbert Negele,OPEL,Leederer Str. 2,86920,Denklingen,DE,47.9161004,10.8513771,08243  1326,opel-negele@t-online.de,https://www.opel-negele-denklingen.de/
Autohaus Dengler GmbH & Co. KG,OPEL,Calwer Str. 3-7,72218,Wildberg,DE,48.6260445,8.7443431,07054  8310,,https://www.opel-dengler-wildberg.de/
Autohaus Walter Ruf,OPEL,Heggbacher Str. 25,88477,Schwendi,DE,48.1543505,9.9435801,07353  1394,autoruf@nexgo.de,https://www.opel-ruf-schwendi.de/
Auto Weimar GmbH,OPEL,Bahnhofstr. 33,72810,Gomaringen,DE,48.4573957,9.0991078,07072  920404,info@auto-weimar.de,https://www.opel-weimar-gomaringen.de/
Häusler Automobil GmbH & Co. KG NL Bad Tölz,OPEL,Sachsenkamer Str. 5,83646,Bad Tölz,DE,47.7593902,11.5707126,08041  78600,info.badtoelz@haeusler.de,https://www.opel-haeusler-bad-toelz.de/
Autohaus Föhr GmbH & Co. KG,OPEL,Kirchberger Str. 54-56,88453,Erolzheim,DE,48.0943784,10.0746645,07354  93000,info@opel-foehr.de,https://www.opel-foehr-erolzheim.de/
Autohaus Mauerhoff GmbH & Co. KG,OPEL,Karlsruher Str. 1,76437,Rastatt,DE,48.8623641,8.2150753,07222  9689680,info@mauerhoff.de,https://www.opel-mauerhoff-rastatt.de/
Autohaus Bohnen GmbH,OPEL,Rudolf-Diesel-Str. 1,54595,Prüm,DE,50.2138365,6.4415629,06551  95150,,https://www.opel-bohnen-pruem.de/
Autohaus Paul Mayer GmbH,OPEL,Emerkinger Str. 44,89597,Munderkingen,DE,48.2264355,9.645944,07393  2365,auto-mayer-munderkingen@t-online.de,https://www.opel-mayer-munderkingen.de/
ALB auto bauer GmbH,OPEL,Saarbrücker Str. 10,66625,Nohfelden,DE,49.5824006,7.1151604,06852  90130,info@alb-bauer.net,https://www.opel-bauer-nohfelden.de/
Autohaus Schechter GmbH & Co. KG,OPEL,Maryland Avenue 4,66953,Pirmasens,DE,49.21411,7.60674,06331  51070,info@schechter24.de,https://www.opel-schechter-pirmasens.de/
Autohaus Härtl GmbH,OPEL,Seeshaupter Str. 48,82377,Penzberg,DE,47.7642893,11.3619957,08856  7035,autohaertl@yahoo.de,https://www.opel-haertl-penzberg.de/
Autohaus Haeberlen GmbH,OPEL,Hüttenstr. 59,87600,Kaufbeuren,DE,47.9108375,10.6295522,08341  97660,,http://www.opel.de
Autohaus Kußmaul GmbH,OPEL,Tübinger Str. 57,72108,Rottenburg am Neckar,DE,48.4726176,8.9434217,07472/8508,OPELKUSSMAUL@aol.com,https://www.opel-kussmaul-rottenburg-hailfingen.de/
Autohaus J. Stanglmair & Co. GmbH,OPEL,Wiesseer Str. 40,83700,Rottach-Egern,DE,47.6896535,11.7483726,08022  92850,,https://www.opel-stanglmair-rottach.de/
Ernst Maier GmbH & Co. KG,OPEL,Karl-Jaggy-Str. 53,72116,Mössingen,DE,48.4118674,9.0577701,07473  95230,info@opel-maier-moessingen.de,http://www.opel.de
Autohaus Erich Nothelfer,OPEL,Güterbahnhof 2,88416,Ochsenhausen,DE,48.0730564,9.9475041,07352  9225  0,autohaus-nothelfer@t-online.de,http://www.opel.de
Autohaus Stanglmair GmbH & Co. Betr. KG,OPEL,Bahnhofstr. 13,86956,Schongau,DE,47.8131023,10.9009096,08861  23260,,https://www.opel-stanglmair-schongau.de/
Automobilzentrum Memmingen GmbH,OPEL,Europastr. 7,87700,Memmingen,DE,47.9990929,10.1528107,08331  85680,,http://www.opel.de
Autohaus Deckert GmbH,OPEL,Jakob-Stoll-Straße 2b,66606,St. Wendel,DE,49.460654,7.15386,06851/80004-0,info@autohaus-deckert.com,https://www.opel-deckert-st-wendel.de/
Autohaus Deckert GmbH,OPEL,Entenmühlstraße 70,66424,Homburg,DE,49.31483,7.32236,06841 972910,info@autohaus-deckert.com,https://www.opel-deckert-homburg.de/
Autohaus Esenwein GmbH & Co. KG,OPEL,Steigmühlstr. 34,88400,Biberach,DE,48.09153,9.77613,07351/4441884,biberach@esenwein.de,https://www.opel-esenwein-biberach.de/
Autohaus Werkmeister GmbH,OPEL,Dieselstr. 20,54634,Bitburg,DE,49.9511021,6.5329448,06561  916  0,,https://www.opel-werkmeister-bitburg.de/
Müller lebt Autos GmbH,OPEL,Ruwererstrasse 1b,54292,Trier,DE,49.776109,6.69033,0651/9953-0,kontakt@mueller-opel.com,https://www.opel-mueller-trier.de/
Autohaus Deckert GmbH,OPEL,Saarpfalzstraße 11,66482,Zweibrücken,DE,49.26095,7.33795,06332/566414,info@autohaus-deckert.com,https://www.opel-deckert-zweibruecken.de/
Auto Hauser Inh. Martin Hauser e.K,OPEL,Porschestr. 3,72285,Pfalzgrafenweiler,DE,48.535307,8.568642,07445  8559  0,auto@autohauser.de,https://www.opel-hauser-pfalzgrafenweiler.de/
Autohaus Max Schlegel GmbH & Co. KG,OPEL,Neue Unlinger Str. 20,88499,Riedlingen,DE,48.150439,9.4880015,07371  93440,,https://www.opel-schlegel-riedlingen.de/
Autohaus Stanglmair GmbH & Co. Betriebs-KG,OPEL,Straßäcker 10,82418,Murnau,DE,47.689075,11.2018771,08841/61620,info@auto-stanglmair.de,https://opel-stanglmair-murnau.de
Autohaus Lanz GmbH,OPEL,Sigmaringer Str. 79,72501,Gammertingen,DE,48.2451949,9.2241602,07574  2335,Lanz-Autohaus@t-online.de,https://www.opel-lanz-gammertingen.de/
Autohaus Waldner Inh. Björn Waldner e.K.,OPEL,Hahnerstr. 12,72160,Horb,DE,48.4566035,8.6995481,07451  2211,,https://www.opel-waldner-horb.de/
Autohaus Müller,OPEL,Rastatter Str. 15,77836,Rheinmünster,DE,48.765814,8.0486809,07227  2349,opel@muellerkfz.de,http://www.opel.de
Autohaus Bost GmbH,OPEL,Dirmingerstr. 20,66646,Marpingen-Berschweiler,DE,49.4309561,7.0252401,06827  800080,info@autohaus-bost.de,https://www.opel-bost-marpingen.de/
Autohaus Lingnau e.K. Inh. Katja Lingnau,OPEL,Wisportstr. 2,54295,Trier,DE,49.7416186,6.6440971,0651  938050,info@autohaus-lingnau.de,https://www.opel-lingnau-trier.de/
Autohaus Mauerhoff GmbH & Co. KG,OPEL,Moritzenmatten 1,77815,Bühl,DE,48.712295,8.117845,07223  98950,,https://www.opel-mauerhoff-buehl.de/
Ludwig Huber & Co. Kraftfahrzeuge GmbH,OPEL,Johann-Georg-Fendt-Str. 45,87616,Marktoberdorf,DE,47.7756755,10.6081048,08342  6075,kopetschke-h@t-online.de,https://www.opel-huber-marktoberdorf.de/
Gebr. Barth GmbH,OPEL,Auf der Heide 6-8,66709,Weiskirchen,DE,49.55113,6.8270922,06876  70070,,https://www.opel-barth-weiskirchen.de/
TRI AG Automobile,OPEL,Robert-Bosch-Str. 4,77815,Bühl,DE,48.687588,8.115396,07223/9371-0,info.buehl@tri.ag,https://www.opel-triag-buehl.de/
Autohaus Weinläder GmbH,OPEL,Wilhelm-Hauff-Weg 35,72280,Dornstetten,DE,48.475295,8.4951808,07443  96310,AutohausWeinlaeder@t-online.de,https://www.opel-weinlaeder-dornstetten.de/
"Autohaus Meier, Inh. Thomas Graml",OPEL,Am Bahnhof 2,86983,Lechbruck,DE,47.6976457,10.7922072,08862  8498,opel.meier@vr-web.de,https://www.opel-meier-lechbruck.de/
Auto Gebhart GmbH,OPEL,Ludwig-Gaab-Str. 4,88427,Bad Schussenried,DE,48.0041291,9.6686574,07583  2422,paul.gebhart@auto-gebhart.de,https://www.opel-gebhart-bad-schussenried.de/
Autohaus Dechent GmbH,OPEL,Kohlenstr. 64,66386,St. Ingbert,DE,49.2801593,7.1112973,06894  92184  0,,https://www.opel-dechent-st-ingbert.de/
Autohaus Reichart GmbH,OPEL,Badenberg 32,87499,Wildpoldsried,DE,47.7710553,10.407216,08304  420,info@autohaus-reichart.de,https://www.opel-reichart-wildpoldsried.de/
Autohaus Ziegler OHG,OPEL,Ziegelwiesenweg 3,88410,Bad Wurzach,DE,47.9018887,9.8946707,07564  2891,auto.ziegler@gmx.de,http://www.opel.de
Markus Hofmann GmbH,OPEL,Mackstrasse 31,88348,Bad Saulgau,DE,48.0129917,9.5092292,07581  48770,markus.hofmann@autozentrum-hofmann.de,http://www.opel.de
Autohaus Krause,OPEL,Rottenbucher Str. 5,82487,Oberammergau,DE,47.5996899,11.0522871,08822  6365,autohaus.krause@gaponline.de,https://www.opel-krause-oberammergau.de/
Auto-Team GmbH,OPEL,Wasserwiesen 31,72336,Balingen,DE,48.2581149,8.8524396,07433  909700,balingen@auto-team.de,https://www.opel-auto-team-balingen.de/
Autohaus Rotter e.K.,OPEL,Legauer Str. 3,87452,Altusried,DE,47.7980178,10.159757,08373  8242,ROTTER-KIMRATSHOFEN@t-online.de,https://www.opel-rotter-altusried.de/
Autohaus Firley GmbH & Co. KG,OPEL,Alte Kiesgrube 10,88326,Aulendorf,DE,47.9417907,9.646754,07525  92350,autohaus-firley@t-online.de,https://www.opel-firley-aulendorf.de/
Stitzenberger GmbH,OPEL,Beim Hammerschmied 5,88299,Leutkirch,DE,47.8278676,10.0138224,07561  98030,,https://www.opel-stitzenberger-leutkirch.de/
Auto-Team GmbH,OPEL,Balinger Str. 92,72348,Rosenfeld,DE,48.2870965,8.733062,07428  93860,rosenfeld@auto-team.de,https://www.opel-auto-team-rosenfeld.de/
Autohaus Zimmermann GmbH,OPEL,In den Burgwiesen 18,72488,Sigmaringen,DE,48.0890445,9.2100439,07571  72000,zimmermann@zimmermann-sig.de,https://www.opel-zimmermann-sigmaringen.de/
Auto Michels GmbH,OPEL,Am Saarufer 17,54439,Saarburg,DE,49.6016028,6.5545805,06581  99898  0,Auto-michels@t-online.de,https://www.opel-michels-saarburg.de/
Autohaus Dechent GmbH,OPEL,Mainzer Str. 168,66121,Saarbrücken,DE,49.2258603,7.0255995,0681  81940,,https://www.opel-dechent-saarbruecken.de/
Autohaus Haeberlen GmbH,OPEL,Lindauer Str. 107,87435,Kempten,DE,47.7173792,10.2972641,0831  581290,,http://www.opel.de
Stellantis &You Deutschland GmbH,OPEL,Armand-Peugeot-Str. 2,66119,Saarbrücken,DE,49.199688,7.018261,0681 932610 25,info@psa.com,https://www.opel-stellantisandyou-saarbruecken.de/
RUPRECHT GMBH,OPEL,BITTELSCHIESSER STR. 34,72505,KRAUCHENWIES,DE,48.0158,9.24396,07576 9790,info@aurup.de,https://www.opel-ruprecht-krauchenwies.de/
Auto Müller Ludwig Müller GmbH & Co. KG,OPEL,Appenweierer Str. 11,77704,Oberkirch,DE,48.5318289,8.0749824,07802  3356,auto-mueller@web.de,http://www.opel.de
Autohaus Josef Stanglmair GmbH,OPEL,Hauptstr. 16,82467,Garmisch-Partenkirchen,DE,47.5007264,11.1017564,08821  95850,Info@opel-stanglmair.de,https://www.opel-stanglmair-garmisch-partenkirchen.de/
Autohaus Haeberlen GmbH,OPEL,Kemptener Str. 69a,87629,FUESSEN,DE,47.56751,10.68163,08362  91070,,http://www.opel.de
Autohaus Kugler-Süßer e.K.,OPEL,Hauptstr. 90,72275,Alpirsbach,DE,48.3401202,8.396376,07444  2310,info@kugler-suesser.de,https://www.opel-kugler-suesser-alpirsbach.de/
Autohaus Weber & Nauert GmbH,OPEL,Nordring 103-105,66333,Völklingen,DE,49.2649040222168,6.83702087402344,06898  972220,autohaus@weber-nauert.de,http://www.opel.de
Müller lebt Autos GmbH,OPEL,Konrad-Adenauer-Allee 8,66763,Dillingen,DE,49.347332,6.713468,06831/76000,kontakt@mueller-opel.com,https://www.opel-mueller-dillingen.de/
Auto Miehle,OPEL,Hähnlehofstr. 77,88250,Weingarten,DE,47.8044018,9.623793,0751  56015860,stefan.miehle@gmx.de,https://www.opel-miehle-weingarten.de/
Rheingarage Baumert GmbH und Co. KG,OPEL,Hertzstraße 2,77694,Kehl-Sundheim,DE,48.55042,7.84149,07851 93990,,http://www.opel.de
Autohaus Bösinger GmbH,OPEL,Max-Planck-Str. 5,78713,Schramberg-Sulgen,DE,48.2337314,8.426956,07422  5601060,,https://www.opel-boesinger-schramberg.de/
Autohaus Linck GmbH,OPEL,Freiburger Strasse 26,77652,Offenburg,DE,48.4738325,7.9337323,0781  72690,,https://www.opel-linck-offenburg.de/
Wildmoser GmbH & Co. KG,OPEL,Zuppinger Straße 9,88213,Ravensburg,DE,47.77694,9.56763,0751  362510,,https://www.opel-wildmoser-ravensburg.de/
Wildmoser GmbH & Co. KG,OPEL,Zeppelinstr. 14-16,88239,Wangen im Allgäu,DE,47.68982,9.82855,07522  7957  0,,https://www.opel-wildmoser-wangen.de/
Autohaus Haeberlen GmbH,OPEL,Sonthofener Str. 13,87509,Immenstadt,DE,47.558086,10.2225698,08323  96570,,http://www.opel.de
Autohaus Roth GmbH & Co. KG,OPEL,Schwarzwaldstr. 1,78652,Deisslingen,DE,48.1064307,8.6015089,07420  422,info@roth-automobile.de,https://www.opel-roth-deisslingen.de/
"Autohaus Michael Feyerabend e.K., Inhaber Barbara Feyerabend",OPEL,Grüntenstr. 25 A,87527,Sonthofen,DE,47.519287,10.281379,08321  78086  0,auto.feyerabend@t-online.de,http://www.opel.de
Autohaus Rainer Kammer,OPEL,Weiherstr. 1,88682,Salem-Beuren,DE,47.7983656,9.3222927,07554  8914,info@opel-kammer.de,https://www.opel-kammer-salem.de/
Wildmoser GmbH & Co. KG,OPEL,Berliner Str. 6,88161,Lindenberg,DE,47.6069432,9.8918573,08381  927070,,https://www.opel-wildmoser-Lindenberg.de/
Autohaus Storz GmbH,OPEL,Neuer Markt 1/1,78052,Villingen-Schwenningen,DE,48.07962,8.49903,07721  9483  0,opel@autohaus-storz.de,https://www.opel-storz-villingen-schwenningen.de/
Autohaus Konrad Martin GmbH & Co. KG,OPEL,Ludwigshafener Str. 2,78333,Stockach,DE,47.8487142,9.0088528,07771  2070,,https://www.opel-martin-stockach.de/
Autocenter Klaus GmbH,OPEL,Oberriedweg 9 - 13a,88662,Überlingen,DE,47.7723305,9.185794,07551  95200,jfischer@autocenter-klaus.de,https://www.opel-autocenter-ueberlingen.de/
Autohaus Bösinger GmbH,OPEL,Am Schützen 4,78112,St. Georgen,DE,48.1259282,8.2923945,07724  94490,,https://www.opel-boesinger-st-georgen.de/
Autohaus Bernd Ivacic GmbH,OPEL,Anton-Sommer-Str. 4,88046,Friedrichshafen,DE,47.6509276,9.5047575,07541  52979,b.ivacic@nissan-ivacic.de,https://www.opel-ivacic-friedrichshafen.de/
Wildmoser GmbH & Co. KG,OPEL,Bregenzer Str. 43-45,88131,Lindau,DE,47.55303,9.70155,08382  96250,,https://www.opel-wildmoser-lindau.de/
TRI AG Automobile,OPEL,Kehnerfeld 17-21,77971,Kippenheim,DE,48.302591,7.8128404,07825/84689-0,service.kippenheim1@tri.ag,https://www.opel-triag-kippenheim.de/
"Autohaus J. Schönenberger e.K., Inh. Thomas Schönenberger",OPEL,Konstanzer Str. 24,78465,Konstanz-Dettingen,DE,47.7321812,9.118022,07533  5111,J.Schoenenberger@t-online.de,https://www.opel-schoenenberger-konstanz.de/
Hin Autos & Service GmbH,OPEL,Telfer Str. 13,79215,Elzach,DE,48.1682031,8.0588276,07682  925580,info@autohaus-hin.de,https://www.opel-hin-elzach.de/
A. Schönenberger GmbH,OPEL,Industriestr. 14,78256,Steißlingen,DE,47.7828939,8.9129475,07738  92600,,https://www.opel-schoenenberger-steisslingen.de/
Autohaus Ostermann GmbH,OPEL,Rheinstr. 1,77955,Ettenheim,DE,48.2568234,7.8132365,07822  1356,autohaus-ostermann@t-online.de,https://www.opel-ostermann-ettenheim.de/
A. Schönenberger GmbH,OPEL,Gewerbestr. 20,78315,Radolfzell,DE,47.7403563,8.9540847,07732  92800,,https://www.opel-schoenenberger-radolfzell.de/
Autohaus Mahler GmbH,OPEL,Weibert-Mahler-Str. 1,78120,Furtwangen,DE,48.0483963,8.2018543,07723  93200,,https://www.opel-mahler-furtwangen.de/
Autohaus Bach-Hegau e.K.,OPEL,Marie-Curie-Str. 1,78224,Singen,DE,47.7502208,8.8861041,07731  61020,,https://www.opel-bach-singen.de/
Autohaus Hensle KG,OPEL,Hochwaldstr. 2,79341,Kenzingen-Nordweil,DE,48.1964776,7.8141303,07644  1708,info@opel-hensle.de,https://www.opel-hensle-kenzingen.de/
Auto Mössinger GmbH,OPEL,"Bundesstr. 3, Nr. 12",79312,Emmendingen,DE,48.128031,7.827544,07641  46780,info@auto-moessinger.de,https://www.opel-moessinger-emmendingen.de/
Hin Autos & Service GmbH,OPEL,Kronenstr. 40,79211,Denzlingen,DE,48.0681264,7.8698219,07666  2237,d-info@autohaus-hin.de,https://www.opel-hin-denzlingen.de/
Autohaus Kaufmann GmbH Wilfried Kaufmann,OPEL,Hauptstr. 34,79353,Bahlingen,DE,48.1228671,7.7390212,07663  1261,info@autohauskaufmann.de,https://www.opel-kaufmann-bahlingen.de/
Autohaus Moser GmbH,OPEL,Lenzkircherstr. 24,79848,Bonndorf,DE,47.8183161,8.3310344,07703  93780,autohaus-moser@t-online.de,https://www.opel-moser-bonndorf.de/
Auto Center Süd GmbH,OPEL,St. Georgener Str. 10,79111,Freiburg im Breisgau,DE,47.9857575,7.802873,0761  478000,info@opel-freiburg.de,https://www.opel-auto-center-sued-freiburg.de/
Autohaus Tiefert GmbH,OPEL,Bundesstr. 51,79787,Lauchringen,DE,47.629891,8.307366,07741  9202  0,,https://www.opel-tiefert-lauchringen.de/
Autohaus Ganzmann Rolf Ganzmann,OPEL,Friedrichstr. 27+36,79677,Schönau/Schwarzwald,DE,47.7872975,7.8950421,07673  91030,,https://www.opel-ganzmann-schoenau.de/
Sum GmbH,OPEL,Bundesstr. 11-13,79423,Heitersheim/Baden,DE,47.8758942,7.6551344,07634  52610,tilo.sum@auto-sum.de,https://www.opel-sum-heitersheim.de/
Autohaus Tiefert GmbH,OPEL,Klingnauer Str. 20,79761,Waldshut-Tiengen,DE,47.6091682,8.2299557,07751  8754  0,,https://www.opel-tiefert-waldshut-tiengen.de/
Sum GmbH,OPEL,Bahnhofstr. 12,79379,Müllheim,DE,47.8082807,7.5997694,07631  36420,tilo.sum@auto-sum.de,https://www.opel-sum-muellheim.de/
Stächelin Automobile GmbH,OPEL,Austr. 1,79664,Wehr,DE,47.6262163,7.9071213,07762  70890,info@staechelin-automobile.de,https://www.opel-staechelin-wehr.de/
TRÖNDLE AUTOMOBILE GMBH,OPEL,Im Entenbad 16,79541,Lörrach,DE,47.64179,7.7014,07621 / 4220660,info@autohaus-troendle.de,https://www.opel-troendle-loerrach.de/
Sum GmbH,OPEL,Beim Breitenstein 16,79588,Efringen-Kirchen,DE,47.6547226,7.5712151,07628  918910,tilo.sum@auto-sum.de,https://www.opel-sum-efringen-kirchen.de/
